{
"type": "FeatureCollection",
"name": "DSID",
"features": [
{ "type": "Feature", "properties": { "DSID_EXPP": 1, "DSID_INTU": 5, "DSID_DSNM": "US5RI1BE.000", "DSID_EDTN": "3", "DSID_UPDN": "0", "DSID_UADT": "20250728", "DSID_ISDT": "20250728", "DSID_STED": 3.1, "DSID_PRSP": 1, "DSID_PSDN": "", "DSID_PRED": "2.0", "DSID_PROF": 1, "DSID_AGEN": 550, "DSID_COMT": "Produced by NOAA", "DSSI_DSTR": 2, "DSSI_AALL": 1, "DSSI_NALL": 1, "DSSI_NOMR": 10, "DSSI_NOCR": 0, "DSSI_NOGR": 307, "DSSI_NOLR": 0, "DSSI_NOIN": 187, "DSSI_NOCN": 123, "DSSI_NOED": 162, "DSSI_NOFA": 0, "DSPM_HDAT": 2, "DSPM_VDAT": 16, "DSPM_SDAT": 12, "DSPM_CSCL": 12000, "DSPM_DUNI": 1, "DSPM_HUNI": 1, "DSPM_PUNI": 1, "DSPM_COUN": 1, "DSPM_COMF": 10000000, "DSPM_SOMF": 10, "DSPM_COMT": "Produced by NOAA" }, "geometry": null }
]
}
