{
"type": "FeatureCollection",
"name": "M_COVR",
"crs": { "type": "name", "properties": { "name": "urn:ogc:def:crs:OGC:1.3:CRS84" } },
"features": [
{ "type": "Feature", "properties": { "RCID": 1352, "PRIM": 3, "GRUP": 2, "OBJL": 302, "RVER": 1, "AGEN": 550, "FIDN": 629569667, "FIDS": 12241, "LNAM": "0226258678832FD1", "CATCOV": 1 }, "geometry": { "type": "Polygon", "coordinates": [ [ [ -71.5496163, 41.1 ], [ -71.55, 41.1 ], [ -71.55, 41.100039 ], [ -71.55, 41.100046 ], [ -71.55, 41.1002237 ], [ -71.55, 41.1027766 ], [ -71.55, 41.103346 ], [ -71.55, 41.1034519 ], [ -71.55, 41.1035592 ], [ -71.55, 41.1035639 ], [ -71.55, 41.1035954 ], [ -71.55, 41.103598 ], [ -71.55, 41.1045351 ], [ -71.55, 41.1050933 ], [ -71.55, 41.1052777 ], [ -71.55, 41.1054681 ], [ -71.55, 41.1061374 ], [ -71.55, 41.1063532 ], [ -71.55, 41.1069771 ], [ -71.55, 41.1070073 ], [ -71.55, 41.1110362 ], [ -71.55, 41.1110737 ], [ -71.55, 41.1112266 ], [ -71.55, 41.1117244 ], [ -71.55, 41.1117395 ], [ -71.55, 41.1117562 ], [ -71.55, 41.111987 ], [ -71.55, 41.112001 ], [ -71.55, 41.112014 ], [ -71.55, 41.1130123 ], [ -71.55, 41.1130684 ], [ -71.55, 41.1130811 ], [ -71.55, 41.1130829 ], [ -71.55, 41.1131089 ], [ -71.55, 41.1131396 ], [ -71.55, 41.1134116 ], [ -71.55, 41.1134144 ], [ -71.55, 41.113522 ], [ -71.55, 41.1135624 ], [ -71.55, 41.1136285 ], [ -71.55, 41.1146018 ], [ -71.55, 41.1147003 ], [ -71.55, 41.1148172 ], [ -71.55, 41.1165252 ], [ -71.55, 41.1289265 ], [ -71.55, 41.1289674 ], [ -71.55, 41.1290849 ], [ -71.55, 41.1290906 ], [ -71.55, 41.1291276 ], [ -71.55, 41.1291605 ], [ -71.55, 41.129162 ], [ -71.55, 41.1293434 ], [ -71.55, 41.1293443 ], [ -71.55, 41.1305414 ], [ -71.55, 41.1305441 ], [ -71.55, 41.1305753 ], [ -71.55, 41.1306104 ], [ -71.55, 41.1306114 ], [ -71.55, 41.1306385 ], [ -71.55, 41.1306403 ], [ -71.55, 41.1317695 ], [ -71.55, 41.1320383 ], [ -71.55, 41.1329342 ], [ -71.55, 41.1329507 ], [ -71.55, 41.1332632 ], [ -71.55, 41.1335912 ], [ -71.55, 41.1337287 ], [ -71.55, 41.1349419 ], [ -71.55, 41.1349919 ], [ -71.55, 41.1350391 ], [ -71.55, 41.1350397 ], [ -71.55, 41.1352838 ], [ -71.55, 41.1352842 ], [ -71.55, 41.1353097 ], [ -71.55, 41.1353297 ], [ -71.55, 41.1355492 ], [ -71.55, 41.1370472 ], [ -71.55, 41.1370654 ], [ -71.55, 41.1373804 ], [ -71.55, 41.1375874 ], [ -71.55, 41.1394851 ], [ -71.55, 41.1406488 ], [ -71.55, 41.141484 ], [ -71.55, 41.1418737 ], [ -71.55, 41.1419498 ], [ -71.55, 41.1423702 ], [ -71.55, 41.1423716 ], [ -71.55, 41.1424976 ], [ -71.55, 41.142518 ], [ -71.55, 41.1426458 ], [ -71.55, 41.1430986 ], [ -71.55, 41.1441162 ], [ -71.55, 41.1441398 ], [ -71.55, 41.1443236 ], [ -71.55, 41.1444549 ], [ -71.55, 41.14534 ], [ -71.55, 41.1453872 ], [ -71.55, 41.1455485 ], [ -71.55, 41.1462186 ], [ -71.55, 41.1464571 ], [ -71.55, 41.1467181 ], [ -71.55, 41.1467219 ], [ -71.55, 41.146766 ], [ -71.55, 41.1467734 ], [ -71.55, 41.1468022 ], [ -71.55, 41.1469693 ], [ -71.55, 41.1475653 ], [ -71.55, 41.1478652 ], [ -71.55, 41.1479044 ], [ -71.55, 41.1479958 ], [ -71.55, 41.1494301 ], [ -71.55, 41.1495373 ], [ -71.55, 41.1496302 ], [ -71.55, 41.1496849 ], [ -71.55, 41.1502148 ], [ -71.55, 41.1503052 ], [ -71.55, 41.1503555 ], [ -71.55, 41.1504636 ], [ -71.55, 41.1504842 ], [ -71.55, 41.1504877 ], [ -71.55, 41.1504879 ], [ -71.55, 41.1505131 ], [ -71.55, 41.1512221 ], [ -71.55, 41.1513246 ], [ -71.55, 41.1517091 ], [ -71.55, 41.1517535 ], [ -71.55, 41.1518894 ], [ -71.55, 41.151905 ], [ -71.55, 41.1522343 ], [ -71.55, 41.1529674 ], [ -71.55, 41.1662993 ], [ -71.55, 41.166481 ], [ -71.55, 41.1666091 ], [ -71.55, 41.1666101 ], [ -71.55, 41.1666343 ], [ -71.55, 41.1672207 ], [ -71.55, 41.1675128 ], [ -71.55, 41.1675584 ], [ -71.55, 41.1676692 ], [ -71.55, 41.1677564 ], [ -71.55, 41.1678032 ], [ -71.55, 41.167804 ], [ -71.55, 41.1679365 ], [ -71.55, 41.1679474 ], [ -71.55, 41.1679475 ], [ -71.55, 41.1682181 ], [ -71.55, 41.1682349 ], [ -71.55, 41.1683516 ], [ -71.55, 41.1685632 ], [ -71.55, 41.1685652 ], [ -71.55, 41.1686956 ], [ -71.55, 41.1690082 ], [ -71.55, 41.1691589 ], [ -71.55, 41.1692582 ], [ -71.55, 41.1693274 ], [ -71.55, 41.1693278 ], [ -71.55, 41.1694702 ], [ -71.55, 41.1695497 ], [ -71.55, 41.1708878 ], [ -71.55, 41.1710105 ], [ -71.55, 41.171011 ], [ -71.55, 41.1713799 ], [ -71.55, 41.171602 ], [ -71.55, 41.1716024 ], [ -71.55, 41.1716527 ], [ -71.55, 41.171841 ], [ -71.55, 41.1718608 ], [ -71.55, 41.1718611 ], [ -71.55, 41.1726049 ], [ -71.55, 41.1738298 ], [ -71.55, 41.1739966 ], [ -71.55, 41.174434 ], [ -71.55, 41.1744368 ], [ -71.55, 41.1749563 ], [ -71.55, 41.175 ], [ -71.5498316, 41.175 ], [ -71.54951, 41.175 ], [ -71.5494826, 41.175 ], [ -71.549437, 41.175 ], [ -71.5487088, 41.175 ], [ -71.5476557, 41.175 ], [ -71.546673, 41.175 ], [ -71.5466347, 41.175 ], [ -71.5465909, 41.175 ], [ -71.5465583, 41.175 ], [ -71.5465579, 41.175 ], [ -71.5430484, 41.175 ], [ -71.5428482, 41.175 ], [ -71.5423773, 41.175 ], [ -71.5402633, 41.175 ], [ -71.540247, 41.175 ], [ -71.5402466, 41.175 ], [ -71.5400691, 41.175 ], [ -71.539778, 41.175 ], [ -71.5397767, 41.175 ], [ -71.5366255, 41.175 ], [ -71.53651, 41.175 ], [ -71.5361702, 41.175 ], [ -71.5361206, 41.175 ], [ -71.5339082, 41.175 ], [ -71.532608, 41.175 ], [ -71.5325841, 41.175 ], [ -71.5325732, 41.175 ], [ -71.5325499, 41.175 ], [ -71.5324645, 41.175 ], [ -71.5285987, 41.175 ], [ -71.5247596, 41.175 ], [ -71.5229144, 41.175 ], [ -71.519183, 41.175 ], [ -71.5179167, 41.175 ], [ -71.5165982, 41.175 ], [ -71.5120553, 41.175 ], [ -71.5080923, 41.175 ], [ -71.5058081, 41.175 ], [ -71.5051348, 41.175 ], [ -71.5051322, 41.175 ], [ -71.5049447, 41.175 ], [ -71.504938, 41.175 ], [ -71.5042679, 41.175 ], [ -71.4799334, 41.175 ], [ -71.4797237, 41.175 ], [ -71.4794544, 41.175 ], [ -71.4779355, 41.175 ], [ -71.4778532, 41.175 ], [ -71.4778421, 41.175 ], [ -71.4776287, 41.175 ], [ -71.475, 41.175 ], [ -71.475, 41.1738084 ], [ -71.475, 41.1699344 ], [ -71.475, 41.1690266 ], [ -71.475, 41.1617909 ], [ -71.475, 41.1576204 ], [ -71.475, 41.1342911 ], [ -71.475, 41.1 ], [ -71.4838746, 41.1 ], [ -71.5074607, 41.1 ], [ -71.519209, 41.1 ], [ -71.5198122, 41.1 ], [ -71.5314679, 41.1 ], [ -71.5351658, 41.1 ], [ -71.5376955, 41.1 ], [ -71.537716, 41.1 ], [ -71.5379089, 41.1 ], [ -71.538093, 41.1 ], [ -71.542367, 41.1 ], [ -71.5428235, 41.1 ], [ -71.5428753, 41.1 ], [ -71.5491649, 41.1 ], [ -71.5496163, 41.1 ] ] ] } }
]
}
