{
"type": "FeatureCollection",
"name": "PRCARE",
"crs": { "type": "name", "properties": { "name": "urn:ogc:def:crs:OGC:1.3:CRS84" } },
"features": [
{ "type": "Feature", "properties": { "RCID": 1397, "PRIM": 3, "GRUP": 2, "OBJL": 96, "RVER": 1, "AGEN": 550, "FIDN": 600471324, "FIDS": 8691, "LNAM": "022623CA771C21F3", "TXTDSC": "US414BEC.TXT", "SORDAT": "20091005", "SORIND": "US,US,graph,Chart 13215" }, "geometry": { "type": "Polygon", "coordinates": [ [ [ -71.4838746, 41.1 ], [ -71.475, 41.1 ], [ -71.475, 41.1342911 ], [ -71.475, 41.1576204 ], [ -71.475, 41.1617909 ], [ -71.4766009, 41.1604885 ], [ -71.4769813, 41.1601634 ], [ -71.4785376, 41.1588332 ], [ -71.48042, 41.1571424 ], [ -71.482247, 41.1554171 ], [ -71.4840173, 41.1536585 ], [ -71.4857301, 41.1518675 ], [ -71.4873841, 41.1500452 ], [ -71.4889785, 41.1481927 ], [ -71.4905123, 41.1463112 ], [ -71.4919845, 41.1444017 ], [ -71.4933943, 41.1424654 ], [ -71.4947408, 41.1405035 ], [ -71.4960232, 41.1385171 ], [ -71.4972407, 41.1365075 ], [ -71.4983927, 41.1344758 ], [ -71.4994783, 41.1324234 ], [ -71.500497, 41.1303513 ], [ -71.5014481, 41.1282609 ], [ -71.5023311, 41.1261533 ], [ -71.5031454, 41.12403 ], [ -71.5038906, 41.1218921 ], [ -71.5045662, 41.119741 ], [ -71.5051717, 41.1175779 ], [ -71.5057069, 41.1154042 ], [ -71.5059662, 41.1141851 ], [ -71.5061713, 41.1132211 ], [ -71.5065648, 41.1110299 ], [ -71.5068871, 41.1088321 ], [ -71.5071379, 41.1066288 ], [ -71.5073172, 41.1044215 ], [ -71.5074248, 41.1022115 ], [ -71.5074607, 41.1 ], [ -71.4838746, 41.1 ] ] ] } }
]
}
