{
"type": "FeatureCollection",
"name": "ADMARE",
"crs": { "type": "name", "properties": { "name": "urn:ogc:def:crs:OGC:1.3:CRS84" } },
"features": [
{ "type": "Feature", "properties": { "RCID": 729, "PRIM": 3, "GRUP": 2, "OBJL": 1, "RVER": 1, "AGEN": 550, "FIDN": 1567410707, "FIDS": 47979, "LNAM": "02265D6CCA13BB6B", "JRSDTN": 2, "OBJNAM": "Three Nautical Mile Line", "INFORM": "The seaward-most limit of this area feature is the outer limit of the Three Nautical Mile Line. For more information about maritime zones, please refer to the Coast Pilot, Chapter 1.", "SCAMIN": 999999, "SORDAT": "20240119", "SORIND": "US,US,reprt,L-30-2024" }, "geometry": { "type": "Polygon", "coordinates": [ [ [ -74.6008134, 39.166667 ], [ -74.6002002, 39.166667 ], [ -74.5976738, 39.1689269 ], [ -74.5953812, 39.171259 ], [ -74.5928696, 39.1741538 ], [ -74.5917126, 39.1756506 ], [ -74.5901046, 39.1779524 ], [ -74.5882051, 39.1811172 ], [ -74.5867012, 39.1841376 ], [ -74.584649, 39.1869181 ], [ -74.5831448, 39.1892623 ], [ -74.5813881, 39.1924768 ], [ -74.5798632, 39.1959339 ], [ -74.5792256, 39.1969077 ], [ -74.572454, 39.2045186 ], [ -74.5680699, 39.2092089 ], [ -74.5650996, 39.2121869 ], [ -74.5624693, 39.2145884 ], [ -74.55956, 39.2167282 ], [ -74.5561714, 39.2194941 ], [ -74.5528763, 39.2224651 ], [ -74.5484144, 39.2258705 ], [ -74.5462916, 39.2272859 ], [ -74.5442649, 39.228302 ], [ -74.5417345, 39.2292089 ], [ -74.5387457, 39.230418 ], [ -74.5312767, 39.2338881 ], [ -74.5277526, 39.2357994 ], [ -74.5246508, 39.237333 ], [ -74.5218734, 39.2388162 ], [ -74.5191996, 39.2404104 ], [ -74.515808, 39.2427008 ], [ -74.5141913, 39.2439135 ], [ -74.5118707, 39.2458131 ], [ -74.5086456, 39.2488243 ], [ -74.5060174, 39.2504485 ], [ -74.5034926, 39.2521838 ], [ -74.5010878, 39.2540192 ], [ -74.4988097, 39.25595 ], [ -74.4966646, 39.2579708 ], [ -74.4940216, 39.2607955 ], [ -74.4915416, 39.2638622 ], [ -74.4898597, 39.2661717 ], [ -74.4862557, 39.26904 ], [ -74.4840653, 39.2710313 ], [ -74.4823731, 39.2727266 ], [ -74.4791437, 39.2751834 ], [ -74.4762603, 39.2767542 ], [ -74.4717419, 39.2790655 ], [ -74.466148, 39.2822559 ], [ -74.4527522, 39.2892836 ], [ -74.4446853, 39.2926062 ], [ -74.4407451, 39.294442 ], [ -74.4374968, 39.2960671 ], [ -74.4345943, 39.2971935 ], [ -74.4326275, 39.2980399 ], [ -74.4216566, 39.3030642 ], [ -74.4199381, 39.3037378 ], [ -74.4165659, 39.3043165 ], [ -74.4133161, 39.3050163 ], [ -74.4101177, 39.3058471 ], [ -74.407829, 39.30653 ], [ -74.4047359, 39.3075742 ], [ -74.4015807, 39.3087988 ], [ -74.3986403, 39.3096121 ], [ -74.3930404, 39.3113879 ], [ -74.3899959, 39.3125151 ], [ -74.3870314, 39.3137643 ], [ -74.3841549, 39.3151325 ], [ -74.380221, 39.3171585 ], [ -74.3749977, 39.3200136 ], [ -74.3723208, 39.3216076 ], [ -74.3688654, 39.3239413 ], [ -74.3651198, 39.3262834 ], [ -74.3618292, 39.3286643 ], [ -74.3587601, 39.3312177 ], [ -74.3559275, 39.3339311 ], [ -74.3533454, 39.3367913 ], [ -74.3515808, 39.3390243 ], [ -74.3494663, 39.3421075 ], [ -74.347634, 39.3452976 ], [ -74.3459894, 39.3488269 ], [ -74.3456503, 39.349136 ], [ -74.3436636, 39.3503783 ], [ -74.3411352, 39.3521134 ], [ -74.3387269, 39.3539489 ], [ -74.3365151, 39.3558179 ], [ -74.3288808, 39.3605632 ], [ -74.323566, 39.3643319 ], [ -74.3211573, 39.3661673 ], [ -74.3196217, 39.3674442 ], [ -74.3174282, 39.3694356 ], [ -74.3150247, 39.3718626 ], [ -74.3132218, 39.3738129 ], [ -74.3114249, 39.3754596 ], [ -74.3075716, 39.3782136 ], [ -74.3052465, 39.3801132 ], [ -74.3037689, 39.3814308 ], [ -74.3009958, 39.3841822 ], [ -74.2986161, 39.3869045 ], [ -74.2950974, 39.389813 ], [ -74.293018, 39.3912034 ], [ -74.2900313, 39.3933412 ], [ -74.2868465, 39.3958099 ], [ -74.283891, 39.3984448 ], [ -74.2811794, 39.4012333 ], [ -74.2777461, 39.4052877 ], [ -74.2760301, 39.4075444 ], [ -74.2749718, 39.4090861 ], [ -74.2732368, 39.4118704 ], [ -74.2723196, 39.4134656 ], [ -74.271312, 39.4154163 ], [ -74.2705227, 39.4166844 ], [ -74.2690179, 39.4184135 ], [ -74.2672512, 39.4206467 ], [ -74.2656376, 39.4229483 ], [ -74.2641811, 39.4253124 ], [ -74.2620235, 39.4292138 ], [ -74.2607832, 39.4316508 ], [ -74.2597088, 39.4341348 ], [ -74.2589828, 39.4361166 ], [ -74.2573806, 39.4380769 ], [ -74.2562532, 39.4395891 ], [ -74.2542055, 39.4427004 ], [ -74.2528561, 39.4451024 ], [ -74.2494703, 39.4516881 ], [ -74.2483402, 39.4541572 ], [ -74.2474083, 39.456582 ], [ -74.2457391, 39.4596393 ], [ -74.2446088, 39.4621083 ], [ -74.2433637, 39.4654653 ], [ -74.242491, 39.4685912 ], [ -74.2394726, 39.4701903 ], [ -74.2374005, 39.4714039 ], [ -74.2347911, 39.4730694 ], [ -74.2331156, 39.4742376 ], [ -74.2314935, 39.4754504 ], [ -74.2291651, 39.4773498 ], [ -74.2269681, 39.4793411 ], [ -74.2249086, 39.4814187 ], [ -74.2223857, 39.4843134 ], [ -74.2201295, 39.4873373 ], [ -74.2181507, 39.4904758 ], [ -74.2168196, 39.4929663 ], [ -74.2155885, 39.4946759 ], [ -74.2144648, 39.4963896 ], [ -74.2125916, 39.4978808 ], [ -74.2103494, 39.4998421 ], [ -74.2082426, 39.5018916 ], [ -74.2062771, 39.5040236 ], [ -74.2038854, 39.5069846 ], [ -74.2022697, 39.5092863 ], [ -74.2008117, 39.5116503 ], [ -74.1991244, 39.514878 ], [ -74.1970075, 39.5168821 ], [ -74.1948863, 39.5186197 ], [ -74.1934056, 39.5199373 ], [ -74.1919854, 39.5212942 ], [ -74.1899717, 39.5233994 ], [ -74.1881028, 39.5255832 ], [ -74.186566, 39.5275873 ], [ -74.1832939, 39.531495 ], [ -74.180531, 39.5350341 ], [ -74.1786579, 39.537304 ], [ -74.1747796, 39.5426195 ], [ -74.1732668, 39.5449651 ], [ -74.1714922, 39.5474983 ], [ -74.1704141, 39.5492134 ], [ -74.1681475, 39.5522476 ], [ -74.1635161, 39.5591985 ], [ -74.159949, 39.5639441 ], [ -74.1573982, 39.5675561 ], [ -74.1551432, 39.5702563 ], [ -74.1534744, 39.5725358 ], [ -74.1523373, 39.5742686 ], [ -74.1500006, 39.5775336 ], [ -74.1483052, 39.5803121 ], [ -74.1444092, 39.5857168 ], [ -74.1432149, 39.5875413 ], [ -74.1406887, 39.5911136 ], [ -74.1367076, 39.5970674 ], [ -74.1346475, 39.6 ], [ -74.1351773, 39.6 ], [ -74.1371242, 39.5972284 ], [ -74.1410997, 39.5912829 ], [ -74.1436176, 39.5877221 ], [ -74.1448202, 39.5858861 ], [ -74.1487122, 39.580487 ], [ -74.1504153, 39.5776974 ], [ -74.152747, 39.5744398 ], [ -74.1538854, 39.5727052 ], [ -74.1555421, 39.5704421 ], [ -74.1578062, 39.5677297 ], [ -74.160352, 39.5641244 ], [ -74.1639148, 39.5593843 ], [ -74.1685583, 39.5524169 ], [ -74.1708359, 39.5493656 ], [ -74.1719067, 39.5476621 ], [ -74.1736756, 39.5451372 ], [ -74.1751903, 39.5427888 ], [ -74.1790566, 39.5374897 ], [ -74.1809217, 39.5352298 ], [ -74.1836883, 39.5316861 ], [ -74.1869558, 39.5277841 ], [ -74.1884972, 39.5257743 ], [ -74.1903526, 39.5236062 ], [ -74.1923518, 39.5215162 ], [ -74.1937618, 39.5201691 ], [ -74.1952318, 39.5188609 ], [ -74.1973582, 39.5171189 ], [ -74.1995102, 39.5150793 ], [ -74.2012365, 39.511797 ], [ -74.202684, 39.50945 ], [ -74.2042881, 39.5071649 ], [ -74.2066625, 39.5042252 ], [ -74.2086138, 39.5021086 ], [ -74.2107055, 39.5000739 ], [ -74.2129315, 39.4981267 ], [ -74.2148568, 39.4965833 ], [ -74.2172421, 39.4931169 ], [ -74.2185753, 39.4906225 ], [ -74.2205399, 39.4875067 ], [ -74.2227799, 39.4845045 ], [ -74.2252846, 39.4816307 ], [ -74.2273293, 39.479568 ], [ -74.2295104, 39.477591 ], [ -74.231822, 39.4757053 ], [ -74.2334325, 39.4745012 ], [ -74.2350959, 39.4733414 ], [ -74.2376875, 39.4716873 ], [ -74.2397457, 39.4704819 ], [ -74.242886, 39.4687806 ], [ -74.2440956, 39.4647134 ], [ -74.2454065, 39.4613977 ], [ -74.2465836, 39.4589621 ], [ -74.2478539, 39.4566843 ], [ -74.2487821, 39.4542687 ], [ -74.2499041, 39.4518175 ], [ -74.2541621, 39.4436417 ], [ -74.2556082, 39.4412946 ], [ -74.2566595, 39.439764 ], [ -74.2577788, 39.4382627 ], [ -74.2593962, 39.4362811 ], [ -74.2604901, 39.4334135 ], [ -74.2616119, 39.4309623 ], [ -74.2646054, 39.4254591 ], [ -74.2660514, 39.423112 ], [ -74.2682213, 39.4200801 ], [ -74.2709439, 39.4168363 ], [ -74.2717341, 39.4155666 ], [ -74.2736577, 39.4120229 ], [ -74.2753855, 39.4092498 ], [ -74.2764362, 39.4077193 ], [ -74.2781398, 39.4054788 ], [ -74.2815597, 39.4014401 ], [ -74.2842518, 39.3986717 ], [ -74.287186, 39.3960558 ], [ -74.2903478, 39.3936048 ], [ -74.2933285, 39.3914713 ], [ -74.2954008, 39.3900857 ], [ -74.2989665, 39.3871409 ], [ -74.3013713, 39.3843941 ], [ -74.3041244, 39.3816626 ], [ -74.3055914, 39.3803545 ], [ -74.3078997, 39.3784685 ], [ -74.3117752, 39.375696 ], [ -74.3136037, 39.3740178 ], [ -74.3153958, 39.3720791 ], [ -74.3177888, 39.3696625 ], [ -74.3199665, 39.3676854 ], [ -74.321491, 39.3664178 ], [ -74.3238824, 39.3645955 ], [ -74.3291851, 39.3608352 ], [ -74.3368185, 39.3560905 ], [ -74.3390606, 39.3541993 ], [ -74.3414516, 39.3523771 ], [ -74.3439617, 39.3506544 ], [ -74.3460021, 39.349371 ], [ -74.3464141, 39.3489718 ], [ -74.3480641, 39.3454328 ], [ -74.3498832, 39.3422657 ], [ -74.3519825, 39.3392046 ], [ -74.3537344, 39.3369878 ], [ -74.3562979, 39.3341481 ], [ -74.3591101, 39.3314542 ], [ -74.362157, 39.3289192 ], [ -74.3654241, 39.3265554 ], [ -74.3691688, 39.3242139 ], [ -74.3726126, 39.3218877 ], [ -74.3752702, 39.3203052 ], [ -74.3804802, 39.3174573 ], [ -74.3844073, 39.3154347 ], [ -74.3872631, 39.3140764 ], [ -74.3902064, 39.3128361 ], [ -74.393229, 39.3117171 ], [ -74.3988064, 39.3099486 ], [ -74.4017731, 39.3091267 ], [ -74.4049318, 39.3079007 ], [ -74.4080031, 39.306864 ], [ -74.4102762, 39.3061857 ], [ -74.4134516, 39.3053609 ], [ -74.4166781, 39.3046661 ], [ -74.4200689, 39.3040835 ], [ -74.4218601, 39.3033879 ], [ -74.4328592, 39.298352 ], [ -74.4348119, 39.2975117 ], [ -74.4377499, 39.296369 ], [ -74.4409907, 39.2947476 ], [ -74.444917, 39.2929183 ], [ -74.4530028, 39.2895867 ], [ -74.4664049, 39.2825559 ], [ -74.4720077, 39.2793607 ], [ -74.4765235, 39.2770508 ], [ -74.4794022, 39.2754825 ], [ -74.4827235, 39.2729625 ], [ -74.4844254, 39.2712582 ], [ -74.4866, 39.2692813 ], [ -74.4902128, 39.2664052 ], [ -74.4919391, 39.2640476 ], [ -74.4944056, 39.2609972 ], [ -74.4970297, 39.2581928 ], [ -74.4991593, 39.2561865 ], [ -74.501421, 39.2542696 ], [ -74.5038085, 39.2524474 ], [ -74.5063152, 39.2507247 ], [ -74.5089717, 39.2490803 ], [ -74.5122149, 39.2460543 ], [ -74.5145188, 39.2441684 ], [ -74.5161239, 39.2429644 ], [ -74.519491, 39.2406905 ], [ -74.5221456, 39.2391077 ], [ -74.524903, 39.2376353 ], [ -74.5280025, 39.2361028 ], [ -74.5315289, 39.2341903 ], [ -74.5379996, 39.23116 ], [ -74.5409394, 39.2299196 ], [ -74.5444578, 39.2286296 ], [ -74.5465966, 39.227557 ], [ -74.5487427, 39.2261247 ], [ -74.5532015, 39.2227216 ], [ -74.5565103, 39.2197398 ], [ -74.5598874, 39.2169831 ], [ -74.5628196, 39.2148241 ], [ -74.5654708, 39.2124023 ], [ -74.5684381, 39.2094275 ], [ -74.5728355, 39.2047228 ], [ -74.5796393, 39.1970696 ], [ -74.5802846, 39.1960832 ], [ -74.5818203, 39.1926062 ], [ -74.5835643, 39.1894147 ], [ -74.5850577, 39.1870875 ], [ -74.5871226, 39.1842868 ], [ -74.5886311, 39.1812582 ], [ -74.5905169, 39.1781162 ], [ -74.5921133, 39.1758309 ], [ -74.593262, 39.174345 ], [ -74.5957559, 39.1714706 ], [ -74.5980334, 39.1691539 ], [ -74.6008134, 39.166667 ] ] ] } }
]
}
