{
"type": "FeatureCollection",
"name": "BOYLAT",
"crs": { "type": "name", "properties": { "name": "urn:ogc:def:crs:OGC:1.3:CRS84" } },
"features": [
{ "type": "Feature", "properties": { "RCID": 1, "PRIM": 1, "GRUP": 2, "OBJL": 17, "RVER": 1, "AGEN": 550, "FIDN": 536786201, "FIDS": 8194, "LNAM": "02261FFEB5192002", "LNAM_REFS": [ "022606D21E9C2002" ], "FFPT_RIND": [ 2 ], "BOYSHP": 4, "CATLAM": 2, "COLOUR": [ "3" ], "OBJNAM": "Brigantine Inlet Lighted Wreck Buoy WR2", "STATUS": [ "1" ], "SCAMIN": 999999, "SORDAT": "20210914", "SORIND": "US,US,reprt,5thCGD,LNM 37/21" }, "geometry": { "type": "Point", "coordinates": [ -74.2287333, 39.4114189 ] } },
{ "type": "Feature", "properties": { "RCID": 2, "PRIM": 1, "GRUP": 2, "OBJL": 17, "RVER": 1, "AGEN": 550, "FIDN": 37005495, "FIDS": 50, "LNAM": "02260234A8B70032", "LNAM_REFS": [ "02260234A8B80032" ], "FFPT_RIND": [ 2 ], "BOYSHP": 4, "CATLAM": 1, "COLOUR": [ "4" ], "OBJNAM": "Absecon Inlet Lighted Buoy 1", "STATUS": [ "1" ], "SCAMIN": 999999, "SORDAT": "20160517", "SORIND": "US,US,reprt,5thCGD,LNM 20/16" }, "geometry": { "type": "Point", "coordinates": [ -74.4003714, 39.3464981 ] } }
]
}
