{
"type": "FeatureCollection",
"name": "BOYSPP",
"crs": { "type": "name", "properties": { "name": "urn:ogc:def:crs:OGC:1.3:CRS84" } },
"features": [
{ "type": "Feature", "properties": { "RCID": 3, "PRIM": 1, "GRUP": 2, "OBJL": 19, "RVER": 1, "AGEN": 550, "FIDN": 37886204, "FIDS": 50, "LNAM": "0226024218FC0032", "LNAM_REFS": [ "0226024218FD0032" ], "FFPT_RIND": [ 2 ], "BOYSHP": 7, "CATSPM": [ "10" ], "COLOUR": [ "6" ], "OBJNAM": "NOAA Lighted Data Buoy 44402 (DART)", "STATUS": [ "1" ], "INFORM": "Deep-Ocean Assessment and Reporting of Tsunamis (DART), maintained by NOAA", "SCAMIN": 999999, "SORDAT": "20241029", "SORIND": "US,US,reprt,5thCGD,LNM 44/24" }, "geometry": { "type": "Point", "coordinates": [ -70.7169444, 39.3144444 ] } }
]
}
