{
"type": "FeatureCollection",
"name": "BRIDGE",
"crs": { "type": "name", "properties": { "name": "urn:ogc:def:crs:OGC:1.3:CRS84" } },
"features": [
{ "type": "Feature", "properties": { "RCID": 112, "PRIM": 2, "GRUP": 2, "OBJL": 11, "RVER": 1, "AGEN": 550, "FIDN": 37880780, "FIDS": 50, "LNAM": "0226024203CC0032", "CATBRG": [ "1" ], "SCAMIN": 1499999, "SORDAT": "201206", "SORIND": "US,US,graph,Chart 12300" }, "geometry": { "type": "LineString", "coordinates": [ [ -74.5601049, 39.3136371 ], [ -74.5578097, 39.3132724 ] ] } },
{ "type": "Feature", "properties": { "RCID": 113, "PRIM": 2, "GRUP": 2, "OBJL": 11, "RVER": 1, "AGEN": 550, "FIDN": 37880640, "FIDS": 50, "LNAM": "0226024203400032", "CATBRG": [ "1" ], "SCAMIN": 1499999, "SORDAT": "200303", "SORIND": "US,US,graph,Chart 12300" }, "geometry": { "type": "LineString", "coordinates": [ [ -74.5838692, 39.2901565 ], [ -74.5884867, 39.2960354 ] ] } },
{ "type": "Feature", "properties": { "RCID": 114, "PRIM": 2, "GRUP": 2, "OBJL": 11, "RVER": 1, "AGEN": 550, "FIDN": 37880059, "FIDS": 50, "LNAM": "0226024200FB0032", "CATBRG": [ "1" ], "SCAMIN": 1499999, "SORDAT": "200303", "SORIND": "US,US,graph,Chart 12300" }, "geometry": { "type": "LineString", "coordinates": [ [ -74.6551482, 39.201948 ], [ -74.657707, 39.2049357 ] ] } },
{ "type": "Feature", "properties": { "RCID": 115, "PRIM": 2, "GRUP": 2, "OBJL": 11, "RVER": 1, "AGEN": 550, "FIDN": 37880042, "FIDS": 50, "LNAM": "0226024200EA0032", "CATBRG": [ "1" ], "SCAMIN": 1499999, "SORDAT": "200303", "SORIND": "US,US,graph,Chart 12300" }, "geometry": { "type": "LineString", "coordinates": [ [ -74.6483984, 39.2154704 ], [ -74.6472276, 39.2168816 ] ] } },
{ "type": "Feature", "properties": { "RCID": 116, "PRIM": 2, "GRUP": 2, "OBJL": 11, "RVER": 1, "AGEN": 550, "FIDN": 37880082, "FIDS": 50, "LNAM": "0226024201120032", "CATBRG": [ "1" ], "SCAMIN": 1499999, "SORDAT": "200303", "SORIND": "US,US,graph,Chart 12300" }, "geometry": { "type": "LineString", "coordinates": [ [ -74.6278739, 39.2899568 ], [ -74.6204988, 39.3071933 ] ] } },
{ "type": "Feature", "properties": { "RCID": 117, "PRIM": 2, "GRUP": 2, "OBJL": 11, "RVER": 1, "AGEN": 550, "FIDN": 37882186, "FIDS": 50, "LNAM": "02260242094A0032", "CATBRG": [ "1" ], "SCAMIN": 1499999, "SORDAT": "200303", "SORIND": "US,US,graph,Chart 12300" }, "geometry": { "type": "LineString", "coordinates": [ [ -74.5566608, 39.2984818 ], [ -74.5569777, 39.3008957 ], [ -74.5575137, 39.3050083 ], [ -74.5577143, 39.3066347 ] ] } },
{ "type": "Feature", "properties": { "RCID": 118, "PRIM": 2, "GRUP": 2, "OBJL": 11, "RVER": 1, "AGEN": 550, "FIDN": 37880835, "FIDS": 50, "LNAM": "0226024204030032", "CATBRG": [ "1" ], "SCAMIN": 1499999, "SORDAT": "201206", "SORIND": "US,US,graph,Chart 12300" }, "geometry": { "type": "LineString", "coordinates": [ [ -74.5305912, 39.3160792 ], [ -74.5271053, 39.3148894 ] ] } },
{ "type": "Feature", "properties": { "RCID": 119, "PRIM": 2, "GRUP": 2, "OBJL": 11, "RVER": 1, "AGEN": 550, "FIDN": 37880519, "FIDS": 50, "LNAM": "0226024202C70032", "CATBRG": [ "1" ], "SCAMIN": 1499999, "SORDAT": "200303", "SORIND": "US,US,graph,Chart 12300" }, "geometry": { "type": "LineString", "coordinates": [ [ -74.5817345, 39.2824755 ], [ -74.5819438, 39.2852131 ] ] } },
{ "type": "Feature", "properties": { "RCID": 120, "PRIM": 2, "GRUP": 2, "OBJL": 11, "RVER": 1, "AGEN": 550, "FIDN": 37879636, "FIDS": 50, "LNAM": "02260241FF540032", "CATBRG": [ "1" ], "SCAMIN": 1499999, "SORDAT": "200303", "SORIND": "US,US,graph,Chart 12300" }, "geometry": { "type": "LineString", "coordinates": [ [ -74.5956742, 39.3044004 ], [ -74.5985704, 39.3073362 ] ] } },
{ "type": "Feature", "properties": { "RCID": 121, "PRIM": 2, "GRUP": 2, "OBJL": 11, "RVER": 1, "AGEN": 550, "FIDN": 37879635, "FIDS": 50, "LNAM": "02260241FF530032", "CATBRG": [ "1" ], "SCAMIN": 1499999, "SORDAT": "200303", "SORIND": "US,US,graph,Chart 12300" }, "geometry": { "type": "LineString", "coordinates": [ [ -74.5925548, 39.3012148 ], [ -74.5926459, 39.3013308 ], [ -74.5935623, 39.3022597 ] ] } }
]
}
