{
"type": "FeatureCollection",
"name": "CBLSUB",
"crs": { "type": "name", "properties": { "name": "urn:ogc:def:crs:OGC:1.3:CRS84" } },
"features": [
{ "type": "Feature", "properties": { "RCID": 549, "PRIM": 2, "GRUP": 2, "OBJL": 22, "RVER": 1, "AGEN": 550, "FIDN": 22754791, "FIDS": 50, "LNAM": "0226015B35E70032", "OBJNAM": "TAT-14 Segment G", "INFORM": "Fiber optic", "SCAMIN": 999999, "SORDAT": "20050624", "SORIND": "US,US,reprt,L-824/05" }, "geometry": { "type": "LineString", "coordinates": [ [ -73.0740901, 39.166667 ], [ -73.1297765, 39.2126076 ], [ -73.1307087, 39.2133753 ], [ -73.1471673, 39.226931 ], [ -73.2763357, 39.3333172 ], [ -73.3125167, 39.3631167 ], [ -73.3692116, 39.3918278 ], [ -73.4141036, 39.4145617 ], [ -73.42165, 39.4183833 ], [ -73.4806797, 39.4447804 ], [ -73.486293, 39.4472905 ], [ -73.4919511, 39.4498186 ], [ -73.4968333, 39.452 ], [ -73.528157, 39.4647885 ], [ -73.5347167, 39.4674667 ], [ -73.5361791, 39.4675238 ], [ -73.5475, 39.4679667 ], [ -73.5560203, 39.4653744 ], [ -73.5631667, 39.4632 ], [ -73.5691, 39.46155 ], [ -73.5736, 39.4603333 ], [ -73.5786185, 39.4588807 ], [ -73.5933852, 39.4546064 ], [ -73.6280298, 39.4446005 ], [ -73.6411333, 39.4408167 ], [ -73.6928833, 39.44795 ], [ -73.7083333, 39.4469833 ], [ -73.7235704, 39.4498792 ], [ -73.73833, 39.4526843 ], [ -73.7421833, 39.4534167 ], [ -73.7548833, 39.4548333 ], [ -73.7594316, 39.4556818 ], [ -73.7597877, 39.4557478 ], [ -73.8666667, 39.47555 ], [ -73.8940692, 39.4817686 ], [ -73.9410202, 39.4923699 ], [ -73.9825239, 39.5017075 ], [ -74.0726278, 39.5219792 ], [ -74.0804161, 39.5239921 ], [ -74.0917707, 39.5267291 ], [ -74.1012454, 39.5296407 ], [ -74.1114721, 39.5323775 ], [ -74.1197436, 39.5347066 ], [ -74.131399, 39.5377925 ], [ -74.1443328, 39.5411694 ], [ -74.1516268, 39.5422174 ], [ -74.1651621, 39.543964 ], [ -74.1780206, 39.5457688 ], [ -74.1948645, 39.5479228 ], [ -74.2128364, 39.5498438 ], [ -74.2206568, 39.550717 ], [ -74.2258453, 39.5510663 ], [ -74.2296803, 39.5508335 ], [ -74.2326296, 39.5501931 ], [ -74.2356584, 39.5493442 ], [ -74.2385304, 39.5486973 ], [ -74.2413503, 39.5482122 ], [ -74.2451101, 39.5483335 ], [ -74.2475757, 39.5491485 ] ] } },
{ "type": "Feature", "properties": { "RCID": 550, "PRIM": 2, "GRUP": 2, "OBJL": 22, "RVER": 1, "AGEN": 550, "FIDN": 37879612, "FIDS": 50, "LNAM": "02260241FF3C0032", "SCAMIN": 999999, "SORDAT": "200303", "SORIND": "US,US,graph,Chart 12300" }, "geometry": { "type": "LineString", "coordinates": [ [ -72.2698633, 38.9131667 ], [ -72.283598, 38.9215509 ], [ -72.3217488, 38.9448397 ], [ -72.3604681, 38.9684755 ], [ -72.3673994, 38.9727066 ], [ -72.4167072, 39.0018964 ], [ -72.45, 39.0234196 ] ] } },
{ "type": "Feature", "properties": { "RCID": 551, "PRIM": 2, "GRUP": 2, "OBJL": 22, "RVER": 1, "AGEN": 550, "FIDN": 22754787, "FIDS": 50, "LNAM": "0226015B35E30032", "SCAMIN": 999999, "SORDAT": "200303", "SORIND": "US,US,graph,Chart 12300" }, "geometry": { "type": "LineString", "coordinates": [ [ -73.9963723, 39.166667 ], [ -73.987536, 39.2072449 ], [ -73.9894855, 39.21558 ], [ -73.9945456, 39.2273782 ], [ -73.9953343, 39.2292172 ], [ -73.9979776, 39.2365927 ], [ -74.0046388, 39.2551788 ], [ -74.0070638, 39.2581706 ], [ -74.0129244, 39.2654011 ], [ -74.023647, 39.2756219 ], [ -74.0320679, 39.2887 ], [ -74.034857, 39.2930316 ], [ -74.0504536, 39.3301074 ], [ -74.0612223, 39.3469942 ], [ -74.0788588, 39.3791597 ], [ -74.0792558, 39.3798838 ], [ -74.084617, 39.3900878 ], [ -74.0914406, 39.3953781 ], [ -74.0972893, 39.3976452 ], [ -74.1002136, 39.3999124 ], [ -74.1002136, 39.4044463 ], [ -74.0975542, 39.4054421 ], [ -74.0949416, 39.4056758 ], [ -74.0927311, 39.4077788 ], [ -74.0936354, 39.4101933 ], [ -74.0980566, 39.4214858 ], [ -74.0983581, 39.4253015 ], [ -74.1044235, 39.4415612 ], [ -74.1072494, 39.4615758 ], [ -74.107653, 39.4722062 ], [ -74.110479, 39.4793964 ], [ -74.1151485, 39.48825 ], [ -74.1160646, 39.4921959 ], [ -74.1177284, 39.4947352 ], [ -74.125248, 39.5045902 ], [ -74.1268772, 39.5075027 ], [ -74.1282558, 39.5086192 ], [ -74.1312636, 39.5087648 ], [ -74.1368407, 39.5088619 ], [ -74.1441096, 39.5093473 ], [ -74.1482454, 39.5103666 ], [ -74.1533212, 39.5125023 ], [ -74.1641619, 39.5164337 ], [ -74.1766319, 39.5211415 ], [ -74.1853421, 39.5244901 ], [ -74.1939897, 39.5273533 ], [ -74.2055198, 39.5307016 ], [ -74.2194937, 39.5352143 ], [ -74.2267626, 39.5383681 ], [ -74.231901, 39.5406 ], [ -74.2404233, 39.5445298 ], [ -74.244559, 39.5464704 ], [ -74.2492195, 39.5477208 ] ] } },
{ "type": "Feature", "properties": { "RCID": 552, "PRIM": 2, "GRUP": 2, "OBJL": 22, "RVER": 1, "AGEN": 550, "FIDN": 22754799, "FIDS": 50, "LNAM": "0226015B35EF0032", "SCAMIN": 999999, "SORDAT": "200303", "SORIND": "US,US,graph,Chart 12300" }, "geometry": { "type": "LineString", "coordinates": [ [ -73.488883, 39.166667 ], [ -73.4951867, 39.1743077 ], [ -73.5068633, 39.1866918 ], [ -73.5163255, 39.1992122 ], [ -73.5587277, 39.2452755 ], [ -73.5616607, 39.2486578 ], [ -73.5903294, 39.281718 ], [ -73.6526717, 39.3536101 ], [ -73.6598734, 39.3619149 ], [ -73.6961505, 39.4039115 ], [ -73.7295156, 39.4424921 ], [ -73.73833, 39.4526843 ], [ -73.7386883, 39.4530987 ], [ -73.7561297, 39.4732664 ], [ -73.7675298, 39.4864485 ], [ -73.76982, 39.4892855 ], [ -73.775334, 39.4961158 ], [ -73.7857397, 39.50256 ], [ -73.800017, 39.5059011 ], [ -73.8081118, 39.5077954 ], [ -73.8122983, 39.5089062 ], [ -73.8554954, 39.5203678 ], [ -73.8730944, 39.5250374 ], [ -73.8873443, 39.5288184 ], [ -73.8991612, 39.5319538 ], [ -73.9426908, 39.5429557 ], [ -73.9536779, 39.5423163 ], [ -73.9597231, 39.5430712 ], [ -73.9739883, 39.5472495 ], [ -74.0242702, 39.5605828 ], [ -74.0495537, 39.5675949 ], [ -74.0626987, 39.5699218 ], [ -74.074718, 39.5727711 ], [ -74.081215, 39.5736091 ], [ -74.1010306, 39.5771285 ], [ -74.1081612, 39.5780544 ], [ -74.1129915, 39.5788289 ], [ -74.1154719, 39.5793003 ], [ -74.1172126, 39.5793677 ], [ -74.1206503, 39.5788289 ], [ -74.1307861, 39.5766117 ], [ -74.151435, 39.573084 ], [ -74.1697828, 39.5702906 ], [ -74.1792275, 39.5690103 ], [ -74.1958307, 39.5688706 ], [ -74.2117573, 39.5682886 ], [ -74.2185223, 39.5680363 ], [ -74.2238312, 39.5675984 ], [ -74.2299235, 39.5672616 ], [ -74.2311121, 39.5672616 ] ] } },
{ "type": "Feature", "properties": { "RCID": 553, "PRIM": 2, "GRUP": 2, "OBJL": 22, "RVER": 1, "AGEN": 550, "FIDN": 37876677, "FIDS": 50, "LNAM": "02260241F3C50032", "SCAMIN": 999999, "SORDAT": "200303", "SORIND": "US,US,graph,Chart 12300" }, "geometry": { "type": "LineString", "coordinates": [ [ -71.9670525, 38.7666666 ], [ -71.9996877, 38.787406 ], [ -72.0032059, 38.7896418 ], [ -72.0838958, 38.833657 ], [ -72.126022, 38.8566363 ], [ -72.1802679, 38.88605 ], [ -72.241598, 38.9193049 ], [ -72.3104143, 38.9647768 ], [ -72.3269501, 38.9759026 ], [ -72.3670214, 39.0028638 ], [ -72.4066537, 39.0277261 ], [ -72.4316274, 39.0610236 ], [ -72.4394246, 39.0767079 ], [ -72.4454221, 39.0843489 ], [ -72.45, 39.0866064 ] ] } },
{ "type": "Feature", "properties": { "RCID": 554, "PRIM": 2, "GRUP": 2, "OBJL": 22, "RVER": 1, "AGEN": 550, "FIDN": 37879954, "FIDS": 50, "LNAM": "0226024200920032", "STATUS": [ "4" ], "SCAMIN": 999999, "SORDAT": "200303", "SORIND": "US,US,graph,Chart 12300" }, "geometry": { "type": "LineString", "coordinates": [ [ -72.4140401, 39.1296538 ], [ -72.4278199, 39.1326141 ], [ -72.4348033, 39.1345916 ], [ -72.4411426, 39.1372425 ], [ -72.45, 39.1466435 ] ] } },
{ "type": "Feature", "properties": { "RCID": 555, "PRIM": 2, "GRUP": 2, "OBJL": 22, "RVER": 1, "AGEN": 550, "FIDN": 22754789, "FIDS": 50, "LNAM": "0226015B35E50032", "SCAMIN": 999999, "SORDAT": "20070509", "SORIND": "US,US,reprt,L-631/07" }, "geometry": { "type": "LineString", "coordinates": [ [ -73.5725802, 39.166667 ], [ -73.5990333, 39.1970333 ], [ -73.6001833, 39.1982667 ], [ -73.6105, 39.21 ], [ -73.6248763, 39.2263696 ], [ -73.6466833, 39.2512 ], [ -73.6557519, 39.2614659 ], [ -73.6819674, 39.2911424 ], [ -73.6932904, 39.3039603 ], [ -73.7037273, 39.315775 ], [ -73.7683245, 39.3889005 ], [ -73.7726936, 39.3938464 ], [ -73.77545, 39.3969667 ], [ -73.8209333, 39.4462 ], [ -73.8290333, 39.45365 ], [ -73.8329167, 39.4569833 ], [ -73.8427, 39.4624333 ], [ -73.85205, 39.4645167 ], [ -73.85775, 39.4640167 ], [ -73.8613941, 39.4631505 ], [ -73.8618167, 39.46305 ], [ -73.8638667, 39.46255 ], [ -73.8643475, 39.4624644 ], [ -73.8730167, 39.4609217 ], [ -73.9024821, 39.4672956 ], [ -73.9280772, 39.4728323 ], [ -73.9296101, 39.4731639 ], [ -73.96545, 39.4809167 ], [ -73.9934248, 39.4870644 ], [ -74.0083, 39.4903333 ], [ -74.0342, 39.4993333 ], [ -74.0438245, 39.5033141 ], [ -74.099354, 39.515429 ], [ -74.1036765, 39.5164008 ], [ -74.1088763, 39.5176686 ], [ -74.1155488, 39.5190448 ], [ -74.1239044, 39.5209197 ], [ -74.1372893, 39.5240062 ], [ -74.1461123, 39.5257047 ], [ -74.1556371, 39.52784 ], [ -74.1692977, 39.5308971 ], [ -74.1757521, 39.5324499 ], [ -74.1768765, 39.5326715 ], [ -74.189538, 39.5351672 ], [ -74.2000249, 39.5373642 ], [ -74.2140113, 39.5407178 ], [ -74.2292118, 39.5446302 ], [ -74.2349037, 39.5458431 ], [ -74.2398646, 39.5472985 ], [ -74.2426844, 39.5476623 ], [ -74.2482879, 39.5485299 ] ] } },
{ "type": "Feature", "properties": { "RCID": 556, "PRIM": 2, "GRUP": 2, "OBJL": 22, "RVER": 1, "AGEN": 550, "FIDN": 37886723, "FIDS": 50, "LNAM": "022602421B030032", "SCAMIN": 999999, "SORDAT": "20130205", "SORIND": "US,US,graph,DD-22925" }, "geometry": { "type": "LineString", "coordinates": [ [ -74.1768765, 39.5326715 ], [ -74.1751508, 39.5313343 ], [ -74.1732444, 39.5300508 ], [ -74.1706126, 39.5289832 ], [ -74.1646595, 39.5271877 ], [ -74.155072, 39.5244701 ], [ -74.1432913, 39.5219465 ], [ -74.136461, 39.5203935 ], [ -74.1281894, 39.5178698 ], [ -74.1194166, 39.5151033 ], [ -74.1131502, 39.5135501 ], [ -74.1051293, 39.5118998 ], [ -74.0976658, 39.5107689 ], [ -74.0049576, 39.4846647 ], [ -73.9242847, 39.4643429 ], [ -73.9225121, 39.463862 ], [ -73.9104743, 39.4605958 ], [ -73.8955833, 39.4565556 ], [ -73.8862944, 39.4519667 ], [ -73.8799975, 39.4476633 ], [ -73.7934536, 39.3323604 ], [ -73.7876671, 39.3217881 ], [ -73.7821, 39.3116167 ], [ -73.7728959, 39.2805152 ], [ -73.7710139, 39.2741556 ], [ -73.7609206, 39.2606056 ], [ -73.756553, 39.2547423 ], [ -73.7446678, 39.2387868 ], [ -73.7194886, 39.1935975 ], [ -73.7044831, 39.166667 ] ] } },
{ "type": "Feature", "properties": { "RCID": 557, "PRIM": 2, "GRUP": 2, "OBJL": 22, "RVER": 1, "AGEN": 550, "FIDN": 22754795, "FIDS": 50, "LNAM": "0226015B35EB0032", "STATUS": [ "4" ], "SCAMIN": 999999, "SORDAT": "200303", "SORIND": "US,US,graph,Chart 12300" }, "geometry": { "type": "LineString", "coordinates": [ [ -73.7234952, 39.166667 ], [ -73.7348101, 39.1831862 ], [ -73.7419687, 39.1936373 ], [ -73.7766089, 39.237863 ], [ -73.7994759, 39.2642813 ], [ -73.8096381, 39.2760216 ], [ -73.8190228, 39.2875101 ], [ -73.8250355, 39.2981171 ], [ -73.8557632, 39.352032 ], [ -73.9225121, 39.463862 ], [ -73.9259513, 39.4696239 ], [ -73.9280772, 39.4728323 ], [ -73.9348642, 39.4830751 ], [ -73.9409947, 39.4923271 ], [ -73.9410202, 39.4923699 ], [ -73.9438431, 39.4971217 ], [ -73.9494314, 39.5019651 ], [ -73.9561807, 39.5055177 ], [ -73.9762543, 39.5108754 ], [ -73.9796682, 39.5117866 ], [ -74.0244834, 39.5234869 ], [ -74.0369021, 39.5257849 ], [ -74.0515679, 39.5259223 ], [ -74.0595578, 39.5265516 ], [ -74.0687368, 39.5269245 ], [ -74.0747525, 39.5273904 ], [ -74.0821217, 39.5290791 ], [ -74.0925739, 39.5316413 ], [ -74.1007703, 39.5353096 ], [ -74.1076132, 39.5370564 ], [ -74.1149824, 39.5384538 ], [ -74.1289688, 39.5414813 ], [ -74.147066, 39.5459286 ], [ -74.1674684, 39.5504843 ], [ -74.1884084, 39.555699 ], [ -74.2030299, 39.5597816 ], [ -74.2128993, 39.5622068 ], [ -74.22115, 39.5641469 ], [ -74.2315333, 39.5666635 ] ] } },
{ "type": "Feature", "properties": { "RCID": 558, "PRIM": 2, "GRUP": 2, "OBJL": 22, "RVER": 1, "AGEN": 550, "FIDN": 37880039, "FIDS": 50, "LNAM": "0226024200E70032", "SCAMIN": 999999, "SORDAT": "200303", "SORIND": "US,US,graph,Chart 12300" }, "geometry": { "type": "LineString", "coordinates": [ [ -71.5095488, 39.448588 ], [ -71.5567661, 39.4703643 ], [ -71.6502923, 39.5119878 ], [ -71.6743911, 39.5227129 ], [ -71.7101494, 39.5392757 ], [ -71.7646434, 39.5645166 ], [ -71.8192653, 39.5879471 ] ] } },
{ "type": "Feature", "properties": { "RCID": 559, "PRIM": 2, "GRUP": 2, "OBJL": 22, "RVER": 1, "AGEN": 550, "FIDN": 22754793, "FIDS": 50, "LNAM": "0226015B35E90032", "SCAMIN": 999999, "SORDAT": "200303", "SORIND": "US,US,graph,Chart 12300" }, "geometry": { "type": "LineString", "coordinates": [ [ -73.6426847, 39.166667 ], [ -73.7228813, 39.2741433 ], [ -73.7273116, 39.2800806 ], [ -73.7441313, 39.3026218 ], [ -73.7588027, 39.3222837 ], [ -73.7811809, 39.3531045 ], [ -73.7875512, 39.361878 ], [ -73.8517786, 39.4503363 ], [ -73.857157, 39.4581144 ], [ -73.8613941, 39.4631505 ], [ -73.8630072, 39.4650678 ], [ -73.8703201, 39.4690446 ], [ -73.8961048, 39.4752013 ], [ -73.9130341, 39.4785317 ], [ -73.9348642, 39.4830751 ], [ -73.9358236, 39.4832748 ], [ -73.9573645, 39.4881286 ], [ -73.9871986, 39.4952463 ], [ -74.0175766, 39.5024937 ], [ -74.0961474, 39.5200071 ], [ -74.0998625, 39.5211976 ], [ -74.1094709, 39.5234624 ], [ -74.1207386, 39.5258827 ], [ -74.1386052, 39.5298658 ], [ -74.1544812, 39.5332049 ], [ -74.1644029, 39.5355906 ], [ -74.1757095, 39.5380231 ], [ -74.1887434, 39.5407887 ], [ -74.1915006, 39.5419046 ], [ -74.1965137, 39.5443789 ], [ -74.2079811, 39.5515103 ], [ -74.2165033, 39.5571858 ], [ -74.2203885, 39.5596111 ], [ -74.2249002, 39.5624728 ], [ -74.2293545, 39.5653669 ], [ -74.2303408, 39.5659029 ], [ -74.2317314, 39.5663822 ] ] } },
{ "type": "Feature", "properties": { "RCID": 560, "PRIM": 2, "GRUP": 2, "OBJL": 22, "RVER": 1, "AGEN": 550, "FIDN": 22754802, "FIDS": 50, "LNAM": "0226015B35F20032", "STATUS": [ "4" ], "SCAMIN": 999999, "SORDAT": "200303", "SORIND": "US,US,graph,Chart 12300" }, "geometry": { "type": "LineString", "coordinates": [ [ -74.2306992, 39.5678478 ], [ -74.2247665, 39.5678478 ], [ -74.2191268, 39.5687208 ], [ -74.2064186, 39.5712233 ], [ -74.1949137, 39.5734929 ], [ -74.1743274, 39.5777934 ], [ -74.1606934, 39.5805 ], [ -74.142277, 39.5841455 ], [ -74.1312128, 39.5861891 ], [ -74.1220759, 39.5881774 ], [ -74.1037308, 39.5915464 ], [ -74.0920956, 39.5937002 ], [ -74.078533, 39.5964062 ], [ -74.0722514, 39.5971794 ], [ -74.0694675, 39.5972346 ], [ -74.0666837, 39.5972346 ], [ -74.0612158, 39.5960749 ], [ -74.0493093, 39.593888 ], [ -74.0432276, 39.5922975 ], [ -74.0380461, 39.5899379 ], [ -73.9938003, 39.5818439 ], [ -73.9559739, 39.5779442 ], [ -73.9276615, 39.5755621 ], [ -73.8864455, 39.5720943 ], [ -73.8657114, 39.5699237 ], [ -73.8631468, 39.5696552 ], [ -73.8445061, 39.5677038 ], [ -73.8273985, 39.5659128 ], [ -73.8145774, 39.5645706 ], [ -73.8001674, 39.5631775 ], [ -73.7799933, 39.556769 ], [ -73.7540552, 39.5534252 ], [ -73.7397692, 39.5525894 ], [ -73.7221911, 39.551561 ], [ -73.7119416, 39.5509613 ], [ -73.7111853, 39.5509171 ], [ -73.6940288, 39.5508911 ], [ -73.6864636, 39.5494977 ], [ -73.6763764, 39.5447601 ], [ -73.6636445, 39.5339245 ], [ -73.6583639, 39.5294303 ], [ -73.6205376, 39.4959716 ], [ -73.5826063, 39.4623529 ], [ -73.5786185, 39.4588807 ], [ -73.5489987, 39.4330903 ], [ -73.5418979, 39.4269075 ], [ -73.5242456, 39.4112722 ], [ -73.483791, 39.3759203 ], [ -73.4544391, 39.350431 ], [ -73.4506479, 39.3471387 ], [ -73.4397909, 39.3373105 ], [ -73.4311943, 39.3295285 ], [ -73.417039, 39.3177589 ], [ -73.4132914, 39.314643 ], [ -73.4099424, 39.3116477 ], [ -73.4017981, 39.3043638 ], [ -73.3960051, 39.2993235 ], [ -73.3892092, 39.2934105 ], [ -73.3873067, 39.2917552 ], [ -73.3785618, 39.2826368 ], [ -73.3725654, 39.2725469 ], [ -73.3652888, 39.2594858 ], [ -73.3542954, 39.2466749 ], [ -73.3357048, 39.2293069 ], [ -73.33148, 39.2259569 ], [ -73.3109694, 39.2096929 ], [ -73.2974774, 39.2003694 ], [ -73.252992, 39.166667 ] ] } },
{ "type": "Feature", "properties": { "RCID": 561, "PRIM": 2, "GRUP": 2, "OBJL": 22, "RVER": 1, "AGEN": 550, "FIDN": 1020484429, "FIDS": 48294, "LNAM": "02263CD35B4DBCA6", "STATUS": [ "4" ], "SCAMIN": 999999, "SORDAT": "200303", "SORIND": "US,US,graph,Chart 12300" }, "geometry": { "type": "LineString", "coordinates": [ [ -73.8176724, 39.166667 ], [ -73.804012, 39.2421913 ], [ -73.7995797, 39.2637759 ], [ -73.7994759, 39.2642813 ], [ -73.788097, 39.3196946 ], [ -73.7876671, 39.3217881 ], [ -73.7850718, 39.3344267 ], [ -73.7811809, 39.3531045 ], [ -73.7760413, 39.3777761 ], [ -73.7726936, 39.3938464 ], [ -73.7644332, 39.4334997 ], [ -73.7597877, 39.4557478 ], [ -73.7561297, 39.4732664 ], [ -73.7537769, 39.4845343 ], [ -73.7491253, 39.5068119 ], [ -73.7433514, 39.534464 ], [ -73.7397692, 39.5525894 ], [ -73.7366392, 39.5684265 ], [ -73.7303991, 39.6 ] ] } },
{ "type": "Feature", "properties": { "RCID": 562, "PRIM": 2, "GRUP": 2, "OBJL": 22, "RVER": 1, "AGEN": 550, "FIDN": 1418772601, "FIDS": 48294, "LNAM": "02265490C079BCA6", "SCAMIN": 999999, "SORDAT": "200303", "SORIND": "US,US,graph,Chart 12300" }, "geometry": { "type": "LineString", "coordinates": [ [ -72.6064097, 39.166667 ], [ -72.6071805, 39.16741 ], [ -72.6081965, 39.1683894 ], [ -72.6087538, 39.1689266 ], [ -72.6348758, 39.1941064 ], [ -72.6480995, 39.2068531 ], [ -72.6708313, 39.2282857 ], [ -72.6970474, 39.2530034 ], [ -72.7018719, 39.2576003 ], [ -72.7175604, 39.2725486 ], [ -72.7338245, 39.2880454 ], [ -72.735903, 39.2900759 ], [ -72.7408819, 39.29494 ], [ -72.7448709, 39.2988369 ], [ -72.7543285, 39.3080763 ], [ -72.7658566, 39.3193385 ], [ -72.7784125, 39.3308887 ], [ -72.8245908, 39.3733682 ], [ -72.8555491, 39.4018467 ], [ -72.8880016, 39.4328192 ], [ -72.8937815, 39.4383355 ], [ -72.9054469, 39.4494689 ], [ -72.926961, 39.4700018 ], [ -72.955368, 39.4971132 ], [ -72.9904292, 39.5297631 ], [ -73.037474, 39.5735725 ], [ -73.0456706, 39.5812206 ], [ -73.0597879, 39.5943932 ], [ -73.0657967, 39.6 ] ] } },
{ "type": "Feature", "properties": { "RCID": 563, "PRIM": 2, "GRUP": 2, "OBJL": 22, "RVER": 1, "AGEN": 550, "FIDN": 1141364356, "FIDS": 48294, "LNAM": "02264407D684BCA6", "CATCBL": 4, "SCAMIN": 999999, "SORDAT": "20170717", "SORIND": "US,US,reprt,L-1048-2018" }, "geometry": { "type": "LineString", "coordinates": [ [ -73.3463184, 39.6 ], [ -73.2863433, 39.5124967 ], [ -73.2814667, 39.50449 ], [ -73.2268233, 39.4251567 ], [ -73.2260355, 39.4226452 ], [ -73.2246867, 39.418345 ], [ -73.2249367, 39.4055117 ], [ -73.2329783, 39.352665 ], [ -73.2347483, 39.3370333 ], [ -73.2384517, 39.3116767 ], [ -73.237925, 39.3076183 ], [ -73.2383733, 39.3048617 ], [ -73.238405, 39.30467 ], [ -73.23849, 39.3044533 ], [ -73.2393117, 39.30235 ], [ -73.2394933, 39.301885 ], [ -73.2397767, 39.300925 ], [ -73.2399467, 39.29953 ], [ -73.2400617, 39.2981117 ], [ -73.240105, 39.2975817 ], [ -73.2401033, 39.2975767 ], [ -73.2393583, 39.294865 ], [ -73.237765, 39.2923583 ], [ -73.23348, 39.28867 ], [ -73.2102433, 39.271125 ], [ -73.1907867, 39.255735 ], [ -73.1532661, 39.2250645 ], [ -73.145425, 39.218655 ], [ -73.1065983, 39.1864517 ], [ -73.0830458, 39.166667 ] ] } },
{ "type": "Feature", "properties": { "RCID": 564, "PRIM": 2, "GRUP": 2, "OBJL": 22, "RVER": 1, "AGEN": 550, "FIDN": 37879628, "FIDS": 50, "LNAM": "02260241FF4C0032", "SCAMIN": 999999, "SORDAT": "200303", "SORIND": "US,US,graph,Chart 12300" }, "geometry": { "type": "LineString", "coordinates": [ [ -73.1944785, 39.6 ], [ -73.1751444, 39.572663 ], [ -73.1278401, 39.5057652 ], [ -73.1196079, 39.4941232 ], [ -73.1160496, 39.4899101 ], [ -73.1121455, 39.4852877 ], [ -73.0989764, 39.4791702 ], [ -73.0981621, 39.4787307 ], [ -73.0555187, 39.4557146 ], [ -73.0447107, 39.4501644 ], [ -72.9926405, 39.423425 ], [ -72.9425154, 39.3976844 ], [ -72.9162417, 39.3841922 ], [ -72.9051447, 39.3784935 ], [ -72.8815751, 39.3663899 ], [ -72.854562, 39.3526715 ], [ -72.775416, 39.3124778 ], [ -72.7648954, 39.307135 ], [ -72.7463357, 39.2977096 ], [ -72.7408819, 39.29494 ], [ -72.7346529, 39.2917767 ], [ -72.7141425, 39.2813606 ], [ -72.7107725, 39.2796156 ], [ -72.6905943, 39.2691671 ], [ -72.6658523, 39.2563553 ], [ -72.6556228, 39.2510584 ], [ -72.6447604, 39.2454337 ], [ -72.6102611, 39.2271871 ], [ -72.5566769, 39.1928194 ], [ -72.5531566, 39.1912728 ], [ -72.5236549, 39.1783114 ], [ -72.5090362, 39.1708956 ], [ -72.5007685, 39.166667 ] ] } },
{ "type": "Feature", "properties": { "RCID": 565, "PRIM": 2, "GRUP": 2, "OBJL": 22, "RVER": 1, "AGEN": 550, "FIDN": 117256746, "FIDS": 48294, "LNAM": "022606FD322ABCA6", "STATUS": [ "4" ], "SCAMIN": 999999, "SORDAT": "200303", "SORIND": "US,US,graph,Chart 12300" }, "geometry": { "type": "LineString", "coordinates": [ [ -72.6857658, 39.6 ], [ -72.6846206, 39.5988324 ], [ -72.672545, 39.5857975 ], [ -72.6650589, 39.5777166 ], [ -72.64845, 39.5605909 ], [ -72.6213599, 39.5332793 ], [ -72.614707, 39.526259 ], [ -72.60512, 39.5161426 ], [ -72.584759, 39.4962099 ], [ -72.580022, 39.4915725 ], [ -72.5670339, 39.4780413 ], [ -72.5597222, 39.4704238 ], [ -72.5514747, 39.4620026 ], [ -72.5273165, 39.4373357 ], [ -72.5197379, 39.4295975 ], [ -72.5061238, 39.4154696 ], [ -72.4979617, 39.4069994 ], [ -72.4860158, 39.394894 ], [ -72.4606839, 39.3692239 ], [ -72.4437059, 39.3597768 ], [ -72.4427217, 39.3594698 ], [ -72.4079043, 39.3486103 ], [ -72.3898805, 39.3434601 ], [ -72.3857843, 39.3422896 ], [ -72.3646021, 39.3362369 ], [ -72.3517265, 39.3325578 ], [ -72.3462707, 39.3309988 ], [ -72.3350855, 39.3278027 ], [ -72.3110883, 39.3209456 ], [ -72.2494506, 39.3066214 ], [ -72.1791537, 39.2904528 ] ] } },
{ "type": "Feature", "properties": { "RCID": 566, "PRIM": 2, "GRUP": 2, "OBJL": 22, "RVER": 1, "AGEN": 550, "FIDN": 37886906, "FIDS": 50, "LNAM": "022602421BBA0032", "SCAMIN": 999999, "SORDAT": "20080618", "SORIND": "US,US,reprt,L-699-2008" }, "geometry": { "type": "LineString", "coordinates": [ [ -71.9487288, 39.6 ], [ -71.9485, 39.5998333 ], [ -71.9438333, 39.5963333 ], [ -71.8620424, 39.522737 ], [ -71.8556667, 39.517 ], [ -71.8466667, 39.5088333 ], [ -71.843861, 39.5050924 ], [ -71.8366667, 39.4955 ], [ -71.8083333, 39.4583333 ], [ -71.803, 39.4536667 ], [ -71.7585, 39.4145 ], [ -71.7432622, 39.4011051 ], [ -71.7407433, 39.3988908 ], [ -71.6661667, 39.3333333 ], [ -71.598, 39.3061667 ], [ -71.4316667, 39.2416667 ], [ -71.4315128, 39.2415925 ], [ -71.4078333, 39.2301667 ], [ -71.3628333, 39.2121667 ], [ -71.3541667, 39.2083333 ], [ -71.2765, 39.1771667 ], [ -71.1463333, 39.1251667 ], [ -71.125, 39.1166667 ], [ -70.9694184, 39.0269843 ], [ -70.968, 39.0261667 ], [ -70.9537286, 39.0176404 ], [ -70.9158333, 38.995 ], [ -70.825, 38.9416667 ], [ -70.7866667, 38.9113333 ], [ -70.7838975, 38.908841 ], [ -70.7838837, 38.9088286 ], [ -70.7716667, 38.8978333 ], [ -70.7533333, 38.8821667 ], [ -70.615, 38.768 ], [ -70.6134294, 38.7666666 ] ] } },
{ "type": "Feature", "properties": { "RCID": 567, "PRIM": 2, "GRUP": 2, "OBJL": 22, "RVER": 1, "AGEN": 550, "FIDN": 37876680, "FIDS": 50, "LNAM": "02260241F3C80032", "SCAMIN": 999999, "SORDAT": "200303", "SORIND": "US,US,graph,Chart 12300" }, "geometry": { "type": "LineString", "coordinates": [ [ -69.2666667, 39.3471644 ], [ -69.3077672, 39.3393415 ], [ -69.3323688, 39.3352509 ], [ -69.359782, 39.333342 ], [ -69.3896553, 39.3317056 ], [ -69.4627572, 39.3284328 ], [ -69.5577925, 39.3248892 ], [ -69.6069956, 39.3224344 ], [ -69.7122513, 39.3183429 ], [ -69.7323805, 39.3176483 ], [ -69.7531749, 39.317388 ], [ -69.7817035, 39.3160505 ], [ -69.8031484, 39.3150451 ], [ -69.8495885, 39.3132428 ], [ -69.8836425, 39.3119212 ], [ -69.917767, 39.3105125 ], [ -70.0311126, 39.3058336 ], [ -70.0898214, 39.3036838 ], [ -70.1022158, 39.30323 ], [ -70.2070563, 39.2982628 ], [ -70.3059971, 39.2948777 ], [ -70.3975811, 39.2912962 ], [ -70.4051616, 39.2909998 ], [ -70.4470856, 39.2889164 ], [ -70.477271, 39.2873539 ], [ -70.5034316, 39.2839683 ], [ -70.5228844, 39.2808428 ], [ -70.5794043, 39.2727968 ], [ -70.5998083, 39.2698922 ], [ -70.7056372, 39.2552029 ], [ -70.7723836, 39.246052 ], [ -70.7797589, 39.2450408 ], [ -70.8393026, 39.2345954 ], [ -70.8651279, 39.2301647 ], [ -70.8721711, 39.2288614 ], [ -70.878879, 39.2283401 ], [ -70.8842452, 39.2280795 ], [ -70.8966547, 39.2312072 ], [ -70.9560192, 39.247365 ], [ -71.0598076, 39.2753204 ], [ -71.1151474, 39.2899055 ], [ -71.2267158, 39.318342 ], [ -71.314924, 39.3422867 ], [ -71.4338446, 39.3736721 ], [ -71.49824, 39.391097 ], [ -71.5083174, 39.3937153 ], [ -71.6214873, 39.4231188 ], [ -71.66596, 39.43437 ], [ -71.6776987, 39.4385278 ], [ -71.6908902, 39.4445574 ], [ -71.711238, 39.453858 ], [ -71.7729502, 39.4800932 ], [ -71.8175574, 39.4951545 ], [ -71.843861, 39.5050924 ], [ -71.8660174, 39.5134634 ], [ -71.8962128, 39.5248716 ], [ -71.931519, 39.5387814 ], [ -71.9508817, 39.5464098 ], [ -72.0068923, 39.570535 ], [ -72.0631621, 39.5984986 ], [ -72.0661236, 39.5999703 ], [ -72.0661834, 39.6 ] ] } },
{ "type": "Feature", "properties": { "RCID": 568, "PRIM": 2, "GRUP": 2, "OBJL": 22, "RVER": 1, "AGEN": 550, "FIDN": 914951470, "FIDS": 48294, "LNAM": "022636890D2EBCA6", "SCAMIN": 999999, "SORDAT": "200303", "SORIND": "US,US,graph,Chart 12300" }, "geometry": { "type": "LineString", "coordinates": [ [ -69.2666667, 39.4085757 ], [ -69.3874059, 39.4070973 ], [ -69.5676176, 39.408573 ], [ -69.7370418, 39.408573 ], [ -69.7729655, 39.4090915 ], [ -69.7856565, 39.4100753 ], [ -69.8002512, 39.4149936 ], [ -69.884646, 39.453836 ], [ -69.9188316, 39.4678097 ], [ -69.9501029, 39.4805921 ], [ -70.0186341, 39.5100667 ], [ -70.0423709, 39.5201882 ], [ -70.0808198, 39.5365831 ], [ -70.1246036, 39.5557274 ], [ -70.1499855, 39.5640707 ], [ -70.1702911, 39.5684874 ], [ -70.2080867, 39.575495 ], [ -70.237276, 39.5794202 ], [ -70.2594852, 39.5799108 ], [ -70.310249, 39.5769669 ], [ -70.3686273, 39.5740229 ], [ -70.3828568, 39.5730479 ], [ -70.4187567, 39.570588 ], [ -70.4852595, 39.5674232 ], [ -70.5012479, 39.5666623 ], [ -70.529663, 39.5656934 ], [ -70.5596217, 39.5712987 ], [ -70.5997276, 39.5817605 ], [ -70.6250014, 39.5874596 ], [ -70.6577122, 39.5948356 ], [ -70.6699616, 39.6 ] ] } },
{ "type": "Feature", "properties": { "RCID": 569, "PRIM": 2, "GRUP": 2, "OBJL": 22, "RVER": 1, "AGEN": 550, "FIDN": -1435458111, "FIDS": 48294, "LNAM": "0226AA70A5C1BCA6", "SCAMIN": 999999, "SORDAT": "200303", "SORIND": "US,US,graph,Chart 12300" }, "geometry": { "type": "LineString", "coordinates": [ [ -73.7027452, 39.6 ], [ -73.7098616, 39.5666479 ], [ -73.7119416, 39.5509613 ], [ -73.7127068, 39.5451902 ], [ -73.7144826, 39.541265 ], [ -73.7176861, 39.5341838 ], [ -73.7491253, 39.5068119 ], [ -73.7518296, 39.5044574 ], [ -73.7588765, 39.498242 ], [ -73.7633642, 39.4942838 ], [ -73.76982, 39.4892855 ], [ -73.7768793, 39.4838199 ], [ -73.7911058, 39.4788629 ], [ -73.8110228, 39.4772104 ], [ -73.8257401, 39.4799674 ], [ -73.8422248, 39.4830556 ], [ -73.8551248, 39.4854722 ], [ -73.8883931, 39.4931715 ], [ -73.9746619, 39.5131367 ], [ -73.9931214, 39.5174088 ], [ -74.0783114, 39.5367308 ], [ -74.0856381, 39.5391359 ], [ -74.094462, 39.5411809 ], [ -74.1090801, 39.5448138 ], [ -74.1184645, 39.5469096 ], [ -74.1330125, 39.5498456 ], [ -74.14166, 39.5524166 ], [ -74.1515608, 39.5548906 ], [ -74.1601457, 39.5567338 ], [ -74.1743703, 39.5593047 ], [ -74.1829552, 39.5603718 ], [ -74.1968665, 39.5620694 ], [ -74.2080832, 39.5633304 ], [ -74.217608, 39.5642035 ], [ -74.2221198, 39.564931 ], [ -74.2313962, 39.5668582 ] ] } },
{ "type": "Feature", "properties": { "RCID": 570, "PRIM": 2, "GRUP": 2, "OBJL": 22, "RVER": 1, "AGEN": 550, "FIDN": 1456496731, "FIDS": 48294, "LNAM": "022656D0605BBCA6", "SCAMIN": 999999, "SORDAT": "200303", "SORIND": "US,US,graph,Chart 12300" }, "geometry": { "type": "LineString", "coordinates": [ [ -72.5510873, 39.6 ], [ -72.5412492, 39.5906949 ], [ -72.5157641, 39.5653939 ], [ -72.4916844, 39.5414882 ], [ -72.4742421, 39.5241719 ], [ -72.4567952, 39.5068511 ], [ -72.4424903, 39.4926457 ], [ -72.4203677, 39.4706771 ], [ -72.4051954, 39.4541849 ], [ -72.4035819, 39.4516225 ], [ -72.3972764, 39.4416086 ], [ -72.3889615, 39.4262684 ], [ -72.3798546, 39.4100042 ], [ -72.3784046, 39.408407 ], [ -72.3723315, 39.4017172 ], [ -72.3652044, 39.3934291 ], [ -72.3596611, 39.3906662 ], [ -72.3541178, 39.3894383 ], [ -72.3399573, 39.3913127 ], [ -72.3378838, 39.3915872 ], [ -72.3267972, 39.3928152 ], [ -72.3168914, 39.3953751 ], [ -72.312543, 39.3964988 ], [ -72.3053799, 39.3975566 ], [ -72.3042281, 39.3977267 ], [ -72.2971507, 39.3967807 ], [ -72.2927455, 39.3961919 ], [ -72.2883412, 39.3952516 ], [ -72.2654249, 39.3903593 ], [ -72.2503788, 39.3866752 ], [ -72.240876, 39.3857542 ], [ -72.2341449, 39.3866752 ], [ -72.217119, 39.3894383 ], [ -72.200093, 39.3937361 ], [ -72.1908045, 39.3936631 ], [ -72.1848661, 39.3922731 ], [ -72.1698191, 39.3887512 ], [ -72.1448742, 39.3819968 ] ] } },
{ "type": "Feature", "properties": { "RCID": 571, "PRIM": 2, "GRUP": 2, "OBJL": 22, "RVER": 1, "AGEN": 550, "FIDN": -1440312969, "FIDS": 48294, "LNAM": "0226AA269177BCA6", "SCAMIN": 999999, "SORDAT": "200303", "SORIND": "US,US,graph,Chart 12300" }, "geometry": { "type": "LineString", "coordinates": [ [ -70.7730588, 38.7666666 ], [ -70.7913929, 38.7868241 ], [ -70.7935961, 38.7892207 ], [ -70.8224833, 38.8206447 ], [ -70.8353249, 38.8338515 ], [ -70.8542494, 38.8412462 ], [ -70.878581, 38.8486402 ], [ -70.9177818, 38.8528649 ], [ -70.9623896, 38.8570894 ], [ -71.0063895, 38.85523 ], [ -71.0436021, 38.8531155 ], [ -71.0648021, 38.8524106 ], [ -71.0896106, 38.8517057 ], [ -71.1168277, 38.8532496 ], [ -71.1695841, 38.857129 ], [ -71.2344501, 38.8655748 ], [ -71.2477876, 38.8673114 ], [ -71.2732348, 38.8716749 ], [ -71.2943373, 38.8808856 ], [ -71.3135778, 38.8920339 ], [ -71.3303357, 38.9089954 ], [ -71.3384043, 38.923046 ], [ -71.3458523, 38.9385469 ], [ -71.3477143, 38.9540445 ], [ -71.3482632, 38.9578983 ], [ -71.3508176, 38.9758321 ], [ -71.3539771, 38.9937521 ], [ -71.3585624, 39.0051925 ], [ -71.3677328, 39.017584 ], [ -71.3784317, 39.0287822 ], [ -71.3909647, 39.0366438 ], [ -71.4120568, 39.0447425 ], [ -71.4221443, 39.0471244 ], [ -71.450267, 39.0490298 ], [ -71.5065126, 39.0518878 ], [ -71.5386092, 39.0530786 ], [ -71.5562367, 39.0541165 ], [ -71.5641845, 39.0553072 ], [ -71.5779402, 39.0607844 ], [ -71.5932243, 39.0684042 ], [ -71.6054516, 39.0793563 ], [ -71.6133994, 39.0903066 ], [ -71.6151544, 39.0927104 ], [ -71.6299062, 39.1129159 ], [ -71.6614538, 39.1582597 ], [ -71.671847, 39.1858391 ], [ -71.6902193, 39.2360944 ], [ -71.7220066, 39.3231196 ], [ -71.729672, 39.335398 ], [ -71.7409822, 39.3536597 ], [ -71.7571834, 39.3714424 ], [ -71.7617821, 39.3754587 ], [ -71.7862232, 39.3968045 ], [ -71.8207652, 39.4245262 ], [ -71.8563456, 39.4545423 ], [ -71.868325, 39.465799 ], [ -71.8809972, 39.4777067 ], [ -71.9193161, 39.5137138 ], [ -71.9273281, 39.5259111 ], [ -71.9301675, 39.5372491 ], [ -71.931519, 39.5387814 ], [ -71.9406591, 39.5491441 ], [ -71.9563967, 39.5618766 ], [ -71.973273, 39.5716397 ], [ -72.0188574, 39.5947167 ], [ -72.0300569, 39.6 ] ] } },
{ "type": "Feature", "properties": { "RCID": 572, "PRIM": 2, "GRUP": 2, "OBJL": 22, "RVER": 1, "AGEN": 550, "FIDN": -1140704902, "FIDS": 48294, "LNAM": "0226BC02397ABCA6", "STATUS": [ "4" ], "SCAMIN": 999999, "SORDAT": "200303", "SORIND": "US,US,graph,Chart 12300" }, "geometry": { "type": "LineString", "coordinates": [ [ -72.4832228, 39.166667 ], [ -72.5461555, 39.1952076 ], [ -72.5488997, 39.1965133 ], [ -72.5511101, 39.197565 ], [ -72.5537322, 39.1988126 ], [ -72.5564795, 39.2001198 ], [ -72.5737077, 39.2083171 ], [ -72.6025609, 39.2275431 ], [ -72.6039867, 39.2284899 ], [ -72.6066372, 39.2302499 ], [ -72.6316839, 39.2468815 ], [ -72.6382317, 39.2512419 ], [ -72.6428035, 39.2542864 ], [ -72.6441531, 39.2561037 ], [ -72.6467748, 39.2596338 ], [ -72.6488928, 39.2676541 ], [ -72.6503381, 39.2697961 ], [ -72.6553291, 39.277193 ], [ -72.6626873, 39.2880981 ], [ -72.6796315, 39.305981 ], [ -72.6799532, 39.3062978 ], [ -72.6887587, 39.3149687 ], [ -72.7035378, 39.3295219 ], [ -72.7045668, 39.3305352 ], [ -72.7215575, 39.3470141 ], [ -72.725747, 39.3510773 ], [ -72.7371924, 39.3627145 ], [ -72.7491017, 39.3748233 ], [ -72.7572527, 39.3831108 ], [ -72.7823373, 39.4072128 ], [ -72.7954374, 39.4197998 ], [ -72.8289104, 39.4496507 ], [ -72.8341287, 39.4545015 ], [ -72.8355292, 39.4558033 ], [ -72.8426776, 39.4599048 ], [ -72.854062, 39.464006 ], [ -72.8710062, 39.4683121 ], [ -72.8754622, 39.4705206 ], [ -72.877625, 39.4715926 ], [ -72.8815963, 39.4758982 ], [ -72.887235, 39.488739 ], [ -72.890598, 39.4963972 ], [ -72.9041004, 39.5248806 ], [ -72.9160885, 39.5507959 ], [ -72.9268948, 39.5741564 ], [ -72.9361612, 39.5927842 ], [ -72.9394683, 39.6 ] ] } },
{ "type": "Feature", "properties": { "RCID": 573, "PRIM": 2, "GRUP": 2, "OBJL": 22, "RVER": 1, "AGEN": 550, "FIDN": 1085552806, "FIDS": 48294, "LNAM": "022640B438A6BCA6", "SCAMIN": 999999, "SORDAT": "200303", "SORIND": "US,US,graph,Chart 12300" }, "geometry": { "type": "LineString", "coordinates": [ [ -71.8901026, 39.4669065 ], [ -72.0334023, 39.5483773 ], [ -72.0987295, 39.5824627 ], [ -72.1209544, 39.5930271 ], [ -72.1344204, 39.6 ] ] } },
{ "type": "Feature", "properties": { "RCID": 574, "PRIM": 2, "GRUP": 2, "OBJL": 22, "RVER": 1, "AGEN": 550, "FIDN": 440325242, "FIDS": 48294, "LNAM": "02261A3ED47ABCA6", "STATUS": [ "4" ], "SCAMIN": 999999, "SORDAT": "200303", "SORIND": "US,US,graph,Chart 12300" }, "geometry": { "type": "LineString", "coordinates": [ [ -71.8477617, 39.6 ], [ -71.8433986, 39.5982968 ], [ -71.8192653, 39.5879471 ] ] } },
{ "type": "Feature", "properties": { "RCID": 575, "PRIM": 2, "GRUP": 2, "OBJL": 22, "RVER": 1, "AGEN": 550, "FIDN": 22754778, "FIDS": 50, "LNAM": "0226015B35DA0032", "SCAMIN": 999999, "SORDAT": "200303", "SORIND": "US,US,graph,Chart 12300" }, "geometry": { "type": "LineString", "coordinates": [ [ -73.3327242, 39.6 ], [ -73.317988, 39.5974175 ], [ -73.2820606, 39.5911212 ], [ -73.2699924, 39.5890063 ], [ -73.2149007, 39.5795163 ], [ -73.1754525, 39.572721 ], [ -73.1751444, 39.572663 ], [ -73.1435719, 39.5667182 ], [ -73.1284807, 39.5603961 ], [ -73.1236119, 39.5583564 ], [ -73.1105232, 39.5509542 ], [ -73.0906224, 39.5396994 ], [ -73.0861026, 39.5373311 ], [ -73.0731751, 39.5305572 ], [ -73.0099106, 39.4974073 ], [ -72.9782057, 39.4807942 ], [ -72.9356909, 39.4594126 ], [ -72.9088237, 39.4459006 ], [ -72.8937815, 39.4383355 ], [ -72.8858064, 39.4343246 ], [ -72.8408194, 39.4116997 ], [ -72.8002839, 39.3925383 ], [ -72.7518368, 39.369637 ], [ -72.7371924, 39.3627145 ], [ -72.7350603, 39.3617066 ], [ -72.7185914, 39.3536735 ], [ -72.6933008, 39.3413374 ], [ -72.6789725, 39.3343485 ], [ -72.6577212, 39.3239827 ], [ -72.6392589, 39.3149773 ], [ -72.6119047, 39.302404 ], [ -72.5971211, 39.2956088 ], [ -72.5804643, 39.2869072 ], [ -72.5666332, 39.2796818 ], [ -72.5257468, 39.2628701 ], [ -72.504101, 39.2569984 ], [ -72.4930884, 39.2531959 ], [ -72.4762708, 39.2473891 ], [ -72.4759156, 39.2472386 ], [ -72.4684975, 39.2440948 ], [ -72.4659089, 39.2429977 ], [ -72.4626677, 39.2416241 ], [ -72.4611531, 39.2409822 ], [ -72.4487841, 39.2313707 ], [ -72.4209539, 39.212945 ], [ -72.3538054, 39.1550226 ], [ -72.3433553, 39.1449593 ], [ -72.3060473, 39.1090323 ], [ -72.2215195, 39.0294411 ], [ -72.1949451, 39.0044187 ], [ -72.1666453, 38.9811916 ], [ -72.1542763, 38.9763682 ], [ -72.1254153, 38.9632359 ], [ -72.0841171, 38.9471251 ], [ -72.0718163, 38.9423265 ], [ -72.0230274, 38.9224835 ], [ -71.9994876, 38.9129786 ], [ -71.8300436, 38.8445602 ], [ -71.8094286, 38.8356997 ], [ -71.7970595, 38.8319404 ], [ -71.7860649, 38.8322089 ], [ -71.762454, 38.8315099 ], [ -71.7050756, 38.8277504 ], [ -71.6865221, 38.8264076 ], [ -71.6793069, 38.8269447 ], [ -71.6696866, 38.8298987 ], [ -71.5466837, 38.8658737 ], [ -71.5348256, 38.8670196 ], [ -71.4829445, 38.8611147 ], [ -71.3812438, 38.8506455 ], [ -71.2677472, 38.8387294 ], [ -71.18928, 38.8304911 ], [ -71.0244127, 38.8137971 ], [ -70.910343, 38.8019778 ], [ -70.7935961, 38.7892207 ], [ -70.7624568, 38.7858181 ], [ -70.6355195, 38.7728863 ], [ -70.6214326, 38.76993 ], [ -70.6159237, 38.7666666 ] ] } },
{ "type": "Feature", "properties": { "RCID": 576, "PRIM": 2, "GRUP": 2, "OBJL": 22, "RVER": 1, "AGEN": 550, "FIDN": 22754779, "FIDS": 50, "LNAM": "0226015B35DB0032", "SCAMIN": 999999, "SORDAT": "200303", "SORIND": "US,US,graph,Chart 12300" }, "geometry": { "type": "LineString", "coordinates": [ [ -69.2666667, 39.2948834 ], [ -69.3881364, 39.2995906 ], [ -69.4511625, 39.302033 ], [ -69.4767168, 39.3030233 ], [ -69.7193152, 39.3127614 ], [ -69.7817035, 39.3160505 ], [ -69.7894483, 39.3164588 ], [ -69.8157552, 39.3180145 ], [ -69.8262781, 39.31782 ], [ -69.8355481, 39.3176255 ], [ -69.8448182, 39.315292 ], [ -69.8495885, 39.3132428 ], [ -69.8706239, 39.3042066 ], [ -69.8878831, 39.2966883 ], [ -69.9793285, 39.2568537 ], [ -70.0751098, 39.2151303 ], [ -70.1003102, 39.2050042 ], [ -70.2801334, 39.1327469 ], [ -70.3028074, 39.123636 ], [ -70.375267, 39.0945635 ], [ -70.3811822, 39.0921902 ], [ -70.4127928, 39.0795073 ], [ -70.4259991, 39.0741881 ], [ -70.4755854, 39.054216 ], [ -70.4951995, 39.0463159 ], [ -70.5719971, 39.0153931 ], [ -70.5821181, 39.0096399 ], [ -70.5881913, 39.0061877 ], [ -70.5999996, 38.9940874 ], [ -70.6062196, 38.9882259 ], [ -70.6242908, 38.9711961 ], [ -70.6357617, 38.9614585 ], [ -70.6438588, 38.9580369 ], [ -70.6999463, 38.9380561 ], [ -70.7790322, 38.910658 ], [ -70.7838975, 38.908841 ], [ -70.7845794, 38.9085863 ], [ -70.8027074, 38.9022741 ], [ -70.8182268, 38.8980592 ], [ -70.8298964, 38.8990778 ], [ -70.8472519, 38.9010588 ], [ -70.921802, 38.9096494 ], [ -70.9697098, 38.9159704 ], [ -71.005312, 38.9191712 ], [ -71.1190086, 38.9320744 ], [ -71.1916653, 38.9407863 ], [ -71.2116808, 38.9431862 ], [ -71.3189673, 38.9545057 ], [ -71.3482632, 38.9578983 ], [ -71.3621517, 38.9595067 ], [ -71.4417053, 38.9682752 ], [ -71.5213266, 38.978275 ], [ -71.5874529, 38.9882733 ], [ -71.6211907, 38.9927458 ], [ -71.7250431, 39.00967 ], [ -71.8090503, 39.0220307 ], [ -71.8464994, 39.0278158 ], [ -71.8560578, 39.0293905 ], [ -71.8661791, 39.0301793 ], [ -71.872252, 39.0286017 ], [ -71.8827107, 39.0230796 ], [ -71.9032908, 39.009141 ], [ -71.9309558, 38.9930951 ], [ -71.9360165, 38.9909905 ], [ -71.9393903, 38.9907274 ], [ -71.9532228, 38.9930951 ], [ -71.9812252, 38.9980934 ], [ -72.0330317, 39.0075551 ], [ -72.0606967, 39.0120263 ], [ -72.0674903, 39.0147583 ], [ -72.0951094, 39.0364817 ], [ -72.2474313, 39.1566415 ], [ -72.2559601, 39.163475 ], [ -72.2836796, 39.1856845 ], [ -72.3066213, 39.2006371 ], [ -72.3410339, 39.2197823 ], [ -72.3933276, 39.2486212 ], [ -72.4197742, 39.2637807 ], [ -72.423471, 39.2658998 ], [ -72.4287956, 39.2689519 ], [ -72.4332849, 39.2715252 ], [ -72.4368283, 39.2733425 ], [ -72.451166, 39.2806957 ], [ -72.454821, 39.2829298 ], [ -72.4828795, 39.3000808 ], [ -72.506496, 39.3139614 ], [ -72.5164322, 39.3197406 ], [ -72.5762063, 39.3545068 ], [ -72.6052311, 39.3713884 ], [ -72.619231, 39.3795311 ], [ -72.6255018, 39.3831136 ], [ -72.6509482, 39.397651 ], [ -72.6758322, 39.4118671 ], [ -72.7013258, 39.4264315 ], [ -72.7586226, 39.4591649 ], [ -72.7668655, 39.463874 ], [ -72.7839248, 39.4737746 ], [ -72.82866, 39.4997373 ], [ -72.8408133, 39.5067906 ], [ -72.8787042, 39.5287811 ], [ -72.9160885, 39.5507959 ], [ -72.9706737, 39.5829399 ], [ -72.9773468, 39.5868696 ], [ -72.9832834, 39.5890726 ], [ -72.9872943, 39.590561 ], [ -72.9942157, 39.5931295 ], [ -73.0171574, 39.5962592 ], [ -73.0427692, 39.5994841 ], [ -73.0468665, 39.6 ] ] } },
{ "type": "Feature", "properties": { "RCID": 577, "PRIM": 2, "GRUP": 2, "OBJL": 22, "RVER": 1, "AGEN": 550, "FIDN": 37886802, "FIDS": 50, "LNAM": "022602421B520032", "SCAMIN": 999999, "SORDAT": "200303", "SORIND": "US,US,graph,Chart 12300" }, "geometry": { "type": "LineString", "coordinates": [ [ -69.2666667, 39.0855118 ], [ -69.5087506, 39.0974517 ], [ -69.7042157, 39.1053688 ], [ -69.7497666, 39.107139 ], [ -69.9762461, 39.1159407 ], [ -70.1828182, 39.1269606 ], [ -70.2556939, 39.1295985 ], [ -70.2720769, 39.1304779 ], [ -70.2799859, 39.1326761 ], [ -70.2801334, 39.1327469 ], [ -70.3065375, 39.1454244 ], [ -70.3630302, 39.1717928 ], [ -70.56852, 39.2677353 ], [ -70.5794043, 39.2727968 ], [ -70.6741615, 39.316862 ], [ -70.7379983, 39.348425 ], [ -70.7568092, 39.3564382 ], [ -70.7728366, 39.3632656 ], [ -70.8664525, 39.4076028 ], [ -70.9871238, 39.4624628 ], [ -71.0375113, 39.4853702 ], [ -71.0701599, 39.5004544 ], [ -71.0767341, 39.501804 ], [ -71.1709937, 39.501804 ], [ -71.2473163, 39.5021589 ], [ -71.3235803, 39.5025134 ], [ -71.3463481, 39.5026193 ], [ -71.4349637, 39.5026339 ], [ -71.4662549, 39.502639 ], [ -71.4788931, 39.5063076 ], [ -71.5052225, 39.5164968 ], [ -71.5515625, 39.5372783 ], [ -71.5629587, 39.5424778 ], [ -71.5720995, 39.5466483 ], [ -71.5894769, 39.5539804 ], [ -71.6021151, 39.5633481 ], [ -71.6384244, 39.6 ] ] } },
{ "type": "Feature", "properties": { "RCID": 578, "PRIM": 2, "GRUP": 2, "OBJL": 22, "RVER": 1, "AGEN": 550, "FIDN": 22754534, "FIDS": 50, "LNAM": "0226015B34E60032", "SCAMIN": 999999, "SORDAT": "200303", "SORIND": "US,US,graph,Chart 12300" }, "geometry": { "type": "LineString", "coordinates": [ [ -69.2666667, 39.5727118 ], [ -69.5040899, 39.5636845 ], [ -69.9388168, 39.545665 ], [ -69.9654964, 39.5445591 ], [ -70.0423709, 39.5201882 ], [ -70.0916639, 39.5045613 ], [ -70.1049534, 39.4972996 ], [ -70.1154473, 39.4860945 ], [ -70.172968, 39.4246752 ], [ -70.1917253, 39.4046466 ], [ -70.2179941, 39.3792412 ], [ -70.2399313, 39.3580249 ], [ -70.2542834, 39.3502572 ], [ -70.2726409, 39.346632 ], [ -70.3801156, 39.3357553 ], [ -70.4318503, 39.3419708 ], [ -70.455513, 39.3430605 ], [ -70.6516679, 39.3520936 ], [ -70.7568092, 39.3564382 ], [ -70.8949867, 39.3621478 ], [ -71.0089562, 39.367182 ], [ -71.0195609, 39.3699237 ], [ -71.1313965, 39.4325839 ], [ -71.1385692, 39.4366027 ], [ -71.24075, 39.4970761 ], [ -71.2473163, 39.5021589 ], [ -71.2554788, 39.5084772 ], [ -71.299665, 39.5850445 ], [ -71.3071999, 39.6 ] ] } },
{ "type": "Feature", "properties": { "RCID": 579, "PRIM": 2, "GRUP": 2, "OBJL": 22, "RVER": 1, "AGEN": 550, "FIDN": 37879627, "FIDS": 50, "LNAM": "02260241FF4B0032", "SCAMIN": 999999, "SORDAT": "200303", "SORIND": "US,US,graph,Chart 12300" }, "geometry": { "type": "LineString", "coordinates": [ [ -69.2666667, 38.8495564 ], [ -70.5313882, 38.9802403 ], [ -70.6062196, 38.9882259 ], [ -70.7653315, 39.0052054 ], [ -70.795016, 39.0083731 ], [ -70.9398574, 39.0238298 ], [ -70.9694184, 39.0269843 ], [ -70.9850516, 39.0286526 ], [ -71.3109038, 39.0607832 ], [ -71.5479507, 39.0854358 ], [ -71.6151544, 39.0927104 ], [ -71.7235431, 39.1044432 ], [ -71.8319987, 39.1148385 ], [ -71.9265407, 39.1197391 ], [ -71.952131, 39.1234082 ], [ -72.0065295, 39.1436966 ], [ -72.1245288, 39.1878482 ], [ -72.1709954, 39.2056504 ], [ -72.1829907, 39.2134519 ], [ -72.2039933, 39.2271116 ], [ -72.3127624, 39.2954635 ], [ -72.3474921, 39.3170785 ], [ -72.354216, 39.3212633 ], [ -72.3597829, 39.324728 ], [ -72.3711487, 39.3318018 ], [ -72.3869674, 39.3416471 ], [ -72.3898805, 39.3434601 ], [ -72.4286562, 39.3675933 ], [ -72.4420607, 39.3759359 ], [ -72.4741944, 39.3960057 ], [ -72.4905476, 39.4062194 ], [ -72.5061238, 39.4154696 ], [ -72.5318225, 39.4307311 ], [ -72.5562101, 39.4452141 ], [ -72.5626045, 39.4490115 ], [ -72.5823221, 39.4613123 ], [ -72.6105801, 39.4789409 ], [ -72.6353348, 39.494384 ], [ -72.6405436, 39.4974476 ], [ -72.6753335, 39.5179098 ], [ -72.7722755, 39.5749275 ], [ -72.8164238, 39.6 ] ] } },
{ "type": "Feature", "properties": { "RCID": 580, "PRIM": 2, "GRUP": 2, "OBJL": 22, "RVER": 1, "AGEN": 550, "FIDN": 1340242539, "FIDS": 48294, "LNAM": "02264FE27A6BBCA6", "SCAMIN": 999999, "SORDAT": "200303", "SORIND": "US,US,graph,Chart 12300" }, "geometry": { "type": "LineString", "coordinates": [ [ -69.2666667, 39.136663 ], [ -69.3626605, 39.144545 ], [ -69.4608179, 39.1527766 ], [ -69.5107673, 39.1563066 ], [ -69.5324032, 39.1578356 ], [ -69.5853024, 39.1617222 ], [ -69.6555802, 39.1706836 ], [ -69.6570103, 39.170866 ], [ -69.6669231, 39.1712012 ], [ -69.6772883, 39.1715517 ], [ -69.685811, 39.1710945 ], [ -69.6954763, 39.172504 ], [ -69.6999174, 39.1731517 ], [ -69.8112325, 39.1791586 ], [ -69.8359188, 39.1828154 ], [ -69.8444415, 39.1851008 ], [ -69.8526702, 39.1889857 ], [ -69.8805892, 39.204295 ], [ -69.9304268, 39.2311583 ], [ -69.9703952, 39.2512532 ], [ -69.9793285, 39.2568537 ], [ -69.9871466, 39.2617551 ], [ -69.9927303, 39.265864 ], [ -69.9971386, 39.2697444 ], [ -70.0074246, 39.2717988 ], [ -70.0512134, 39.2848078 ], [ -70.068392, 39.2901939 ], [ -70.0898214, 39.3036838 ], [ -70.0901394, 39.303884 ], [ -70.1242301, 39.3262385 ], [ -70.1582737, 39.348309 ], [ -70.2179941, 39.3792412 ], [ -70.2331272, 39.3870301 ], [ -70.299839, 39.4186969 ], [ -70.3495055, 39.4435191 ], [ -70.3996907, 39.4705358 ], [ -70.4899132, 39.5183145 ], [ -70.5767506, 39.5638953 ], [ -70.6250014, 39.5874596 ], [ -70.6270049, 39.588438 ], [ -70.6505717, 39.6 ] ] } },
{ "type": "Feature", "properties": { "RCID": 581, "PRIM": 2, "GRUP": 2, "OBJL": 22, "RVER": 1, "AGEN": 550, "FIDN": 1377352918, "FIDS": 48294, "LNAM": "02265218BCD6BCA6", "SCAMIN": 999999, "SORDAT": "200303", "SORIND": "US,US,graph,Chart 12300" }, "geometry": { "type": "LineString", "coordinates": [ [ -69.2666667, 39.4150329 ], [ -69.3077568, 39.4158029 ], [ -69.3977435, 39.4255431 ], [ -69.4796867, 39.4325551 ], [ -69.6511344, 39.4523479 ], [ -69.6915828, 39.4543061 ], [ -69.7705259, 39.4613399 ], [ -69.8261424, 39.4666544 ], [ -69.8405881, 39.4672139 ], [ -69.8488945, 39.4669342 ], [ -69.8564786, 39.4649762 ], [ -69.8713976, 39.4618931 ], [ -69.8804262, 39.4621728 ], [ -69.9188316, 39.4678097 ], [ -69.9699903, 39.4753184 ], [ -70.0487201, 39.4831486 ], [ -70.0995231, 39.4851286 ], [ -70.1154473, 39.4860945 ], [ -70.1778916, 39.489882 ], [ -70.233147, 39.4951944 ], [ -70.2649278, 39.4968719 ], [ -70.2735952, 39.4965923 ], [ -70.2782901, 39.4968719 ], [ -70.2865965, 39.5002267 ], [ -70.3154882, 39.5178371 ], [ -70.3326566, 39.5290966 ], [ -70.3460189, 39.540553 ], [ -70.3828568, 39.5730479 ], [ -70.3897175, 39.5790997 ], [ -70.4035313, 39.5909729 ], [ -70.4154338, 39.6 ] ] } },
{ "type": "Feature", "properties": { "RCID": 582, "PRIM": 2, "GRUP": 2, "OBJL": 22, "RVER": 1, "AGEN": 550, "FIDN": -1605605794, "FIDS": 48294, "LNAM": "0226A04C665EBCA6", "STATUS": [ "4" ], "SCAMIN": 999999, "SORDAT": "200303", "SORIND": "US,US,graph,Chart 12300" }, "geometry": { "type": "LineString", "coordinates": [ [ -73.4004139, 39.6 ], [ -73.3766175, 39.5660916 ], [ -73.3423074, 39.5149629 ], [ -73.2900769, 39.440755 ], [ -73.244363, 39.375881 ], [ -73.2182958, 39.3388881 ], [ -73.184942, 39.2892631 ], [ -73.1422195, 39.2309361 ], [ -73.1297765, 39.2126076 ], [ -73.1031639, 39.1734074 ], [ -73.1004125, 39.166667 ] ] } },
{ "type": "Feature", "properties": { "RCID": 583, "PRIM": 2, "GRUP": 2, "OBJL": 22, "RVER": 1, "AGEN": 550, "FIDN": 37886782, "FIDS": 50, "LNAM": "022602421B3E0032", "SCAMIN": 999999, "SORDAT": "200303", "SORIND": "US,US,graph,Chart 12300" }, "geometry": { "type": "LineString", "coordinates": [ [ -73.044969, 39.166667 ], [ -73.0615728, 39.1915274 ], [ -73.1079518, 39.2663072 ], [ -73.1082394, 39.266771 ], [ -73.1175589, 39.2817974 ], [ -73.1191481, 39.2842782 ], [ -73.1682604, 39.3609433 ], [ -73.2001649, 39.4111741 ], [ -73.2120849, 39.429941 ], [ -73.2173001, 39.438152 ], [ -73.2211869, 39.4443765 ], [ -73.2614587, 39.5088694 ], [ -73.2716065, 39.5251205 ], [ -73.3141468, 39.5913544 ], [ -73.317988, 39.5974175 ], [ -73.3196241, 39.6 ] ] } },
{ "type": "Feature", "properties": { "RCID": 584, "PRIM": 2, "GRUP": 2, "OBJL": 22, "RVER": 1, "AGEN": 550, "FIDN": 854950956, "FIDS": 48294, "LNAM": "022632F5842CBCA6", "SCAMIN": 999999, "SORDAT": "20061211", "SORIND": "US,US,graph,Chart 12300" }, "geometry": { "type": "LineString", "coordinates": [ [ -72.8940338, 39.166667 ], [ -72.924471, 39.1879668 ], [ -72.9903547, 39.2405282 ], [ -72.9937324, 39.2432745 ], [ -73.0848487, 39.3173588 ], [ -73.1423528, 39.3641139 ], [ -73.175892, 39.3932256 ], [ -73.2001649, 39.4111741 ], [ -73.2087876, 39.4175501 ], [ -73.217456, 39.4265141 ], [ -73.2196795, 39.4288135 ], [ -73.2247965, 39.4355498 ], [ -73.227189, 39.4422711 ], [ -73.2272385, 39.4423424 ], [ -73.2696216, 39.5033333 ], [ -73.3238388, 39.5794916 ], [ -73.3376811, 39.6 ] ] } },
{ "type": "Feature", "properties": { "RCID": 585, "PRIM": 2, "GRUP": 2, "OBJL": 22, "RVER": 1, "AGEN": 550, "FIDN": -956705011, "FIDS": 48294, "LNAM": "0226C6F9D70DBCA6", "STATUS": [ "4" ], "SCAMIN": 999999, "SORDAT": "200303", "SORIND": "US,US,graph,Chart 12300" }, "geometry": { "type": "LineString", "coordinates": [ [ -73.1676093, 39.6 ], [ -73.1467598, 39.5786361 ], [ -73.1284807, 39.5603961 ], [ -73.1117533, 39.5437045 ], [ -73.1046222, 39.5365886 ], [ -73.0935478, 39.5254409 ], [ -73.0815672, 39.513381 ], [ -73.0558981, 39.4875418 ], [ -73.0345281, 39.4663164 ], [ -73.0319682, 39.4637738 ], [ -73.009274, 39.4400271 ], [ -72.9926405, 39.423425 ], [ -72.9585983, 39.3894469 ], [ -72.9541311, 39.3849881 ], [ -72.9363406, 39.3672962 ], [ -72.9248958, 39.3525677 ], [ -72.9116348, 39.3377045 ], [ -72.8944632, 39.318458 ], [ -72.8896077, 39.3128566 ], [ -72.8335219, 39.2481551 ], [ -72.8181731, 39.2304484 ], [ -72.7616141, 39.166667 ] ] } },
{ "type": "Feature", "properties": { "RCID": 586, "PRIM": 2, "GRUP": 2, "OBJL": 22, "RVER": 1, "AGEN": 550, "FIDN": 37879596, "FIDS": 50, "LNAM": "02260241FF2C0032", "SCAMIN": 999999, "SORDAT": "200303", "SORIND": "US,US,graph,Chart 12300" }, "geometry": { "type": "LineString", "coordinates": [ [ -69.2666667, 38.9761331 ], [ -69.5092922, 38.9905256 ], [ -69.6690752, 38.998593 ], [ -69.7792421, 39.0056048 ], [ -69.8884272, 39.0121525 ], [ -69.9034609, 39.013054 ], [ -69.9613548, 39.0169974 ], [ -70.1883134, 39.0288369 ], [ -70.2959873, 39.0345324 ], [ -70.3125322, 39.0354076 ], [ -70.3310808, 39.0375976 ], [ -70.3490672, 39.0424156 ], [ -70.3709881, 39.0524885 ], [ -70.4259991, 39.0741881 ], [ -70.4533714, 39.0849854 ], [ -70.4625371, 39.0888335 ], [ -70.5107031, 39.1090557 ], [ -70.5421794, 39.1160564 ], [ -70.5860214, 39.1204315 ], [ -70.6381797, 39.1259049 ], [ -70.6860709, 39.1309306 ], [ -70.763439, 39.1389128 ], [ -70.925317, 39.1559685 ], [ -70.9607277, 39.1603411 ], [ -70.9899557, 39.166025 ], [ -71.0163733, 39.1734571 ], [ -71.1127655, 39.1949689 ], [ -71.1925802, 39.211574 ], [ -71.2673363, 39.2290487 ], [ -71.3469487, 39.2470817 ], [ -71.3834836, 39.2549419 ], [ -71.3930389, 39.2566884 ], [ -71.4020321, 39.2562518 ], [ -71.4315128, 39.2415925 ], [ -71.4441879, 39.2352898 ], [ -71.4666709, 39.2226222 ], [ -71.4739779, 39.2195642 ], [ -71.4942126, 39.2173797 ], [ -71.5610997, 39.2173797 ], [ -71.6361544, 39.2266266 ], [ -71.6902193, 39.2360944 ], [ -71.7159692, 39.2406037 ], [ -71.7390144, 39.2432241 ], [ -71.7766735, 39.2510847 ], [ -71.7898743, 39.2530452 ], [ -71.8061004, 39.2545824 ], [ -71.8199519, 39.2595014 ], [ -71.8380708, 39.2728168 ], [ -71.8567575, 39.2865496 ], [ -71.9093934, 39.3237238 ], [ -71.9249263, 39.3362178 ], [ -71.9308627, 39.347272 ], [ -71.941944, 39.3623153 ], [ -71.9553997, 39.3801173 ], [ -71.9675657, 39.3891148 ], [ -71.981124, 39.399142 ], [ -72.0119932, 39.4215354 ], [ -72.0393006, 39.4405488 ], [ -72.0695523, 39.4631445 ], [ -72.079842, 39.4763238 ], [ -72.0889444, 39.4836786 ], [ -72.1035875, 39.4907262 ], [ -72.1122942, 39.4962412 ], [ -72.1146687, 39.5020621 ], [ -72.1182306, 39.5186031 ], [ -72.1265415, 39.5320781 ], [ -72.1380185, 39.5415701 ], [ -72.1447044, 39.5452438 ], [ -72.1459933, 39.545952 ], [ -72.1474825, 39.5467703 ], [ -72.1552835, 39.5510567 ], [ -72.16227, 39.5548955 ], [ -72.1852202, 39.5688393 ], [ -72.1979211, 39.576556 ], [ -72.2109251, 39.5844568 ], [ -72.2287573, 39.5952911 ], [ -72.2364455, 39.6 ] ] } },
{ "type": "Feature", "properties": { "RCID": 587, "PRIM": 2, "GRUP": 2, "OBJL": 22, "RVER": 1, "AGEN": 550, "FIDN": -610679529, "FIDS": 48294, "LNAM": "0226DB99C517BCA6", "STATUS": [ "4" ], "SCAMIN": 999999, "SORDAT": "201206", "SORIND": "US,US,graph,Chart 12300" }, "geometry": { "type": "LineString", "coordinates": [ [ -73.2984953, 39.166667 ], [ -73.3308253, 39.2073889 ], [ -73.3754437, 39.2654641 ], [ -73.417039, 39.3177589 ], [ -73.4955209, 39.4164286 ], [ -73.5361791, 39.4675238 ], [ -73.6415949, 39.6 ] ] } },
{ "type": "Feature", "properties": { "RCID": 588, "PRIM": 2, "GRUP": 2, "OBJL": 22, "RVER": 1, "AGEN": 550, "FIDN": 37886921, "FIDS": 50, "LNAM": "022602421BC90032", "SCAMIN": 999999, "SORDAT": "200303", "SORIND": "US,US,graph,Chart 12300" }, "geometry": { "type": "LineString", "coordinates": [ [ -73.2290075, 39.6 ], [ -73.2149007, 39.5795163 ], [ -73.2033082, 39.5626835 ], [ -73.164192, 39.5067257 ], [ -73.149287, 39.4833732 ], [ -73.144772, 39.478053 ], [ -73.1411248, 39.4737552 ], [ -73.1334793, 39.4672789 ], [ -73.1297687, 39.4641358 ], [ -73.110519, 39.4525049 ], [ -73.0942807, 39.4426935 ], [ -73.0649936, 39.4258939 ], [ -72.9937057, 39.3850017 ], [ -72.9814057, 39.3779482 ], [ -72.9269884, 39.3467421 ], [ -72.9116348, 39.3377045 ], [ -72.8847066, 39.3218536 ], [ -72.8757594, 39.3165869 ], [ -72.8551764, 39.3050172 ], [ -72.8306898, 39.2984051 ], [ -72.8193336, 39.2970275 ], [ -72.8015897, 39.2981296 ], [ -72.7824686, 39.3018929 ], [ -72.7763931, 39.3030887 ], [ -72.7648954, 39.307135 ], [ -72.7616516, 39.3082766 ], [ -72.7552637, 39.3082766 ], [ -72.7543285, 39.3080763 ], [ -72.7383508, 39.3046547 ], [ -72.7346807, 39.3038688 ], [ -72.7266128, 39.3011776 ], [ -72.7036252, 39.2935098 ], [ -72.686772, 39.2878882 ], [ -72.6858524, 39.2875754 ], [ -72.6553291, 39.277193 ], [ -72.6445432, 39.2735242 ], [ -72.6438316, 39.2732821 ], [ -72.6344602, 39.2695078 ], [ -72.6298805, 39.2676633 ], [ -72.6055046, 39.2578458 ], [ -72.5951434, 39.2532719 ], [ -72.5586605, 39.2371668 ], [ -72.5249204, 39.2225359 ], [ -72.5193636, 39.2201263 ], [ -72.5148611, 39.2181738 ], [ -72.5117134, 39.2168089 ], [ -72.5089713, 39.2156198 ], [ -72.4831941, 39.2044419 ], [ -72.4441574, 39.1876105 ], [ -72.427833, 39.1746394 ], [ -72.4072499, 39.1544879 ], [ -72.3962487, 39.1398538 ], [ -72.3822957, 39.1230047 ], [ -72.3677422, 39.1054305 ], [ -72.3539019, 39.0924441 ], [ -72.3084773, 39.0518114 ], [ -72.2725274, 39.0102184 ], [ -72.2608729, 38.9990112 ], [ -72.2512346, 38.9897428 ], [ -72.2167687, 38.9549357 ], [ -72.1979601, 38.9297355 ], [ -72.1876686, 38.9150544 ], [ -72.1816356, 38.9048034 ], [ -72.1798612, 38.8962137 ], [ -72.1802679, 38.88605 ], [ -72.180571, 38.8784767 ], [ -72.1790957, 38.8511182 ], [ -72.1776762, 38.8405806 ], [ -72.1702237, 38.8283772 ], [ -72.1496407, 38.8025768 ], [ -72.1322516, 38.7856489 ], [ -72.116282, 38.7745464 ], [ -72.1064885, 38.7666666 ] ] } },
{ "type": "Feature", "properties": { "RCID": 589, "PRIM": 2, "GRUP": 2, "OBJL": 22, "RVER": 1, "AGEN": 550, "FIDN": 37879589, "FIDS": 50, "LNAM": "02260241FF250032", "SCAMIN": 999999, "SORDAT": "200303", "SORIND": "US,US,graph,Chart 12300" }, "geometry": { "type": "LineString", "coordinates": [ [ -69.2666667, 39.0323073 ], [ -69.4840798, 39.0404862 ], [ -69.596399, 39.0454874 ], [ -69.8097675, 39.0540772 ], [ -69.8413657, 39.0555203 ], [ -69.9330124, 39.0597058 ], [ -70.0922267, 39.0666784 ], [ -70.178498, 39.0709818 ], [ -70.2815461, 39.0749589 ], [ -70.2976954, 39.0766139 ], [ -70.3172446, 39.0805857 ], [ -70.3576179, 39.0898524 ], [ -70.375267, 39.0945635 ], [ -70.3894258, 39.0983429 ], [ -70.4011846, 39.1014817 ], [ -70.4514649, 39.1138002 ], [ -70.4849061, 39.1219931 ], [ -70.5418537, 39.1368766 ], [ -70.5811621, 39.1468392 ], [ -70.5951865, 39.1488232 ], [ -70.6262102, 39.1531215 ], [ -70.6706211, 39.1581253 ], [ -70.6878326, 39.1600645 ], [ -70.771979, 39.1689901 ], [ -70.8700641, 39.1800084 ], [ -70.8925882, 39.1829828 ], [ -70.9151122, 39.1876096 ], [ -70.9410361, 39.194549 ], [ -70.9979837, 39.2094171 ], [ -71.0553563, 39.2246122 ], [ -71.0940297, 39.2358412 ], [ -71.1299766, 39.2448734 ], [ -71.1996736, 39.2650125 ], [ -71.2574712, 39.2798655 ], [ -71.3190936, 39.297025 ], [ -71.370311, 39.3110056 ], [ -71.391985, 39.3162835 ], [ -71.4196089, 39.3268382 ], [ -71.440433, 39.3354127 ], [ -71.465507, 39.3499209 ], [ -71.4808063, 39.3631076 ], [ -71.4995055, 39.3868373 ], [ -71.5083174, 39.3937153 ], [ -71.5200014, 39.4028351 ], [ -71.5425254, 39.4206229 ], [ -71.5824737, 39.4509175 ], [ -71.6132052, 39.4717303 ], [ -71.6495455, 39.4972652 ], [ -71.6637781, 39.5072659 ], [ -71.7101494, 39.5392757 ], [ -71.7301647, 39.5530921 ], [ -71.7811625, 39.5908856 ], [ -71.7899098, 39.5969598 ], [ -71.7942879, 39.6 ] ] } },
{ "type": "Feature", "properties": { "RCID": 590, "PRIM": 2, "GRUP": 2, "OBJL": 22, "RVER": 1, "AGEN": 550, "FIDN": 22737550, "FIDS": 50, "LNAM": "0226015AF28E0032", "SCAMIN": 999999, "SORDAT": "20080808", "SORIND": "US,US,graph,Chart 12300" }, "geometry": { "type": "LineString", "coordinates": [ [ -69.2666667, 39.1438353 ], [ -69.2730697, 39.1463284 ], [ -69.3023619, 39.1523306 ], [ -69.3465572, 39.1563318 ], [ -69.4961841, 39.1633159 ], [ -69.5865481, 39.1675338 ], [ -69.6555802, 39.1706836 ], [ -69.6669231, 39.1712012 ], [ -69.6954763, 39.172504 ], [ -69.8846095, 39.1811339 ], [ -70.0135981, 39.1867332 ], [ -70.0428904, 39.1891327 ], [ -70.0716687, 39.1951312 ], [ -70.1003102, 39.2050042 ], [ -70.1122667, 39.2091257 ], [ -70.1528648, 39.220719 ], [ -70.2294357, 39.236307 ], [ -70.3388962, 39.2610807 ], [ -70.3717857, 39.2718664 ], [ -70.3923417, 39.2866442 ], [ -70.3975811, 39.2912962 ], [ -70.4355092, 39.324972 ], [ -70.455513, 39.3430605 ], [ -70.4761072, 39.3616829 ], [ -70.5064273, 39.3696609 ], [ -70.5547338, 39.3832215 ], [ -70.7022228, 39.4218945 ], [ -70.7710852, 39.4378358 ], [ -70.818364, 39.4454066 ], [ -70.8656427, 39.4509846 ], [ -70.935019, 39.4625375 ], [ -70.965853, 39.4657242 ], [ -70.9812699, 39.4637326 ], [ -70.9871238, 39.4624628 ], [ -71.0804524, 39.442219 ], [ -71.1313965, 39.4325839 ], [ -71.143662, 39.4302641 ], [ -71.1662736, 39.4302641 ], [ -71.229997, 39.4390312 ], [ -71.2644283, 39.4414221 ], [ -71.29629, 39.4438128 ], [ -71.3154329, 39.4444249 ], [ -71.3461382, 39.4454066 ], [ -71.382625, 39.4577572 ], [ -71.4098617, 39.4724954 ], [ -71.4278482, 39.4920087 ], [ -71.4349637, 39.5026339 ], [ -71.4925994, 39.5886973 ], [ -71.4952189, 39.5915345 ], [ -71.5030349, 39.6 ] ] } },
{ "type": "Feature", "properties": { "RCID": 591, "PRIM": 2, "GRUP": 2, "OBJL": 22, "RVER": 1, "AGEN": 550, "FIDN": 22737549, "FIDS": 50, "LNAM": "0226015AF28D0032", "SCAMIN": 999999, "SORDAT": "200303", "SORIND": "US,US,graph,Chart 12300" }, "geometry": { "type": "LineString", "coordinates": [ [ -71.3397369, 39.6 ], [ -71.3381814, 39.5972157 ], [ -71.3336277, 39.5775595 ], [ -71.3298331, 39.5623001 ], [ -71.3283152, 39.5446888 ], [ -71.3235803, 39.5025134 ], [ -71.3229523, 39.49692 ], [ -71.3221934, 39.477529 ], [ -71.3221934, 39.4666559 ], [ -71.3218138, 39.4572507 ], [ -71.3187782, 39.4496081 ], [ -71.3154329, 39.4444249 ], [ -71.3130861, 39.4407886 ], [ -71.3016509, 39.4279664 ], [ -71.2921643, 39.4212027 ], [ -71.2709141, 39.410909 ], [ -71.225378, 39.3914938 ], [ -71.1673196, 39.3676586 ], [ -71.0931429, 39.3415647 ], [ -71.0593703, 39.3294922 ], [ -71.0335666, 39.321541 ], [ -71.0164905, 39.3206575 ], [ -70.9978966, 39.3200685 ], [ -70.9588116, 39.3180068 ], [ -70.9190958, 39.3165243 ], [ -70.8948099, 39.3132843 ], [ -70.8709035, 39.3053312 ], [ -70.8458586, 39.296788 ], [ -70.8204344, 39.280877 ], [ -70.7832466, 39.2534664 ], [ -70.7723836, 39.246052 ], [ -70.7406595, 39.224399 ], [ -70.7159942, 39.2025715 ], [ -70.6977798, 39.1848685 ], [ -70.6706211, 39.1581253 ], [ -70.6621099, 39.1497443 ], [ -70.6467994, 39.1329934 ], [ -70.6381797, 39.1259049 ], [ -70.6266876, 39.1164543 ], [ -70.61075, 39.10582 ], [ -70.5838078, 39.0892744 ], [ -70.5469995, 39.0668134 ], [ -70.5219547, 39.0552846 ], [ -70.4951995, 39.0463159 ], [ -70.4893205, 39.0443452 ], [ -70.481274, 39.0414667 ], [ -70.4367202, 39.0255282 ], [ -70.3737287, 39.0074845 ], [ -70.3365409, 38.9986088 ], [ -70.3184441, 38.9956971 ], [ -70.3126346, 38.9947624 ], [ -70.2773441, 38.9938747 ], [ -70.1886992, 38.986437 ], [ -70.1755944, 38.98505 ], [ -70.1355739, 38.9808143 ], [ -70.0718234, 38.975191 ], [ -69.9019871, 38.9612512 ], [ -69.2666667, 38.9075141 ] ] } },
{ "type": "Feature", "properties": { "RCID": 592, "PRIM": 2, "GRUP": 2, "OBJL": 22, "RVER": 1, "AGEN": 550, "FIDN": -1801452401, "FIDS": 48294, "LNAM": "022694A0048FBCA6", "SCAMIN": 999999, "SORDAT": "200303", "SORIND": "US,US,graph,Chart 12300" }, "geometry": { "type": "LineString", "coordinates": [ [ -69.2666667, 39.2013821 ], [ -69.3335746, 39.2034557 ], [ -69.4161273, 39.2075015 ], [ -69.4640664, 39.2123056 ], [ -69.5348178, 39.220421 ], [ -69.7015431, 39.2394931 ], [ -69.7491007, 39.2440298 ], [ -69.781057, 39.2479177 ], [ -69.7955141, 39.2531325 ], [ -69.8878831, 39.2966883 ], [ -69.9011692, 39.3029533 ], [ -69.917767, 39.3105125 ], [ -69.9873953, 39.3422238 ], [ -70.0658767, 39.3766672 ], [ -70.172968, 39.4246752 ], [ -70.2628322, 39.4649604 ], [ -70.4540467, 39.5514407 ], [ -70.4852595, 39.5674232 ], [ -70.5546835, 39.6 ] ] } },
{ "type": "Feature", "properties": { "RCID": 593, "PRIM": 2, "GRUP": 2, "OBJL": 22, "RVER": 1, "AGEN": 550, "FIDN": -1266643358, "FIDS": 48294, "LNAM": "0226B4808E62BCA6", "SCAMIN": 999999, "SORDAT": "200303", "SORIND": "US,US,graph,Chart 12300" }, "geometry": { "type": "LineString", "coordinates": [ [ -69.2666667, 39.5152994 ], [ -69.4083949, 39.5056597 ], [ -69.51694, 39.4986883 ], [ -69.7237198, 39.4870366 ], [ -69.7533034, 39.4843937 ], [ -69.7686641, 39.4870366 ], [ -69.8574151, 39.5178638 ], [ -69.9171512, 39.5381141 ], [ -69.9388168, 39.545665 ], [ -70.0159787, 39.5725574 ], [ -70.0421489, 39.5813557 ], [ -70.0723014, 39.5883935 ], [ -70.1257344, 39.6 ] ] } }
]
}
