{
"type": "FeatureCollection",
"name": "CONZNE",
"crs": { "type": "name", "properties": { "name": "urn:ogc:def:crs:OGC:1.3:CRS84" } },
"features": [
{ "type": "Feature", "properties": { "RCID": 730, "PRIM": 3, "GRUP": 2, "OBJL": 31, "RVER": 1, "AGEN": 550, "FIDN": 1724527771, "FIDS": 20317, "LNAM": "022666CA349B4F5D", "NATION": "US", "INFORM": "For more information about maritime zones, please refer to the Coast Pilot, Chapter 1.", "SCAMIN": 999999, "SORDAT": "20240119", "SORIND": "US,US,reprt,L-30-2024" }, "geometry": { "type": "Polygon", "coordinates": [ [ [ -73.9458375, 39.166667 ], [ -73.940005, 39.1719367 ], [ -73.9342644, 39.1773089 ], [ -73.932972, 39.178562 ], [ -73.9286444, 39.1827579 ], [ -73.9231465, 39.1882823 ], [ -73.9177724, 39.1938802 ], [ -73.9125238, 39.19955 ], [ -73.9074025, 39.2052899 ], [ -73.900832, 39.2129689 ], [ -73.8959693, 39.218844 ], [ -73.8912384, 39.224784 ], [ -73.8866409, 39.2307871 ], [ -73.8821779, 39.2368517 ], [ -73.8778509, 39.2429756 ], [ -73.8712956, 39.2527667 ], [ -73.8684383, 39.2568378 ], [ -73.864248, 39.2630192 ], [ -73.8601961, 39.2692565 ], [ -73.8562843, 39.2755477 ], [ -73.8525136, 39.2818909 ], [ -73.8500739, 39.2861563 ], [ -73.8450487, 39.291995 ], [ -73.8401806, 39.29787 ], [ -73.8333861, 39.3064649 ], [ -73.8275973, 39.3131697 ], [ -73.8198358, 39.3226428 ], [ -73.8155456, 39.3274568 ], [ -73.8105442, 39.3332651 ], [ -73.8056732, 39.3391399 ], [ -73.8008321, 39.3450516 ], [ -73.7920186, 39.3560562 ], [ -73.7875512, 39.361878 ], [ -73.7874123, 39.362059 ], [ -73.7807135, 39.3711594 ], [ -73.776378, 39.377283 ], [ -73.7677247, 39.3897738 ], [ -73.7637138, 39.3950114 ], [ -73.7592401, 39.4010756 ], [ -73.7519267, 39.4114227 ], [ -73.7480376, 39.4171376 ], [ -73.7416889, 39.4262421 ], [ -73.7386035, 39.4302849 ], [ -73.7341275, 39.436349 ], [ -73.7312862, 39.4403297 ], [ -73.7235662, 39.4498944 ], [ -73.7227715, 39.4508789 ], [ -73.7182475, 39.4567944 ], [ -73.7155197, 39.4603613 ], [ -73.7124272, 39.4643469 ], [ -73.6995501, 39.4809431 ], [ -73.6935675, 39.4890385 ], [ -73.6867246, 39.4984745 ], [ -73.682381, 39.504598 ], [ -73.6781754, 39.5107791 ], [ -73.6741088, 39.517016 ], [ -73.6701829, 39.5233068 ], [ -73.66625, 39.5299759 ], [ -73.6645189, 39.5329113 ], [ -73.6575963, 39.5409979 ], [ -73.649867, 39.5505425 ], [ -73.6452474, 39.5565451 ], [ -73.6407631, 39.562609 ], [ -73.6364154, 39.5687323 ], [ -73.6322058, 39.5749134 ], [ -73.6281355, 39.5811502 ], [ -73.6242057, 39.5874408 ], [ -73.6204178, 39.5937835 ], [ -73.6168732, 39.6 ], [ -73.6415949, 39.6 ], [ -73.6443661, 39.6 ], [ -73.66625, 39.6 ], [ -73.7027452, 39.6 ], [ -73.7303991, 39.6 ], [ -73.7330801, 39.6 ], [ -73.8171214, 39.6 ], [ -73.8567902, 39.6 ], [ -73.9097207, 39.6 ], [ -73.9102214, 39.5992446 ], [ -73.9191987, 39.5867426 ], [ -73.9252294, 39.5786692 ], [ -73.9310413, 39.5712399 ], [ -73.9344527, 39.5667388 ], [ -73.9373958, 39.5630592 ], [ -73.9437608, 39.5546077 ], [ -73.9483129, 39.5489454 ], [ -73.9543788, 39.5416685 ], [ -73.9574262, 39.5371189 ], [ -73.9595891, 39.5340529 ], [ -73.9618205, 39.5310166 ], [ -73.9663534, 39.5252005 ], [ -73.9733295, 39.5150262 ], [ -73.9760496, 39.511189 ], [ -73.9794645, 39.5060687 ], [ -73.9845885, 39.4987792 ], [ -73.986819, 39.4957428 ], [ -73.9906483, 39.4907982 ], [ -73.9934248, 39.4870644 ], [ -73.9934729, 39.4869998 ], [ -73.9971496, 39.4815568 ], [ -74.0000057, 39.477531 ], [ -74.0038053, 39.4719288 ], [ -74.005966, 39.4688627 ], [ -74.0104128, 39.4627902 ], [ -74.0127098, 39.4597845 ], [ -74.0191319, 39.4517455 ], [ -74.0263849, 39.4428918 ], [ -74.0314415, 39.4371085 ], [ -74.0355546, 39.4327042 ], [ -74.0385838, 39.4287127 ], [ -74.0433765, 39.4227964 ], [ -74.0458717, 39.4198876 ], [ -74.050926, 39.4143114 ], [ -74.055972, 39.4075379 ], [ -74.060763, 39.4016216 ], [ -74.0658166, 39.3958383 ], [ -74.0684399, 39.3929988 ], [ -74.074467, 39.3868457 ], [ -74.0770568, 39.3822074 ], [ -74.0788588, 39.3791597 ], [ -74.0789342, 39.3790321 ], [ -74.0819203, 39.374261 ], [ -74.0840247, 39.3703257 ], [ -74.0875461, 39.3640248 ], [ -74.091371, 39.3577 ], [ -74.0954773, 39.3514825 ], [ -74.0993709, 39.3460366 ], [ -74.1027576, 39.3407151 ], [ -74.1070019, 39.3345541 ], [ -74.1115195, 39.3285117 ], [ -74.1138793, 39.3255373 ], [ -74.1178774, 39.3207247 ], [ -74.1229251, 39.3149414 ], [ -74.1282287, 39.3092982 ], [ -74.1309743, 39.3065312 ], [ -74.1366495, 39.301111 ], [ -74.1395773, 39.2984593 ], [ -74.1456087, 39.2932768 ], [ -74.1487103, 39.2907474 ], [ -74.153267, 39.287186 ], [ -74.1587724, 39.2821188 ], [ -74.1617583, 39.279507 ], [ -74.1671497, 39.2750134 ], [ -74.1702475, 39.2721014 ], [ -74.1761594, 39.2668379 ], [ -74.1823032, 39.2617377 ], [ -74.1854595, 39.2592508 ], [ -74.1916248, 39.2546328 ], [ -74.1964979, 39.2490513 ], [ -74.1991157, 39.2462116 ], [ -74.2045396, 39.2406409 ], [ -74.2102096, 39.2352206 ], [ -74.2161182, 39.2299572 ], [ -74.2222587, 39.2248569 ], [ -74.2254135, 39.2223701 ], [ -74.2318875, 39.2175262 ], [ -74.238574, 39.2128607 ], [ -74.2509481, 39.2048256 ], [ -74.2580344, 39.2005334 ], [ -74.2616486, 39.1984599 ], [ -74.2723961, 39.1926079 ], [ -74.2791422, 39.1891398 ], [ -74.2867635, 39.1854461 ], [ -74.2945451, 39.1819609 ], [ -74.3024774, 39.1786889 ], [ -74.3064972, 39.177134 ], [ -74.3146378, 39.1741885 ], [ -74.3187561, 39.172799 ], [ -74.3256373, 39.1706142 ], [ -74.3356275, 39.1672898 ], [ -74.3376939, 39.166667 ], [ -74.3376481, 39.166667 ], [ -74.3095638, 39.166667 ], [ -74.3090885, 39.166667 ], [ -74.2884901, 39.166667 ], [ -74.2794536, 39.166667 ], [ -74.2775366, 39.166667 ], [ -74.2771534, 39.166667 ], [ -74.2312312, 39.166667 ], [ -74.1338429, 39.166667 ], [ -74.127871, 39.166667 ], [ -74.1270217, 39.166667 ], [ -74.1265568, 39.166667 ], [ -74.1236349, 39.166667 ], [ -74.0963664, 39.166667 ], [ -73.9963723, 39.166667 ], [ -73.994165, 39.166667 ], [ -73.9458375, 39.166667 ] ] ] } }
]
}
