{
"type": "FeatureCollection",
"name": "DMPGRD",
"crs": { "type": "name", "properties": { "name": "urn:ogc:def:crs:OGC:1.3:CRS84" } },
"features": [
{ "type": "Feature", "properties": { "RCID": 732, "PRIM": 3, "GRUP": 2, "OBJL": 48, "RVER": 1, "AGEN": 550, "FIDN": 37876667, "FIDS": 50, "LNAM": "02260241F3BB0032", "CATDPG": [ "4" ], "SCAMIN": 699999, "SORDAT": "200303", "SORIND": "US,US,graph,Chart 12300" }, "geometry": { "type": "Polygon", "coordinates": [ [ [ -72.45, 38.7792619 ], [ -72.3871217, 38.7792759 ], [ -72.2839555, 38.779175 ], [ -72.2839456, 38.7831357 ], [ -72.283598, 38.9215509 ], [ -72.2835416, 38.9498014 ], [ -72.3217488, 38.9506426 ], [ -72.4130288, 38.9507416 ], [ -72.45, 38.9507818 ], [ -72.45, 38.9449789 ], [ -72.45, 38.9310332 ], [ -72.45, 38.7792619 ] ] ] } },
{ "type": "Feature", "properties": { "RCID": 733, "PRIM": 3, "GRUP": 2, "OBJL": 48, "RVER": 1, "AGEN": 550, "FIDN": 1178746979, "FIDS": 48294, "LNAM": "022646424063BCA6", "CATDPG": [ "4" ], "SCAMIN": 699999, "SORDAT": "200303", "SORIND": "US,US,graph,Chart 12300" }, "geometry": { "type": "Polygon", "coordinates": [ [ [ -70.8990252, 39.6 ], [ -70.8990252, 39.5505846 ], [ -71.1302402, 39.5505846 ], [ -71.1302402, 39.6 ], [ -70.8990252, 39.6 ] ] ] } },
{ "type": "Feature", "properties": { "RCID": 734, "PRIM": 3, "GRUP": 2, "OBJL": 48, "RVER": 1, "AGEN": 550, "FIDN": 37876661, "FIDS": 50, "LNAM": "02260241F3B50032", "CATDPG": [ "2" ], "STATUS": [ "4" ], "INFORM": "Industrial wastes", "SCAMIN": 699999, "TXTDSC": "US3NY01D.TXT", "SORDAT": "200303", "SORIND": "US,US,graph,Chart 12300" }, "geometry": { "type": "Polygon", "coordinates": [ [ [ -72.3954519, 38.7666666 ], [ -72.395052, 38.767409 ], [ -72.3942567, 38.7692676 ], [ -72.3906069, 38.7753061 ], [ -72.3871217, 38.7792759 ], [ -72.3841495, 38.7826614 ], [ -72.375025, 38.7899062 ], [ -72.3651985, 38.7948453 ], [ -72.354249, 38.7985769 ], [ -72.341615, 38.8006622 ], [ -72.3309463, 38.8008816 ], [ -72.3170488, 38.7990159 ], [ -72.3080647, 38.7967111 ], [ -72.2999228, 38.7935283 ], [ -72.292202, 38.7893574 ], [ -72.2865868, 38.7855155 ], [ -72.2839456, 38.7831357 ], [ -72.2801295, 38.7796975 ], [ -72.274374, 38.7730006 ], [ -72.2710863, 38.7674085 ], [ -72.2709178, 38.7666666 ], [ -72.2710002, 38.7666666 ], [ -72.3954519, 38.7666666 ] ] ] } },
{ "type": "Feature", "properties": { "RCID": 735, "PRIM": 3, "GRUP": 2, "OBJL": 48, "RVER": 1, "AGEN": 550, "FIDN": 37880242, "FIDS": 50, "LNAM": "0226024201B20032", "CATDPG": [ "5" ], "INFORM": "Municipal sludge", "SCAMIN": 699999, "TXTDSC": "US3NY01D.TXT", "SORDAT": "200303", "SORIND": "US,US,graph,Chart 12300" }, "geometry": { "type": "Polygon", "coordinates": [ [ [ -72.0837594, 38.7666666 ], [ -71.9997208, 38.7666666 ], [ -71.9996877, 38.787406 ], [ -71.9994876, 38.9129786 ], [ -71.9993489, 39.0000135 ], [ -72.0842199, 38.999843 ], [ -72.0841171, 38.9471251 ], [ -72.0838958, 38.833657 ], [ -72.0837666, 38.7674078 ], [ -72.0837594, 38.7666666 ] ] ] } },
{ "type": "Feature", "properties": { "RCID": 736, "PRIM": 3, "GRUP": 2, "OBJL": 48, "RVER": 1, "AGEN": 550, "FIDN": 37886013, "FIDS": 50, "LNAM": "02260242183D0032", "CATDPG": [ "4" ], "INFORM": "Danger explosives jettisoned", "SCAMIN": 699999, "SORDAT": "195201", "SORIND": "US,US,graph,Chart 12300" }, "geometry": { "type": "Polygon", "coordinates": [ [ [ -72.79453, 39.166667 ], [ -72.7942978, 39.166667 ], [ -72.7869815, 39.166667 ], [ -72.7733548, 39.166667 ], [ -72.7628912, 39.166667 ], [ -72.7616141, 39.166667 ], [ -72.7532976, 39.166667 ], [ -72.7137096, 39.166667 ], [ -72.7066577, 39.166667 ], [ -72.7059878, 39.166667 ], [ -72.7053189, 39.166667 ], [ -72.706522, 39.1727089 ], [ -72.7092196, 39.1778466 ], [ -72.7104375, 39.179999 ], [ -72.7126386, 39.1838887 ], [ -72.7163684, 39.1884803 ], [ -72.7213416, 39.1921051 ], [ -72.7272471, 39.1954881 ], [ -72.7339111, 39.1980312 ], [ -72.7357946, 39.19875 ], [ -72.742788, 39.2003206 ], [ -72.7511801, 39.2009246 ], [ -72.7555791, 39.2004361 ], [ -72.7598831, 39.1999581 ], [ -72.7669242, 39.1981987 ], [ -72.768586, 39.1977835 ], [ -72.7749577, 39.1953672 ], [ -72.7811931, 39.1910466 ], [ -72.7821066, 39.1904136 ], [ -72.7873961, 39.1847809 ], [ -72.7901934, 39.1809141 ], [ -72.7933016, 39.1735424 ], [ -72.79453, 39.166667 ] ] ] } },
{ "type": "Feature", "properties": { "RCID": 740, "PRIM": 1, "GRUP": 2, "OBJL": 48, "RVER": 1, "AGEN": 550, "FIDN": 37886636, "FIDS": 50, "LNAM": "022602421AAC0032", "CATDPG": [ "4" ], "INFORM": "Unexploded bomb", "SCAMIN": 699999, "SORDAT": "196012", "SORIND": "US,US,graph,Chart 12300" }, "geometry": { "type": "Point", "coordinates": [ -72.867046, 39.1685399 ] } }
]
}
