{
"type": "FeatureCollection",
"name": "DSID",
"features": [
{ "type": "Feature", "properties": { "DSID_EXPP": 1, "DSID_INTU": 3, "DSID_DSNM": "US3NY01M.000", "DSID_EDTN": "62", "DSID_UPDN": "0", "DSID_UADT": "20260507", "DSID_ISDT": "20260507", "DSID_STED": 3.1, "DSID_PRSP": 1, "DSID_PSDN": "", "DSID_PRED": "2.0", "DSID_PROF": 1, "DSID_AGEN": 550, "DSID_COMT": "STED:3.1.3; Produced by NOAA", "DSSI_DSTR": 2, "DSSI_AALL": 1, "DSSI_NALL": 1, "DSSI_NOMR": 16, "DSSI_NOCR": 0, "DSSI_NOGR": 671, "DSSI_NOLR": 0, "DSSI_NOIN": 120, "DSSI_NOCN": 667, "DSSI_NOED": 854, "DSSI_NOFA": 0, "DSPM_HDAT": 2, "DSPM_VDAT": 16, "DSPM_SDAT": 12, "DSPM_CSCL": 350000, "DSPM_DUNI": 1, "DSPM_HUNI": 1, "DSPM_PUNI": 1, "DSPM_COUN": 1, "DSPM_COMF": 10000000, "DSPM_SOMF": 10, "DSPM_COMT": "STED:3.1.3; Produced by NOAA" }, "geometry": null }
]
}
