{
"type": "FeatureCollection",
"name": "EXEZNE",
"crs": { "type": "name", "properties": { "name": "urn:ogc:def:crs:OGC:1.3:CRS84" } },
"features": [
{ "type": "Feature", "properties": { "RCID": 737, "PRIM": 3, "GRUP": 2, "OBJL": 50, "RVER": 1, "AGEN": 550, "FIDN": 119014535, "FIDS": 20317, "LNAM": "0226071804874F5D", "NATION": "US", "INFORM": "For more information about maritime zones, please refer to the Coast Pilot, Chapter 1.", "SCAMIN": 999999, "SORDAT": "20240119", "SORIND": "US,US,reprt,L-30-2024" }, "geometry": { "type": "Polygon", "coordinates": [ [ [ -69.2666667, 39.1438353 ], [ -69.2666667, 39.2013821 ], [ -69.2666667, 39.278969 ], [ -69.2666667, 39.2948834 ], [ -69.2666667, 39.3471644 ], [ -69.2666667, 39.4085757 ], [ -69.2666667, 39.4150329 ], [ -69.2666667, 39.5152994 ], [ -69.2666667, 39.5727118 ], [ -69.2666667, 39.6 ], [ -69.6, 39.6 ], [ -70.1257344, 39.6 ], [ -70.4154338, 39.6 ], [ -70.4452574, 39.6 ], [ -70.5546835, 39.6 ], [ -70.6505717, 39.6 ], [ -70.6699616, 39.6 ], [ -70.8, 39.6 ], [ -70.8990252, 39.6 ], [ -71.1302402, 39.6 ], [ -71.2571819, 39.6 ], [ -71.2791868, 39.6 ], [ -71.2952366, 39.6 ], [ -71.3071999, 39.6 ], [ -71.3397369, 39.6 ], [ -71.3677465, 39.6 ], [ -71.4737244, 39.6 ], [ -71.5030349, 39.6 ], [ -71.5041419, 39.6 ], [ -71.5368458, 39.6 ], [ -71.5481391, 39.6 ], [ -71.562235, 39.6 ], [ -71.6384244, 39.6 ], [ -71.7880389, 39.6 ], [ -71.7942879, 39.6 ], [ -71.815935, 39.6 ], [ -71.8477617, 39.6 ], [ -71.8610652, 39.6 ], [ -71.9487288, 39.6 ], [ -72.0, 39.6 ], [ -72.0300569, 39.6 ], [ -72.0433339, 39.6 ], [ -72.0609235, 39.6 ], [ -72.0660883, 39.6 ], [ -72.0661834, 39.6 ], [ -72.0722999, 39.6 ], [ -72.09824, 39.6 ], [ -72.1171888, 39.6 ], [ -72.1344204, 39.6 ], [ -72.1551736, 39.6 ], [ -72.1710739, 39.6 ], [ -72.1825554, 39.6 ], [ -72.2015027, 39.6 ], [ -72.212864, 39.6 ], [ -72.2364455, 39.6 ], [ -72.2612199, 39.6 ], [ -72.3360309, 39.6 ], [ -72.3740477, 39.6 ], [ -72.3790309, 39.6 ], [ -72.3820011, 39.6 ], [ -72.3846015, 39.6 ], [ -72.3884565, 39.6 ], [ -72.391, 39.6 ], [ -72.4299298, 39.6 ], [ -72.4354695, 39.6 ], [ -72.4393573, 39.6 ], [ -72.4431154, 39.6 ], [ -72.4499779, 39.6 ], [ -72.4525525, 39.6 ], [ -72.462264, 39.6 ], [ -72.5049083, 39.6 ], [ -72.5440811, 39.6 ], [ -72.5510873, 39.6 ], [ -72.5555838, 39.6 ], [ -72.6702299, 39.6 ], [ -72.6857658, 39.6 ], [ -72.8164238, 39.6 ], [ -72.8225194, 39.6 ], [ -72.829597, 39.6 ], [ -72.8611938, 39.6 ], [ -72.890604, 39.6 ], [ -72.9394683, 39.6 ], [ -72.9739713, 39.6 ], [ -73.0426858, 39.6 ], [ -73.0468665, 39.6 ], [ -73.0587482, 39.6 ], [ -73.0657967, 39.6 ], [ -73.0872139, 39.6 ], [ -73.1676093, 39.6 ], [ -73.1944785, 39.6 ], [ -73.2, 39.6 ], [ -73.2290075, 39.6 ], [ -73.2754179, 39.6 ], [ -73.2911705, 39.6 ], [ -73.3196241, 39.6 ], [ -73.3327242, 39.6 ], [ -73.3376811, 39.6 ], [ -73.3463184, 39.6 ], [ -73.399955, 39.6 ], [ -73.4004139, 39.6 ], [ -73.4192209, 39.6 ], [ -73.4785766, 39.6 ], [ -73.4913474, 39.6 ], [ -73.5197398, 39.6 ], [ -73.57561, 39.6 ], [ -73.6168732, 39.6 ], [ -73.6415949, 39.6 ], [ -73.6443661, 39.6 ], [ -73.66625, 39.6 ], [ -73.7027452, 39.6 ], [ -73.7303991, 39.6 ], [ -73.7330801, 39.6 ], [ -73.8171214, 39.6 ], [ -73.8567902, 39.6 ], [ -73.9097207, 39.6 ], [ -73.9102214, 39.5992446 ], [ -73.9191987, 39.5867426 ], [ -73.9252294, 39.5786692 ], [ -73.9310413, 39.5712399 ], [ -73.9344527, 39.5667388 ], [ -73.9373958, 39.5630592 ], [ -73.9437608, 39.5546077 ], [ -73.9483129, 39.5489454 ], [ -73.9543788, 39.5416685 ], [ -73.9574262, 39.5371189 ], [ -73.9595891, 39.5340529 ], [ -73.9618205, 39.5310166 ], [ -73.9663534, 39.5252005 ], [ -73.9733295, 39.5150262 ], [ -73.9760496, 39.511189 ], [ -73.9794645, 39.5060687 ], [ -73.9845885, 39.4987792 ], [ -73.986819, 39.4957428 ], [ -73.9906483, 39.4907982 ], [ -73.9934248, 39.4870644 ], [ -73.9934729, 39.4869998 ], [ -73.9971496, 39.4815568 ], [ -74.0000057, 39.477531 ], [ -74.0038053, 39.4719288 ], [ -74.005966, 39.4688627 ], [ -74.0104128, 39.4627902 ], [ -74.0127098, 39.4597845 ], [ -74.0191319, 39.4517455 ], [ -74.0263849, 39.4428918 ], [ -74.0314415, 39.4371085 ], [ -74.0355546, 39.4327042 ], [ -74.0385838, 39.4287127 ], [ -74.0433765, 39.4227964 ], [ -74.0458717, 39.4198876 ], [ -74.050926, 39.4143114 ], [ -74.055972, 39.4075379 ], [ -74.060763, 39.4016216 ], [ -74.0658166, 39.3958383 ], [ -74.0684399, 39.3929988 ], [ -74.074467, 39.3868457 ], [ -74.0770568, 39.3822074 ], [ -74.0788588, 39.3791597 ], [ -74.0789342, 39.3790321 ], [ -74.0819203, 39.374261 ], [ -74.0840247, 39.3703257 ], [ -74.0875461, 39.3640248 ], [ -74.091371, 39.3577 ], [ -74.0954773, 39.3514825 ], [ -74.0993709, 39.3460366 ], [ -74.1027576, 39.3407151 ], [ -74.1070019, 39.3345541 ], [ -74.1115195, 39.3285117 ], [ -74.1138793, 39.3255373 ], [ -74.1178774, 39.3207247 ], [ -74.1229251, 39.3149414 ], [ -74.1282287, 39.3092982 ], [ -74.1309743, 39.3065312 ], [ -74.1366495, 39.301111 ], [ -74.1395773, 39.2984593 ], [ -74.1456087, 39.2932768 ], [ -74.1487103, 39.2907474 ], [ -74.153267, 39.287186 ], [ -74.1587724, 39.2821188 ], [ -74.1617583, 39.279507 ], [ -74.1671497, 39.2750134 ], [ -74.1702475, 39.2721014 ], [ -74.1761594, 39.2668379 ], [ -74.1823032, 39.2617377 ], [ -74.1854595, 39.2592508 ], [ -74.1916248, 39.2546328 ], [ -74.1964979, 39.2490513 ], [ -74.1991157, 39.2462116 ], [ -74.2045396, 39.2406409 ], [ -74.2102096, 39.2352206 ], [ -74.2161182, 39.2299572 ], [ -74.2222587, 39.2248569 ], [ -74.2254135, 39.2223701 ], [ -74.2318875, 39.2175262 ], [ -74.238574, 39.2128607 ], [ -74.2509481, 39.2048256 ], [ -74.2580344, 39.2005334 ], [ -74.2616486, 39.1984599 ], [ -74.2723961, 39.1926079 ], [ -74.2791422, 39.1891398 ], [ -74.2867635, 39.1854461 ], [ -74.2945451, 39.1819609 ], [ -74.3024774, 39.1786889 ], [ -74.3064972, 39.177134 ], [ -74.3146378, 39.1741885 ], [ -74.3187561, 39.172799 ], [ -74.3256373, 39.1706142 ], [ -74.3356275, 39.1672898 ], [ -74.3376939, 39.166667 ], [ -74.3376481, 39.166667 ], [ -74.3095638, 39.166667 ], [ -74.3090885, 39.166667 ], [ -74.2884901, 39.166667 ], [ -74.2794536, 39.166667 ], [ -74.2775366, 39.166667 ], [ -74.2771534, 39.166667 ], [ -74.2312312, 39.166667 ], [ -74.1338429, 39.166667 ], [ -74.127871, 39.166667 ], [ -74.1270217, 39.166667 ], [ -74.1265568, 39.166667 ], [ -74.1236349, 39.166667 ], [ -74.0963664, 39.166667 ], [ -73.9963723, 39.166667 ], [ -73.994165, 39.166667 ], [ -73.9458375, 39.166667 ], [ -73.9329737, 39.166667 ], [ -73.9243886, 39.166667 ], [ -73.8624036, 39.166667 ], [ -73.8176724, 39.166667 ], [ -73.7677855, 39.166667 ], [ -73.7630581, 39.166667 ], [ -73.759203, 39.166667 ], [ -73.7234952, 39.166667 ], [ -73.7044831, 39.166667 ], [ -73.7015006, 39.166667 ], [ -73.696332, 39.166667 ], [ -73.6956418, 39.166667 ], [ -73.6426847, 39.166667 ], [ -73.5725802, 39.166667 ], [ -73.5525026, 39.166667 ], [ -73.4917298, 39.166667 ], [ -73.488883, 39.166667 ], [ -73.4866552, 39.166667 ], [ -73.3859443, 39.166667 ], [ -73.3825767, 39.166667 ], [ -73.2997932, 39.166667 ], [ -73.2984953, 39.166667 ], [ -73.2972158, 39.166667 ], [ -73.252992, 39.166667 ], [ -73.2182932, 39.166667 ], [ -73.2159843, 39.166667 ], [ -73.1678802, 39.166667 ], [ -73.1651732, 39.166667 ], [ -73.1573726, 39.166667 ], [ -73.1004125, 39.166667 ], [ -73.0830458, 39.166667 ], [ -73.0740901, 39.166667 ], [ -73.044969, 39.166667 ], [ -72.9780878, 39.166667 ], [ -72.9774034, 39.166667 ], [ -72.9513807, 39.166667 ], [ -72.8940338, 39.166667 ], [ -72.8058552, 39.166667 ], [ -72.8055189, 39.166667 ], [ -72.79453, 39.166667 ], [ -72.7942978, 39.166667 ], [ -72.7869815, 39.166667 ], [ -72.7733548, 39.166667 ], [ -72.7628912, 39.166667 ], [ -72.7616141, 39.166667 ], [ -72.7532976, 39.166667 ], [ -72.7137096, 39.166667 ], [ -72.7066577, 39.166667 ], [ -72.7059878, 39.166667 ], [ -72.7053189, 39.166667 ], [ -72.701428, 39.166667 ], [ -72.691066, 39.166667 ], [ -72.684838, 39.166667 ], [ -72.6690453, 39.166667 ], [ -72.6127771, 39.166667 ], [ -72.6084534, 39.166667 ], [ -72.6064097, 39.166667 ], [ -72.6052821, 39.166667 ], [ -72.6013753, 39.166667 ], [ -72.5984941, 39.166667 ], [ -72.5984156, 39.166667 ], [ -72.5861808, 39.166667 ], [ -72.5527808, 39.166667 ], [ -72.5037234, 39.166667 ], [ -72.5007685, 39.166667 ], [ -72.4978135, 39.166667 ], [ -72.4937296, 39.166667 ], [ -72.4929781, 39.166667 ], [ -72.4871316, 39.166667 ], [ -72.4832228, 39.166667 ], [ -72.4793139, 39.166667 ], [ -72.45, 39.166667 ], [ -72.45, 39.1493749 ], [ -72.45, 39.1466435 ], [ -72.45, 39.1439121 ], [ -72.45, 39.1005323 ], [ -72.45, 39.09618 ], [ -72.45, 39.0909355 ], [ -72.45, 39.0866064 ], [ -72.45, 39.0308395 ], [ -72.45, 39.0234196 ], [ -72.45, 39.0110958 ], [ -72.45, 38.9507818 ], [ -72.45, 38.9449789 ], [ -72.45, 38.9310332 ], [ -72.45, 38.7792619 ], [ -72.45, 38.7666666 ], [ -72.3954519, 38.7666666 ], [ -72.2710002, 38.7666666 ], [ -72.2709178, 38.7666666 ], [ -72.1064885, 38.7666666 ], [ -72.0837594, 38.7666666 ], [ -71.9997208, 38.7666666 ], [ -71.9670525, 38.7666666 ], [ -71.3169836, 38.7666666 ], [ -71.2447887, 38.7666666 ], [ -70.8513712, 38.7666666 ], [ -70.8380685, 38.7666666 ], [ -70.7730588, 38.7666666 ], [ -70.6896046, 38.7666666 ], [ -70.6159237, 38.7666666 ], [ -70.6134294, 38.7666666 ], [ -70.3398953, 38.7666666 ], [ -70.1236129, 38.7666666 ], [ -70.098702, 38.7666666 ], [ -70.0119938, 38.7666666 ], [ -69.2666667, 38.7666666 ], [ -69.2666667, 38.8495564 ], [ -69.2666667, 38.9075141 ], [ -69.2666667, 38.9183308 ], [ -69.2666667, 38.9761331 ], [ -69.2666667, 39.0323073 ], [ -69.2666667, 39.0855118 ], [ -69.2666667, 39.1045834 ], [ -69.2666667, 39.136663 ], [ -69.2666667, 39.1438353 ] ] ] } }
]
}
