{
"type": "FeatureCollection",
"name": "LIGHTS",
"crs": { "type": "name", "properties": { "name": "urn:ogc:def:crs:OGC:1.3:CRS84" } },
"features": [
{ "type": "Feature", "properties": { "RCID": 4, "PRIM": 1, "GRUP": 2, "OBJL": 75, "RVER": 1, "AGEN": 550, "FIDN": 114433692, "FIDS": 8194, "LNAM": "022606D21E9C2002", "CATLIT": [ ], "COLOUR": [ "3" ], "EXCLIT": 4, "LITCHR": 4, "SIGGRP": "(1)", "SIGPER": 1.0, "SIGSEQ": "00.3+(00.7)", "SCAMIN": 999999, "SORDAT": "200506", "SORIND": "US,US,graph,Chart 12318" }, "geometry": { "type": "Point", "coordinates": [ -74.2287333, 39.4114189 ] } },
{ "type": "Feature", "properties": { "RCID": 5, "PRIM": 1, "GRUP": 2, "OBJL": 75, "RVER": 1, "AGEN": 550, "FIDN": 37886205, "FIDS": 50, "LNAM": "0226024218FD0032", "CATLIT": [ ], "COLOUR": [ "6" ], "EXCLIT": 4, "LITCHR": 2, "SIGGRP": "(4)", "SIGPER": 20.0, "SIGSEQ": "01.0+(01.0)+01.0+(01.0)+01.0+(01.0)+01.0+(13.0)", "SCAMIN": 999999, "SORDAT": "20241029", "SORIND": "US,US,reprt,5thCGD,LNM 44/24" }, "geometry": { "type": "Point", "coordinates": [ -70.7169444, 39.3144444 ] } },
{ "type": "Feature", "properties": { "RCID": 6, "PRIM": 1, "GRUP": 2, "OBJL": 75, "RVER": 1, "AGEN": 550, "FIDN": 37005496, "FIDS": 50, "LNAM": "02260234A8B80032", "CATLIT": [ ], "COLOUR": [ "4" ], "EXCLIT": 4, "LITCHR": 2, "SIGGRP": "(1)", "SIGPER": 4.0, "SIGSEQ": "00.4+(03.6)", "SCAMIN": 999999, "SORDAT": "20070724", "SORIND": "US,US,reprt,5thCGD,LNM 37/07" }, "geometry": { "type": "Point", "coordinates": [ -74.4003714, 39.3464981 ] } }
]
}
