{
"type": "FeatureCollection",
"name": "LNDRGN",
"crs": { "type": "name", "properties": { "name": "urn:ogc:def:crs:OGC:1.3:CRS84" } },
"features": [
{ "type": "Feature", "properties": { "RCID": 409, "PRIM": 3, "GRUP": 2, "OBJL": 73, "RVER": 1, "AGEN": 550, "FIDN": 1702807105, "FIDS": 48294, "LNAM": "0226657EC641BCA6", "OBJNAM": "Long Beach", "SCAMIN": 499999, "SORDAT": "200303", "SORIND": "US,US,graph,Chart 12300" }, "geometry": { "type": "Polygon", "coordinates": [ [ [ -74.2956762, 39.5014558 ], [ -74.2929346, 39.5039397 ], [ -74.287487, 39.509197 ], [ -74.2811646, 39.5156661 ], [ -74.2780507, 39.518603 ], [ -74.2757898, 39.5211001 ], [ -74.2710696, 39.5261689 ], [ -74.2685569, 39.5286441 ], [ -74.2658509, 39.5304018 ], [ -74.2642683, 39.5308702 ], [ -74.262867, 39.5308536 ], [ -74.2612448, 39.5320224 ], [ -74.2607328, 39.5323913 ], [ -74.2598081, 39.5339899 ], [ -74.2574047, 39.5379346 ], [ -74.2540401, 39.5423343 ], [ -74.2500701, 39.5469819 ], [ -74.2492195, 39.5477208 ], [ -74.2482879, 39.5485299 ], [ -74.2475757, 39.5491485 ], [ -74.2469674, 39.5496769 ], [ -74.2433383, 39.552287 ], [ -74.2407332, 39.555186 ], [ -74.2385166, 39.5575273 ], [ -74.2341604, 39.5629336 ], [ -74.2317314, 39.5663822 ], [ -74.2315333, 39.5666635 ], [ -74.2313962, 39.5668582 ], [ -74.2311121, 39.5672616 ], [ -74.2306992, 39.5678478 ], [ -74.2306355, 39.5679382 ], [ -74.2288197, 39.5707782 ], [ -74.2255618, 39.5756858 ], [ -74.2236569, 39.5784978 ], [ -74.2221437, 39.5808273 ], [ -74.2207093, 39.5828279 ], [ -74.2192444, 39.5850805 ], [ -74.2174438, 39.587396 ], [ -74.2164774, 39.5889475 ], [ -74.2149413, 39.5912707 ], [ -74.2131741, 39.5936355 ], [ -74.2105088, 39.5967697 ], [ -74.2080106, 39.6 ], [ -74.2143676, 39.6 ], [ -74.2153953, 39.5990785 ], [ -74.2170886, 39.5963986 ], [ -74.2178143, 39.5950898 ], [ -74.2188625, 39.5937808 ], [ -74.220072, 39.5929083 ], [ -74.2212009, 39.5911007 ], [ -74.2216847, 39.5900411 ], [ -74.2225718, 39.5891685 ], [ -74.2238617, 39.5884828 ], [ -74.2261195, 39.5872984 ], [ -74.2271679, 39.5863011 ], [ -74.2275709, 39.5850544 ], [ -74.2277323, 39.5824363 ], [ -74.2279775, 39.580916 ], [ -74.2295069, 39.5793038 ], [ -74.2323016, 39.5773777 ], [ -74.2337381, 39.5763387 ], [ -74.2353139, 39.5750846 ], [ -74.2361944, 39.5740814 ], [ -74.2363333, 39.5735797 ], [ -74.2362869, 39.5717164 ], [ -74.2363795, 39.5708923 ], [ -74.2366578, 39.5703906 ], [ -74.2373528, 39.5698889 ], [ -74.2382334, 39.5694948 ], [ -74.2386504, 39.5691723 ], [ -74.2388358, 39.5688497 ], [ -74.2388358, 39.5682764 ], [ -74.2389748, 39.5675956 ], [ -74.2394844, 39.5672013 ], [ -74.2400869, 39.5669864 ], [ -74.2410138, 39.5666997 ], [ -74.2432382, 39.5660546 ], [ -74.2450991, 39.564884 ], [ -74.2456089, 39.5642389 ], [ -74.2457943, 39.5638088 ], [ -74.245748, 39.5630563 ], [ -74.2456552, 39.5617303 ], [ -74.24547, 39.5606551 ], [ -74.2455626, 39.5597951 ], [ -74.2458406, 39.5591858 ], [ -74.2468601, 39.558254 ], [ -74.2472309, 39.5580748 ], [ -74.2475554, 39.5580748 ], [ -74.2478334, 39.558254 ], [ -74.2481576, 39.5593291 ], [ -74.2484358, 39.5596875 ], [ -74.2488529, 39.5599025 ], [ -74.2495016, 39.5599384 ], [ -74.249965, 39.5599025 ], [ -74.2507528, 39.5595083 ], [ -74.2511235, 39.5595083 ], [ -74.2513089, 39.5596875 ], [ -74.2512163, 39.5599384 ], [ -74.2509845, 39.560476 ], [ -74.2507065, 39.5609419 ], [ -74.2499186, 39.5619453 ], [ -74.2492235, 39.5631638 ], [ -74.2491771, 39.563343 ], [ -74.2492699, 39.563558 ], [ -74.249687, 39.5635938 ], [ -74.249965, 39.563558 ], [ -74.2513553, 39.5622678 ], [ -74.2529773, 39.5601893 ], [ -74.2538114, 39.5587916 ], [ -74.2543674, 39.5570354 ], [ -74.2543674, 39.5548492 ], [ -74.254182, 39.554204 ], [ -74.2537649, 39.5536305 ], [ -74.2531163, 39.553308 ], [ -74.25256, 39.5531646 ], [ -74.252143, 39.5529854 ], [ -74.2518649, 39.5527345 ], [ -74.2517723, 39.5525911 ], [ -74.2517723, 39.5523044 ], [ -74.252004, 39.5518026 ], [ -74.2530235, 39.5513724 ], [ -74.2536723, 39.551265 ], [ -74.254043, 39.551265 ], [ -74.2549698, 39.5515159 ], [ -74.2563138, 39.5520176 ], [ -74.2566844, 39.5520176 ], [ -74.2569163, 39.5518743 ], [ -74.2569625, 39.5513724 ], [ -74.2569102, 39.5504052 ], [ -74.2568465, 39.549893 ], [ -74.2565431, 39.5463712 ], [ -74.2566105, 39.5457189 ], [ -74.2567978, 39.5449523 ], [ -74.2573189, 39.5444667 ], [ -74.2575886, 39.5444145 ], [ -74.2578583, 39.5444927 ], [ -74.2586679, 39.5454059 ], [ -74.2588027, 39.5455363 ], [ -74.2593087, 39.5456146 ], [ -74.2596798, 39.5455363 ], [ -74.2602531, 39.545119 ], [ -74.2613999, 39.54371 ], [ -74.2618294, 39.5425864 ], [ -74.2625332, 39.5404065 ], [ -74.2626474, 39.5393443 ], [ -74.2636643, 39.5372444 ], [ -74.2662352, 39.5346847 ], [ -74.2679561, 39.5335186 ], [ -74.2699075, 39.5317496 ], [ -74.2706296, 39.5307498 ], [ -74.2713956, 39.5297499 ], [ -74.2724898, 39.5285467 ], [ -74.2734308, 39.5282077 ], [ -74.2744156, 39.5282416 ], [ -74.2754879, 39.5280891 ], [ -74.2761007, 39.5273265 ], [ -74.2770708, 39.5262436 ], [ -74.2774128, 39.5257238 ], [ -74.2776661, 39.5250372 ], [ -74.2779087, 39.5238706 ], [ -74.2782369, 39.5227689 ], [ -74.2789299, 39.5214272 ], [ -74.2795318, 39.5214695 ], [ -74.2803524, 39.5218226 ], [ -74.2812825, 39.5218085 ], [ -74.2819755, 39.5212859 ], [ -74.2831244, 39.5198029 ], [ -74.2845834, 39.5176842 ], [ -74.2859694, 39.5162999 ], [ -74.2875377, 39.5162293 ], [ -74.2882672, 39.5158056 ], [ -74.2889967, 39.5149439 ], [ -74.2905468, 39.5120623 ], [ -74.2926623, 39.509124 ], [ -74.2937018, 39.5087143 ], [ -74.2944677, 39.5087991 ], [ -74.2951425, 39.5092935 ], [ -74.2958902, 39.5095761 ], [ -74.2964738, 39.5092653 ], [ -74.2968932, 39.5086578 ], [ -74.2975315, 39.5071886 ], [ -74.2983157, 39.5069202 ], [ -74.2988446, 39.5069767 ], [ -74.299574, 39.5073299 ], [ -74.3003777, 39.5074442 ], [ -74.3013594, 39.5071381 ], [ -74.3029715, 39.5056173 ], [ -74.3031025, 39.505568 ], [ -74.3032819, 39.5055097 ], [ -74.304729, 39.5051442 ], [ -74.3055388, 39.5046297 ], [ -74.3070343, 39.5032636 ], [ -74.307782, 39.501787 ], [ -74.3069096, 39.500614 ], [ -74.3046487, 39.4999102 ], [ -74.2990943, 39.5005726 ], [ -74.2956762, 39.5014558 ] ] ] } }
]
}
