{
"type": "FeatureCollection",
"name": "MAGVAR",
"crs": { "type": "name", "properties": { "name": "urn:ogc:def:crs:OGC:1.3:CRS84" } },
"features": [
{ "type": "Feature", "properties": { "RCID": 814, "PRIM": 3, "GRUP": 2, "OBJL": 81, "RVER": 1, "AGEN": 550, "FIDN": 586880207, "FIDS": 8650, "LNAM": "022622FB14CF21CA", "RYRMGV": "2021", "VALACM": 3.0, "VALMAG": -14.0, "SCAMIN": 499999, "SORDAT": "2021", "SORIND": "US,US,reprt,L-146-2021" }, "geometry": { "type": "Polygon", "coordinates": [ [ [ -70.3398953, 38.7666666 ], [ -70.1236129, 38.7666666 ], [ -70.098702, 38.7666666 ], [ -70.0119938, 38.7666666 ], [ -70.0192055, 38.7807945 ], [ -70.0290498, 38.8 ], [ -70.0807267, 38.9 ], [ -70.1, 38.9370969 ], [ -70.1213695, 38.9786305 ], [ -70.1324096, 39.0 ], [ -70.1554745, 39.0445255 ], [ -70.1672412, 39.0672412 ], [ -70.1842104, 39.1 ], [ -70.2, 39.1301595 ], [ -70.2881864, 39.3 ], [ -70.3, 39.3225135 ], [ -70.326547, 39.373453 ], [ -70.3404372, 39.4 ], [ -70.3609668, 39.4390332 ], [ -70.3851014, 39.4851014 ], [ -70.3929162, 39.5 ], [ -70.3953576, 39.5046424 ], [ -70.4, 39.5134704 ], [ -70.4296887, 39.5703113 ], [ -70.4452574, 39.6 ], [ -70.5546835, 39.6 ], [ -70.6505717, 39.6 ], [ -70.6699616, 39.6 ], [ -70.8, 39.6 ], [ -70.8990252, 39.6 ], [ -71.1302402, 39.6 ], [ -71.2571819, 39.6 ], [ -71.2791868, 39.6 ], [ -71.2371284, 39.5628716 ], [ -71.2, 39.5300212 ], [ -71.1840539, 39.5159461 ], [ -71.1659472, 39.5 ], [ -71.1309162, 39.4690838 ], [ -71.1, 39.4417374 ], [ -71.0778527, 39.4221473 ], [ -71.0527578, 39.4 ], [ -71.0247609, 39.3752391 ], [ -71.0, 39.3532908 ], [ -70.939808, 39.3 ], [ -70.9186936, 39.2813064 ], [ -70.8656532, 39.2343468 ], [ -70.8268585, 39.2 ], [ -70.8, 39.1761195 ], [ -70.7596837, 39.1403163 ], [ -70.7141825, 39.1 ], [ -70.6016827, 39.0 ], [ -70.5, 38.9094219 ], [ -70.4893976, 38.9 ], [ -70.4421352, 38.8578648 ], [ -70.4, 38.8202148 ], [ -70.3893122, 38.8106878 ], [ -70.3772949, 38.8 ], [ -70.3398953, 38.7666666 ] ] ] } },
{ "type": "Feature", "properties": { "RCID": 815, "PRIM": 3, "GRUP": 2, "OBJL": 81, "RVER": 1, "AGEN": 550, "FIDN": 801203828, "FIDS": 8650, "LNAM": "02262FC1667421CA", "RYRMGV": "2021", "VALACM": 2.0, "VALMAG": -13.0, "SCAMIN": 499999, "SORDAT": "2021", "SORIND": "US,US,reprt,L-146-2021" }, "geometry": { "type": "Polygon", "coordinates": [ [ [ -74.4, 40.4873365 ], [ -74.4, 40.490258 ], [ -74.4, 40.8 ], [ -74.4, 41.5833334 ], [ -74.7, 41.5833334 ], [ -74.7, 40.5465839 ], [ -74.6476743, 40.5 ], [ -74.6225151, 40.477485 ], [ -74.6, 40.4573806 ], [ -74.5696869, 40.4303131 ], [ -74.5356644, 40.4 ], [ -74.5, 40.3681249 ], [ -74.4640462, 40.3359538 ], [ -74.4237763, 40.3 ], [ -74.4112397, 40.2887603 ], [ -74.4, 40.2787056 ], [ -74.4, 40.4873365 ] ] ] } },
{ "type": "Feature", "properties": { "RCID": 816, "PRIM": 3, "GRUP": 2, "OBJL": 81, "RVER": 1, "AGEN": 550, "FIDN": 801203828, "FIDS": 65533, "LNAM": "02262FC16674FFFD", "RYRMGV": "2021", "VALACM": 2.0, "VALMAG": -13.0, "SCAMIN": 499999, "SORDAT": "2021", "SORIND": "US,US,reprt,L-146-2021" }, "geometry": { "type": "Polygon", "coordinates": [ [ [ -73.1651732, 39.166667 ], [ -73.1573726, 39.166667 ], [ -73.1004125, 39.166667 ], [ -73.0830458, 39.166667 ], [ -73.0740901, 39.166667 ], [ -73.044969, 39.166667 ], [ -72.9780878, 39.166667 ], [ -72.9774034, 39.166667 ], [ -72.9513807, 39.166667 ], [ -72.8940338, 39.166667 ], [ -72.8058552, 39.166667 ], [ -72.8055189, 39.166667 ], [ -72.79453, 39.166667 ], [ -72.7942978, 39.166667 ], [ -72.7869815, 39.166667 ], [ -72.7733548, 39.166667 ], [ -72.7628912, 39.166667 ], [ -72.7616141, 39.166667 ], [ -72.7532976, 39.166667 ], [ -72.7137096, 39.166667 ], [ -72.7066577, 39.166667 ], [ -72.7059878, 39.166667 ], [ -72.7053189, 39.166667 ], [ -72.701428, 39.166667 ], [ -72.7110322, 39.1889678 ], [ -72.7158013, 39.2 ], [ -72.7593688, 39.3 ], [ -72.8, 39.3927834 ], [ -72.8021841, 39.3978159 ], [ -72.803132, 39.4 ], [ -72.846756, 39.5 ], [ -72.890604, 39.6 ], [ -72.9394683, 39.6 ], [ -72.9739713, 39.6 ], [ -73.0426858, 39.6 ], [ -73.0468665, 39.6 ], [ -73.0587482, 39.6 ], [ -73.0657967, 39.6 ], [ -73.0872139, 39.6 ], [ -73.1676093, 39.6 ], [ -73.1944785, 39.6 ], [ -73.2, 39.6 ], [ -73.2290075, 39.6 ], [ -73.2754179, 39.6 ], [ -73.2911705, 39.6 ], [ -73.3196241, 39.6 ], [ -73.3327242, 39.6 ], [ -73.3376811, 39.6 ], [ -73.3463184, 39.6 ], [ -73.399955, 39.6 ], [ -73.4004139, 39.6 ], [ -73.4192209, 39.6 ], [ -73.4785766, 39.6 ], [ -73.4913474, 39.6 ], [ -73.5197398, 39.6 ], [ -73.57561, 39.6 ], [ -73.6168732, 39.6 ], [ -73.6415949, 39.6 ], [ -73.6443661, 39.6 ], [ -73.6, 39.5598727 ], [ -73.5685443, 39.5314557 ], [ -73.5336472, 39.5 ], [ -73.5159599, 39.4840401 ], [ -73.5, 39.4696389 ], [ -73.4633929, 39.4366071 ], [ -73.4228237, 39.4 ], [ -73.4, 39.3793176 ], [ -73.358366, 39.341634 ], [ -73.312264, 39.3 ], [ -73.3058295, 39.2941705 ], [ -73.3, 39.2888891 ], [ -73.2533893, 39.2466107 ], [ -73.2018866, 39.2 ], [ -73.2008978, 39.1991023 ], [ -73.2, 39.1982872 ], [ -73.181397, 39.181397 ], [ -73.1651732, 39.166667 ] ] ] } },
{ "type": "Feature", "properties": { "RCID": 817, "PRIM": 3, "GRUP": 2, "OBJL": 81, "RVER": 1, "AGEN": 550, "FIDN": 860337574, "FIDS": 8650, "LNAM": "02263347B5A621CA", "RYRMGV": "2021", "VALACM": 3.0, "VALMAG": -15.0, "SCAMIN": 499999, "SORDAT": "2021", "SORIND": "US,US,reprt,L-146-2021" }, "geometry": { "type": "Polygon", "coordinates": [ [ [ -70.0119938, 38.7666666 ], [ -69.2666667, 38.7666666 ], [ -69.2666667, 38.8495564 ], [ -69.2666667, 38.9075141 ], [ -69.2666667, 38.9183308 ], [ -69.2666667, 38.9761331 ], [ -69.2666667, 39.0323073 ], [ -69.2666667, 39.0855118 ], [ -69.2666667, 39.1045834 ], [ -69.2666667, 39.136663 ], [ -69.2666667, 39.1438353 ], [ -69.2666667, 39.2013821 ], [ -69.2666667, 39.278969 ], [ -69.2666667, 39.2948834 ], [ -69.2666667, 39.3471644 ], [ -69.2666667, 39.4085757 ], [ -69.2666667, 39.4150329 ], [ -69.2666667, 39.5152994 ], [ -69.2666667, 39.5727118 ], [ -69.2666667, 39.6 ], [ -69.6, 39.6 ], [ -70.1257344, 39.6 ], [ -70.4154338, 39.6 ], [ -70.4452574, 39.6 ], [ -70.4296887, 39.5703113 ], [ -70.4, 39.5134704 ], [ -70.3953576, 39.5046424 ], [ -70.3929162, 39.5 ], [ -70.3851014, 39.4851014 ], [ -70.3609668, 39.4390332 ], [ -70.3404372, 39.4 ], [ -70.326547, 39.373453 ], [ -70.3, 39.3225135 ], [ -70.2881864, 39.3 ], [ -70.2, 39.1301595 ], [ -70.1842104, 39.1 ], [ -70.1672412, 39.0672412 ], [ -70.1554745, 39.0445255 ], [ -70.1324096, 39.0 ], [ -70.1213695, 38.9786305 ], [ -70.1, 38.9370969 ], [ -70.0807267, 38.9 ], [ -70.0290498, 38.8 ], [ -70.0192055, 38.7807945 ], [ -70.0119938, 38.7666666 ] ] ] } },
{ "type": "Feature", "properties": { "RCID": 818, "PRIM": 3, "GRUP": 2, "OBJL": 81, "RVER": 1, "AGEN": 550, "FIDN": 743631962, "FIDS": 8650, "LNAM": "02262C52EC5A21CA", "RYRMGV": "2021", "VALACM": 2.0, "VALMAG": -14.0, "SCAMIN": 499999, "SORDAT": "2021", "SORIND": "US,US,reprt,L-146-2021" }, "geometry": { "type": "Polygon", "coordinates": [ [ [ -70.6134294, 38.7666666 ], [ -70.3398953, 38.7666666 ], [ -70.3772949, 38.8 ], [ -70.3893122, 38.8106878 ], [ -70.4, 38.8202148 ], [ -70.4421352, 38.8578648 ], [ -70.4893976, 38.9 ], [ -70.5, 38.9094219 ], [ -70.6016827, 39.0 ], [ -70.7141825, 39.1 ], [ -70.7596837, 39.1403163 ], [ -70.8, 39.1761195 ], [ -70.8268585, 39.2 ], [ -70.8656532, 39.2343468 ], [ -70.9186936, 39.2813064 ], [ -70.939808, 39.3 ], [ -71.0, 39.3532908 ], [ -71.0247609, 39.3752391 ], [ -71.0527578, 39.4 ], [ -71.0778527, 39.4221473 ], [ -71.1, 39.4417374 ], [ -71.1309162, 39.4690838 ], [ -71.1659472, 39.5 ], [ -71.1840539, 39.5159461 ], [ -71.2, 39.5300212 ], [ -71.2371284, 39.5628716 ], [ -71.2791868, 39.6 ], [ -71.2952366, 39.6 ], [ -71.3071999, 39.6 ], [ -71.3397369, 39.6 ], [ -71.3677465, 39.6 ], [ -71.4737244, 39.6 ], [ -71.5030349, 39.6 ], [ -71.5041419, 39.6 ], [ -71.5368458, 39.6 ], [ -71.5481391, 39.6 ], [ -71.562235, 39.6 ], [ -71.6384244, 39.6 ], [ -71.7880389, 39.6 ], [ -71.7942879, 39.6 ], [ -71.815935, 39.6 ], [ -71.8477617, 39.6 ], [ -71.8610652, 39.6 ], [ -71.9487288, 39.6 ], [ -72.0, 39.6 ], [ -72.0300569, 39.6 ], [ -72.0433339, 39.6 ], [ -72.0609235, 39.6 ], [ -72.0660883, 39.6 ], [ -72.0661834, 39.6 ], [ -72.0722999, 39.6 ], [ -72.09824, 39.6 ], [ -72.1171888, 39.6 ], [ -72.1344204, 39.6 ], [ -72.1551736, 39.6 ], [ -72.1710739, 39.6 ], [ -72.1825554, 39.6 ], [ -72.2015027, 39.6 ], [ -72.212864, 39.6 ], [ -72.2364455, 39.6 ], [ -72.2612199, 39.6 ], [ -72.3360309, 39.6 ], [ -72.3740477, 39.6 ], [ -72.3790309, 39.6 ], [ -72.3820011, 39.6 ], [ -72.3846015, 39.6 ], [ -72.3884565, 39.6 ], [ -72.391, 39.6 ], [ -72.4299298, 39.6 ], [ -72.4354695, 39.6 ], [ -72.4393573, 39.6 ], [ -72.4431154, 39.6 ], [ -72.4499779, 39.6 ], [ -72.4525525, 39.6 ], [ -72.462264, 39.6 ], [ -72.5049083, 39.6 ], [ -72.5440811, 39.6 ], [ -72.5510873, 39.6 ], [ -72.5555838, 39.6 ], [ -72.6702299, 39.6 ], [ -72.6857658, 39.6 ], [ -72.8164238, 39.6 ], [ -72.8225194, 39.6 ], [ -72.829597, 39.6 ], [ -72.8611938, 39.6 ], [ -72.890604, 39.6 ], [ -72.846756, 39.5 ], [ -72.803132, 39.4 ], [ -72.8021841, 39.3978159 ], [ -72.8, 39.3927834 ], [ -72.7593688, 39.3 ], [ -72.7158013, 39.2 ], [ -72.7110322, 39.1889678 ], [ -72.701428, 39.166667 ], [ -72.691066, 39.166667 ], [ -72.684838, 39.166667 ], [ -72.6690453, 39.166667 ], [ -72.6127771, 39.166667 ], [ -72.6084534, 39.166667 ], [ -72.6064097, 39.166667 ], [ -72.6052821, 39.166667 ], [ -72.6013753, 39.166667 ], [ -72.5984941, 39.166667 ], [ -72.5984156, 39.166667 ], [ -72.5861808, 39.166667 ], [ -72.5527808, 39.166667 ], [ -72.5037234, 39.166667 ], [ -72.5007685, 39.166667 ], [ -72.4978135, 39.166667 ], [ -72.4937296, 39.166667 ], [ -72.4929781, 39.166667 ], [ -72.4871316, 39.166667 ], [ -72.4832228, 39.166667 ], [ -72.4793139, 39.166667 ], [ -72.45, 39.166667 ], [ -72.45, 39.1493749 ], [ -72.45, 39.1466435 ], [ -72.45, 39.1439121 ], [ -72.45, 39.1005323 ], [ -72.45, 39.09618 ], [ -72.45, 39.0909355 ], [ -72.45, 39.0866064 ], [ -72.45, 39.0308395 ], [ -72.45, 39.0234196 ], [ -72.45, 39.0110958 ], [ -72.45, 38.9507818 ], [ -72.45, 38.9449789 ], [ -72.45, 38.9310332 ], [ -72.45, 38.7792619 ], [ -72.45, 38.7666666 ], [ -72.3954519, 38.7666666 ], [ -72.2710002, 38.7666666 ], [ -72.2709178, 38.7666666 ], [ -72.1064885, 38.7666666 ], [ -72.0837594, 38.7666666 ], [ -71.9997208, 38.7666666 ], [ -71.9670525, 38.7666666 ], [ -71.3169836, 38.7666666 ], [ -71.2447887, 38.7666666 ], [ -70.8513712, 38.7666666 ], [ -70.8380685, 38.7666666 ], [ -70.7730588, 38.7666666 ], [ -70.6896046, 38.7666666 ], [ -70.6159237, 38.7666666 ], [ -70.6134294, 38.7666666 ] ] ] } },
{ "type": "Feature", "properties": { "RCID": 819, "PRIM": 3, "GRUP": 2, "OBJL": 81, "RVER": 1, "AGEN": 550, "FIDN": -1656444478, "FIDS": 22516, "LNAM": "02269D44A9C257F4", "RYRMGV": "2021", "VALACM": 1.0, "VALMAG": -13.0, "SCAMIN": 499999, "SORDAT": "2021", "SORIND": "US,US,reprt,L-146-2021" }, "geometry": { "type": "Polygon", "coordinates": [ [ [ -74.4, 40.2787056 ], [ -74.4, 39.6 ], [ -74.3052366, 39.6 ], [ -74.292848, 39.6 ], [ -74.2889068, 39.6 ], [ -74.2699172, 39.6 ], [ -74.268457, 39.6 ], [ -74.2275555, 39.6 ], [ -74.2248866, 39.6 ], [ -74.2143676, 39.6 ], [ -74.2080106, 39.6 ], [ -74.1351773, 39.6 ], [ -74.1346475, 39.6 ], [ -74.0733642, 39.6 ], [ -74.0452317, 39.6 ], [ -74.035907, 39.6 ], [ -73.9102451, 39.6 ], [ -73.9097207, 39.6 ], [ -73.8567902, 39.6 ], [ -73.8171214, 39.6 ], [ -73.7330801, 39.6 ], [ -73.7303991, 39.6 ], [ -73.7027452, 39.6 ], [ -73.66625, 39.6 ], [ -73.6443661, 39.6 ], [ -73.6, 39.5598727 ], [ -73.5685443, 39.5314557 ], [ -73.5336472, 39.5 ], [ -73.5159599, 39.4840401 ], [ -73.5, 39.4696389 ], [ -73.4633929, 39.4366071 ], [ -73.4228237, 39.4 ], [ -73.4, 39.3793176 ], [ -73.358366, 39.341634 ], [ -73.312264, 39.3 ], [ -73.3058295, 39.2941705 ], [ -73.3, 39.2888891 ], [ -73.2533893, 39.2466107 ], [ -73.2018866, 39.2 ], [ -73.2008978, 39.1991023 ], [ -73.2, 39.1982872 ], [ -73.181397, 39.181397 ], [ -73.1651732, 39.166667 ], [ -73.1678802, 39.166667 ], [ -73.2159843, 39.166667 ], [ -73.2182932, 39.166667 ], [ -73.252992, 39.166667 ], [ -73.2972158, 39.166667 ], [ -73.2984953, 39.166667 ], [ -73.2997932, 39.166667 ], [ -73.3825767, 39.166667 ], [ -73.3859443, 39.166667 ], [ -73.4866552, 39.166667 ], [ -73.488883, 39.166667 ], [ -73.4917298, 39.166667 ], [ -73.5525026, 39.166667 ], [ -73.5725802, 39.166667 ], [ -73.6426847, 39.166667 ], [ -73.6956418, 39.166667 ], [ -73.696332, 39.166667 ], [ -73.7015006, 39.166667 ], [ -73.7044831, 39.166667 ], [ -73.7234952, 39.166667 ], [ -73.759203, 39.166667 ], [ -73.7630581, 39.166667 ], [ -73.7677855, 39.166667 ], [ -73.8176724, 39.166667 ], [ -73.8624036, 39.166667 ], [ -73.9243886, 39.166667 ], [ -73.9329737, 39.166667 ], [ -73.9458375, 39.166667 ], [ -73.994165, 39.166667 ], [ -73.9963723, 39.166667 ], [ -74.0963664, 39.166667 ], [ -74.1236349, 39.166667 ], [ -74.1265568, 39.166667 ], [ -74.1270217, 39.166667 ], [ -74.127871, 39.166667 ], [ -74.1338429, 39.166667 ], [ -74.2312312, 39.166667 ], [ -74.2771534, 39.166667 ], [ -74.2775366, 39.166667 ], [ -74.2794536, 39.166667 ], [ -74.2884901, 39.166667 ], [ -74.3090885, 39.166667 ], [ -74.3095638, 39.166667 ], [ -74.3376481, 39.166667 ], [ -74.3376939, 39.166667 ], [ -74.3389793, 39.166667 ], [ -74.4424416, 39.166667 ], [ -74.4772559, 39.166667 ], [ -74.4954277, 39.166667 ], [ -74.5000144, 39.166667 ], [ -74.5020025, 39.166667 ], [ -74.5183306, 39.166667 ], [ -74.5188813, 39.166667 ], [ -74.5300028, 39.166667 ], [ -74.5307232, 39.166667 ], [ -74.6002002, 39.166667 ], [ -74.6008134, 39.166667 ], [ -74.6800365, 39.166667 ], [ -74.6810347, 39.166667 ], [ -74.6989042, 39.166667 ], [ -74.7, 39.166667 ], [ -74.7, 39.1907784 ], [ -74.7, 40.5465839 ], [ -74.6476743, 40.5 ], [ -74.6225151, 40.477485 ], [ -74.6, 40.4573806 ], [ -74.5696869, 40.4303131 ], [ -74.5356644, 40.4 ], [ -74.5, 40.3681249 ], [ -74.4640462, 40.3359538 ], [ -74.4237763, 40.3 ], [ -74.4112397, 40.2887603 ], [ -74.4, 40.2787056 ] ] ] } }
]
}
