{
"type": "FeatureCollection",
"name": "MIPARE",
"crs": { "type": "name", "properties": { "name": "urn:ogc:def:crs:OGC:1.3:CRS84" } },
"features": [
{ "type": "Feature", "properties": { "RCID": 317, "PRIM": 3, "GRUP": 2, "OBJL": 83, "RVER": 1, "AGEN": 550, "FIDN": 22771625, "FIDS": 50, "LNAM": "0226015B77A90032", "CATMPA": [ "4" ], "RESTRN": [ "4", "2" ], "INFORM": "Vessels are warned against fishing, dragging or anchoring in this area", "SCAMIN": 999999, "SORDAT": "201206", "SORIND": "US,US,graph,Chart 12300" }, "geometry": { "type": "Polygon", "coordinates": [ [ [ -73.9238524, 39.4350352 ], [ -73.9291358, 39.4302621 ], [ -73.9336862, 39.4278382 ], [ -73.9370991, 39.4268466 ], [ -73.9422182, 39.4262957 ], [ -73.9486172, 39.4267364 ], [ -73.9543052, 39.428389 ], [ -73.9597087, 39.4311434 ], [ -73.9622683, 39.4338977 ], [ -73.9649702, 39.4386348 ], [ -73.9658233, 39.4428208 ], [ -73.9658233, 39.4463456 ], [ -73.9643716, 39.4500524 ], [ -73.9618018, 39.4540369 ], [ -73.9564568, 39.4584992 ], [ -73.9501814, 39.4604432 ], [ -73.9439246, 39.4612141 ], [ -73.9386632, 39.461104 ], [ -73.9336862, 39.4600027 ], [ -73.9272873, 39.4564785 ], [ -73.9228791, 39.4517427 ], [ -73.9207461, 39.4472268 ], [ -73.9207044, 39.4434827 ], [ -73.9213657, 39.4404186 ], [ -73.9238524, 39.4350352 ] ] ] } }
]
}
