{
"type": "FeatureCollection",
"name": "OBSTRN",
"crs": { "type": "name", "properties": { "name": "urn:ogc:def:crs:OGC:1.3:CRS84" } },
"features": [
{ "type": "Feature", "properties": { "RCID": 127, "PRIM": 3, "GRUP": 2, "OBJL": 86, "RVER": 1, "AGEN": 550, "FIDN": 37886020, "FIDS": 50, "LNAM": "0226024218440032", "CATOBS": 5, "QUASOU": [ "7" ], "VALSOU": 15.0, "WATLEV": 3, "SORDAT": "20050418", "SORIND": "US,US,graph,H-11242" }, "geometry": { "type": "Polygon", "coordinates": [ [ [ -74.2640476, 39.2665651 ], [ -74.2177147, 39.2286079 ], [ -74.2096861, 39.2220306 ], [ -74.195775, 39.2326139 ], [ -74.1984601, 39.2348687 ], [ -74.2040139, 39.2395323 ], [ -74.2049076, 39.2402828 ], [ -74.2447558, 39.2737438 ], [ -74.2541083, 39.2815972 ], [ -74.2684778, 39.2701944 ], [ -74.2640476, 39.2665651 ] ] ] } },
{ "type": "Feature", "properties": { "RCID": 128, "PRIM": 3, "GRUP": 2, "OBJL": 86, "RVER": 1, "AGEN": 550, "FIDN": 37880008, "FIDS": 50, "LNAM": "0226024200C80032", "CATOBS": 5, "QUASOU": [ "7" ], "VALSOU": 11.8, "WATLEV": 3, "SORDAT": "201206", "SORIND": "US,US,graph,Chart 12300" }, "geometry": { "type": "Polygon", "coordinates": [ [ [ -74.3666667, 39.2435076 ], [ -74.3666667, 39.2489053 ], [ -74.3666667, 39.25 ], [ -74.35, 39.25 ], [ -74.35, 39.2497604 ], [ -74.35, 39.2428953 ], [ -74.35, 39.2333333 ], [ -74.3666667, 39.2333333 ], [ -74.3666667, 39.2435076 ] ] ] } },
{ "type": "Feature", "properties": { "RCID": 130, "PRIM": 1, "GRUP": 2, "OBJL": 86, "RVER": 1, "AGEN": 550, "FIDN": 906005874, "FIDS": 2030, "LNAM": "022636008D7207EE", "EXPSOU": 1, "QUASOU": [ "2" ], "WATLEV": 3, "SORDAT": "20200929", "SORIND": "US,US,reprt,5thCGD,LNM 39/20" }, "geometry": { "type": "Point", "coordinates": [ -74.1405236, 39.22332 ] } },
{ "type": "Feature", "properties": { "RCID": 131, "PRIM": 1, "GRUP": 2, "OBJL": 86, "RVER": 1, "AGEN": 550, "FIDN": 37886431, "FIDS": 50, "LNAM": "0226024219DF0032", "CATOBS": 1, "EXPSOU": 2, "QUASOU": [ "9" ], "VALSOU": 54.8, "WATLEV": 3, "SORDAT": "200303", "SORIND": "US,US,graph,Chart 12300" }, "geometry": { "type": "Point", "coordinates": [ -73.0309648, 39.4588536 ] } },
{ "type": "Feature", "properties": { "RCID": 132, "PRIM": 1, "GRUP": 2, "OBJL": 86, "RVER": 1, "AGEN": 550, "FIDN": 37886043, "FIDS": 50, "LNAM": "02260242185B0032", "QUASOU": [ "2" ], "WATLEV": 3, "SORDAT": "200303", "SORIND": "US,US,graph,Chart 12300" }, "geometry": { "type": "Point", "coordinates": [ -73.1754052, 39.190191 ] } },
{ "type": "Feature", "properties": { "RCID": 133, "PRIM": 1, "GRUP": 2, "OBJL": 86, "RVER": 1, "AGEN": 550, "FIDN": 37886650, "FIDS": 50, "LNAM": "022602421ABA0032", "CATOBS": 1, "QUASOU": [ "2" ], "WATLEV": 3, "SORDAT": "200303", "SORIND": "US,US,graph,Chart 12300" }, "geometry": { "type": "Point", "coordinates": [ -73.5894687, 39.4269218 ] } }
]
}
