{
"type": "FeatureCollection",
"name": "RIVERS",
"crs": { "type": "name", "properties": { "name": "urn:ogc:def:crs:OGC:1.3:CRS84" } },
"features": [
{ "type": "Feature", "properties": { "RCID": 410, "PRIM": 3, "GRUP": 2, "OBJL": 114, "RVER": 1, "AGEN": 550, "FIDN": 1024159848, "FIDS": 48294, "LNAM": "02263D0B7068BCA6", "OBJNAM": "Raritan River", "SCAMIN": 1499999, "SORDAT": "200303", "SORIND": "US,US,graph,Chart 12300" }, "geometry": { "type": "Polygon", "coordinates": [ [ [ -74.4, 40.4873365 ], [ -74.4014845, 40.4884113 ], [ -74.4031083, 40.4890311 ], [ -74.4088404, 40.4904376 ], [ -74.4117584, 40.4904375 ], [ -74.4150642, 40.4896487 ], [ -74.4194401, 40.4872186 ], [ -74.4225345, 40.4860372 ], [ -74.4270988, 40.4857834 ], [ -74.4298435, 40.4859797 ], [ -74.4317305, 40.4865032 ], [ -74.4337033, 40.4877464 ], [ -74.4364909, 40.4899712 ], [ -74.4386353, 40.4926539 ], [ -74.44138, 40.4961216 ], [ -74.4437816, 40.498477 ], [ -74.446269, 40.500178 ], [ -74.4486707, 40.5012901 ], [ -74.4521445, 40.5023369 ], [ -74.4552324, 40.5027948 ], [ -74.4600356, 40.5031873 ], [ -74.4653535, 40.5039069 ], [ -74.4695564, 40.504692 ], [ -74.4730731, 40.5059349 ], [ -74.4741881, 40.5066545 ], [ -74.474274, 40.5071778 ], [ -74.4736736, 40.5074395 ], [ -74.47273, 40.5074395 ], [ -74.4695564, 40.5073086 ], [ -74.4632093, 40.5071124 ], [ -74.4590921, 40.5068507 ], [ -74.4554039, 40.5059349 ], [ -74.4515441, 40.5048882 ], [ -74.4475127, 40.5038415 ], [ -74.4448538, 40.5029256 ], [ -74.4424521, 40.5016172 ], [ -74.4401363, 40.4999162 ], [ -74.438335, 40.4977573 ], [ -74.4361907, 40.4942896 ], [ -74.4348183, 40.4925885 ], [ -74.4331803, 40.4907349 ], [ -74.4290563, 40.488144 ], [ -74.4259198, 40.4877549 ], [ -74.4233676, 40.4884008 ], [ -74.4212234, 40.4892514 ], [ -74.4189719, 40.4900797 ], [ -74.4160054, 40.4916295 ], [ -74.4142879, 40.4922852 ], [ -74.4114254, 40.492941 ], [ -74.4088231, 40.492941 ], [ -74.4062926, 40.4923615 ], [ -74.4003234, 40.4905049 ], [ -74.4, 40.490258 ], [ -74.4, 40.4873365 ] ] ] } },
{ "type": "Feature", "properties": { "RCID": 426, "PRIM": 2, "GRUP": 2, "OBJL": 114, "RVER": 1, "AGEN": 550, "FIDN": 37879886, "FIDS": 50, "LNAM": "02260242004E0032", "SCAMIN": 499999, "SORDAT": "200805", "SORIND": "US,US,graph,Chart 12300" }, "geometry": { "type": "LineString", "coordinates": [ [ -74.336936, 39.5627209 ], [ -74.3349811, 39.5607013 ], [ -74.3344536, 39.558256 ], [ -74.3347538, 39.5563344 ] ] } },
{ "type": "Feature", "properties": { "RCID": 427, "PRIM": 2, "GRUP": 2, "OBJL": 114, "RVER": 1, "AGEN": 550, "FIDN": 37879689, "FIDS": 50, "LNAM": "02260241FF890032", "SCAMIN": 499999, "SORDAT": "200805", "SORIND": "US,US,graph,Chart 12300" }, "geometry": { "type": "LineString", "coordinates": [ [ -74.4105535, 39.56836 ], [ -74.4081172, 39.5685877 ], [ -74.4052588, 39.5686465 ], [ -74.4016491, 39.5711506 ] ] } },
{ "type": "Feature", "properties": { "RCID": 428, "PRIM": 2, "GRUP": 2, "OBJL": 114, "RVER": 1, "AGEN": 550, "FIDN": 37879890, "FIDS": 50, "LNAM": "0226024200520032", "SCAMIN": 499999, "SORDAT": "200805", "SORIND": "US,US,graph,Chart 12300" }, "geometry": { "type": "LineString", "coordinates": [ [ -74.4100172, 39.4848344 ], [ -74.4129468, 39.4858821 ], [ -74.4164825, 39.4864642 ], [ -74.4203944, 39.4875708 ] ] } },
{ "type": "Feature", "properties": { "RCID": 429, "PRIM": 2, "GRUP": 2, "OBJL": 114, "RVER": 1, "AGEN": 550, "FIDN": 37879894, "FIDS": 50, "LNAM": "0226024200560032", "SCAMIN": 499999, "SORDAT": "200805", "SORIND": "US,US,graph,Chart 12300" }, "geometry": { "type": "LineString", "coordinates": [ [ -74.6178596, 39.3322305 ], [ -74.6135888, 39.3346054 ], [ -74.6081681, 39.3366889 ] ] } },
{ "type": "Feature", "properties": { "RCID": 430, "PRIM": 2, "GRUP": 2, "OBJL": 114, "RVER": 1, "AGEN": 550, "FIDN": 37879719, "FIDS": 50, "LNAM": "02260241FFA70032", "SCAMIN": 499999, "SORDAT": "200805", "SORIND": "US,US,graph,Chart 12300" }, "geometry": { "type": "LineString", "coordinates": [ [ -74.3367312, 39.5695784 ], [ -74.3408783, 39.5691671 ] ] } },
{ "type": "Feature", "properties": { "RCID": 431, "PRIM": 2, "GRUP": 2, "OBJL": 114, "RVER": 1, "AGEN": 550, "FIDN": 37879677, "FIDS": 50, "LNAM": "02260241FF7D0032", "SCAMIN": 499999, "SORDAT": "200805", "SORIND": "US,US,graph,Chart 12300" }, "geometry": { "type": "LineString", "coordinates": [ [ -74.4463855, 39.5760655 ], [ -74.4458796, 39.5737157 ] ] } },
{ "type": "Feature", "properties": { "RCID": 432, "PRIM": 2, "GRUP": 2, "OBJL": 114, "RVER": 1, "AGEN": 550, "FIDN": 37969927, "FIDS": 50, "LNAM": "0226024360070032", "SCAMIN": 499999, "SORDAT": "201206", "SORIND": "US,US,graph,Chart 12300" }, "geometry": { "type": "LineString", "coordinates": [ [ -74.6882686, 39.1987242 ], [ -74.6880325, 39.2014187 ], [ -74.688035, 39.2018402 ], [ -74.6880958, 39.2022599 ], [ -74.6883228, 39.2030957 ], [ -74.6885739, 39.2039292 ], [ -74.6886941, 39.2045546 ], [ -74.6887037, 39.2046589 ], [ -74.6887096, 39.2047634 ], [ -74.6887094, 39.2051413 ], [ -74.6886755, 39.2055186 ], [ -74.6886005, 39.205893 ], [ -74.6885448, 39.2060778 ], [ -74.6884776, 39.2062618 ], [ -74.6882977, 39.2066286 ], [ -74.6880571, 39.2069737 ], [ -74.6877451, 39.207312 ], [ -74.6875604, 39.2074757 ], [ -74.6874605, 39.207556 ], [ -74.6873554, 39.2076353 ], [ -74.6871273, 39.2077809 ], [ -74.6868908, 39.2078936 ], [ -74.6863977, 39.2080366 ], [ -74.6861396, 39.2080664 ], [ -74.6858812, 39.2080864 ], [ -74.6853633, 39.2081063 ], [ -74.6851042, 39.2081077 ], [ -74.684845, 39.2081041 ], [ -74.6845858, 39.208101 ], [ -74.6843268, 39.2081041 ], [ -74.6838311, 39.2081571 ], [ -74.6833629, 39.2082896 ], [ -74.6809172, 39.209291 ], [ -74.6796975, 39.2097977 ], [ -74.6784832, 39.2103072 ], [ -74.6779445, 39.2105422 ], [ -74.6774085, 39.2107845 ], [ -74.6768728, 39.2110245 ], [ -74.6763352, 39.2112523 ], [ -74.67605, 39.211328 ], [ -74.6757509, 39.2113385 ], [ -74.6755925, 39.2113193 ], [ -74.6754351, 39.211293 ], [ -74.6751285, 39.2112109 ], [ -74.6745024, 39.2109631 ], [ -74.6741987, 39.2108235 ], [ -74.673907, 39.2106889 ], [ -74.673394, 39.2103111 ], [ -74.673005, 39.2098276 ], [ -74.6726059, 39.2093748 ], [ -74.6723606, 39.2092027 ], [ -74.6722192, 39.2091376 ], [ -74.6720625, 39.2090894 ], [ -74.6715458, 39.2089999 ], [ -74.6710118, 39.2089698 ], [ -74.6704778, 39.2089994 ], [ -74.6699612, 39.2090894 ], [ -74.66917, 39.2092834 ] ] } },
{ "type": "Feature", "properties": { "RCID": 433, "PRIM": 2, "GRUP": 2, "OBJL": 114, "RVER": 1, "AGEN": 550, "FIDN": 37879738, "FIDS": 50, "LNAM": "02260241FFBA0032", "SCAMIN": 499999, "SORDAT": "200805", "SORIND": "US,US,graph,Chart 12300" }, "geometry": { "type": "LineString", "coordinates": [ [ -74.3391815, 39.5661317 ], [ -74.3427578, 39.5664304 ] ] } },
{ "type": "Feature", "properties": { "RCID": 434, "PRIM": 2, "GRUP": 2, "OBJL": 114, "RVER": 1, "AGEN": 550, "FIDN": 37880827, "FIDS": 50, "LNAM": "0226024203FB0032", "SCAMIN": 499999, "SORDAT": "201206", "SORIND": "US,US,graph,Chart 12300" }, "geometry": { "type": "LineString", "coordinates": [ [ -74.5496187, 39.3200881 ], [ -74.5474309, 39.3210884 ], [ -74.5461578, 39.3233064 ], [ -74.5453529, 39.3239749 ], [ -74.5445555, 39.3246371 ], [ -74.5400777, 39.3270255 ], [ -74.5385993, 39.328384 ] ] } },
{ "type": "Feature", "properties": { "RCID": 435, "PRIM": 2, "GRUP": 2, "OBJL": 114, "RVER": 1, "AGEN": 550, "FIDN": 37880849, "FIDS": 50, "LNAM": "0226024204110032", "SCAMIN": 499999, "SORDAT": "201206", "SORIND": "US,US,graph,Chart 12300" }, "geometry": { "type": "LineString", "coordinates": [ [ -74.6328246, 39.2434343 ], [ -74.6328108, 39.2421807 ], [ -74.6308831, 39.2408629 ], [ -74.631131, 39.2400914 ], [ -74.6322601, 39.2393521 ], [ -74.6331687, 39.2365784 ], [ -74.6333793, 39.2337164 ], [ -74.636409, 39.2323654 ], [ -74.6397469, 39.2325856 ], [ -74.6407801, 39.23379 ] ] } },
{ "type": "Feature", "properties": { "RCID": 436, "PRIM": 2, "GRUP": 2, "OBJL": 114, "RVER": 1, "AGEN": 550, "FIDN": 37879692, "FIDS": 50, "LNAM": "02260241FF8C0032", "SCAMIN": 499999, "SORDAT": "200805", "SORIND": "US,US,graph,Chart 12300" }, "geometry": { "type": "LineString", "coordinates": [ [ -74.5444254, 39.5775746 ], [ -74.5478135, 39.5771683 ], [ -74.5502198, 39.5750722 ] ] } },
{ "type": "Feature", "properties": { "RCID": 437, "PRIM": 2, "GRUP": 2, "OBJL": 114, "RVER": 1, "AGEN": 550, "FIDN": 37879772, "FIDS": 50, "LNAM": "02260241FFDC0032", "SCAMIN": 499999, "SORDAT": "200805", "SORIND": "US,US,graph,Chart 12300" }, "geometry": { "type": "LineString", "coordinates": [ [ -74.3949548, 39.4912371 ], [ -74.3962793, 39.4896862 ], [ -74.3978582, 39.4876459 ], [ -74.3996633, 39.4870627 ] ] } },
{ "type": "Feature", "properties": { "RCID": 438, "PRIM": 2, "GRUP": 2, "OBJL": 114, "RVER": 1, "AGEN": 550, "FIDN": 37879888, "FIDS": 50, "LNAM": "0226024200500032", "SCAMIN": 499999, "SORDAT": "200805", "SORIND": "US,US,graph,Chart 12300" }, "geometry": { "type": "LineString", "coordinates": [ [ -74.4105327, 39.5362944 ], [ -74.4132474, 39.536423 ], [ -74.4155794, 39.5367137 ], [ -74.4167075, 39.5360728 ], [ -74.4178355, 39.5350824 ] ] } },
{ "type": "Feature", "properties": { "RCID": 439, "PRIM": 2, "GRUP": 2, "OBJL": 114, "RVER": 1, "AGEN": 550, "FIDN": 37879741, "FIDS": 50, "LNAM": "02260241FFBD0032", "SCAMIN": 499999, "SORDAT": "200805", "SORIND": "US,US,graph,Chart 12300" }, "geometry": { "type": "LineString", "coordinates": [ [ -74.4525446, 39.5626753 ], [ -74.4538115, 39.5619496 ], [ -74.455014, 39.5591545 ] ] } },
{ "type": "Feature", "properties": { "RCID": 440, "PRIM": 2, "GRUP": 2, "OBJL": 114, "RVER": 1, "AGEN": 550, "FIDN": 37879773, "FIDS": 50, "LNAM": "02260241FFDD0032", "SCAMIN": 499999, "SORDAT": "200805", "SORIND": "US,US,graph,Chart 12300" }, "geometry": { "type": "LineString", "coordinates": [ [ -74.4125127, 39.4774732 ], [ -74.4158836, 39.4787 ], [ -74.4192523, 39.4799018 ] ] } },
{ "type": "Feature", "properties": { "RCID": 441, "PRIM": 2, "GRUP": 2, "OBJL": 114, "RVER": 1, "AGEN": 550, "FIDN": 37879717, "FIDS": 50, "LNAM": "02260241FFA50032", "SCAMIN": 499999, "SORDAT": "200805", "SORIND": "US,US,graph,Chart 12300" }, "geometry": { "type": "LineString", "coordinates": [ [ -74.3096615, 39.5949047 ], [ -74.313433, 39.5974896 ] ] } },
{ "type": "Feature", "properties": { "RCID": 442, "PRIM": 2, "GRUP": 2, "OBJL": 114, "RVER": 1, "AGEN": 550, "FIDN": 37969929, "FIDS": 50, "LNAM": "0226024360090032", "SCAMIN": 499999, "SORDAT": "201206", "SORIND": "US,US,graph,Chart 12300" }, "geometry": { "type": "LineString", "coordinates": [ [ -74.2978285, 39.5446853 ], [ -74.2976342, 39.5466129 ], [ -74.2981845, 39.5484363 ], [ -74.299197, 39.5502597 ], [ -74.3000703, 39.5521846 ] ] } },
{ "type": "Feature", "properties": { "RCID": 443, "PRIM": 2, "GRUP": 2, "OBJL": 114, "RVER": 1, "AGEN": 550, "FIDN": 37880790, "FIDS": 50, "LNAM": "0226024203D60032", "SCAMIN": 499999, "SORDAT": "201206", "SORIND": "US,US,graph,Chart 12300" }, "geometry": { "type": "LineString", "coordinates": [ [ -74.6554852, 39.2273941 ], [ -74.6547963, 39.2253955 ], [ -74.6546803, 39.2212868 ], [ -74.6547632, 39.2176959 ] ] } },
{ "type": "Feature", "properties": { "RCID": 444, "PRIM": 2, "GRUP": 2, "OBJL": 114, "RVER": 1, "AGEN": 550, "FIDN": 37879730, "FIDS": 50, "LNAM": "02260241FFB20032", "SCAMIN": 499999, "SORDAT": "200805", "SORIND": "US,US,graph,Chart 12300" }, "geometry": { "type": "LineString", "coordinates": [ [ -74.4281705, 39.5214552 ], [ -74.4310279, 39.5206211 ], [ -74.4344121, 39.5181735 ] ] } },
{ "type": "Feature", "properties": { "RCID": 445, "PRIM": 2, "GRUP": 2, "OBJL": 114, "RVER": 1, "AGEN": 550, "FIDN": 37879770, "FIDS": 50, "LNAM": "02260241FFDA0032", "SCAMIN": 499999, "SORDAT": "200805", "SORIND": "US,US,graph,Chart 12300" }, "geometry": { "type": "LineString", "coordinates": [ [ -74.4099811, 39.5053502 ], [ -74.4117476, 39.5050074 ], [ -74.4140787, 39.5031422 ], [ -74.4153575, 39.5030836 ] ] } },
{ "type": "Feature", "properties": { "RCID": 446, "PRIM": 2, "GRUP": 2, "OBJL": 114, "RVER": 1, "AGEN": 550, "FIDN": 37879799, "FIDS": 50, "LNAM": "02260241FFF70032", "SCAMIN": 499999, "SORDAT": "200805", "SORIND": "US,US,graph,Chart 12300" }, "geometry": { "type": "LineString", "coordinates": [ [ -74.5385836, 39.3533172 ], [ -74.5403154, 39.3567065 ] ] } },
{ "type": "Feature", "properties": { "RCID": 447, "PRIM": 2, "GRUP": 2, "OBJL": 114, "RVER": 1, "AGEN": 550, "FIDN": 37879893, "FIDS": 50, "LNAM": "0226024200550032", "SCAMIN": 499999, "SORDAT": "200805", "SORIND": "US,US,graph,Chart 12300" }, "geometry": { "type": "LineString", "coordinates": [ [ -74.4410407, 39.4571624 ], [ -74.4393082, 39.4595612 ], [ -74.4390835, 39.4623017 ], [ -74.439085, 39.4662664 ] ] } },
{ "type": "Feature", "properties": { "RCID": 448, "PRIM": 2, "GRUP": 2, "OBJL": 114, "RVER": 1, "AGEN": 550, "FIDN": 37879887, "FIDS": 50, "LNAM": "02260242004F0032", "SCAMIN": 499999, "SORDAT": "200805", "SORIND": "US,US,graph,Chart 12300" }, "geometry": { "type": "LineString", "coordinates": [ [ -74.3496746, 39.5578565 ], [ -74.3523252, 39.558921 ], [ -74.3572148, 39.559444 ] ] } },
{ "type": "Feature", "properties": { "RCID": 449, "PRIM": 2, "GRUP": 2, "OBJL": 114, "RVER": 1, "AGEN": 550, "FIDN": 37886018, "FIDS": 50, "LNAM": "0226024218420032", "SCAMIN": 499999, "SORDAT": "200805", "SORIND": "US,US,graph,Chart 12300" }, "geometry": { "type": "LineString", "coordinates": [ [ -74.4183039, 39.567929 ], [ -74.4199911, 39.5674737 ], [ -74.421261, 39.5669472 ], [ -74.4228936, 39.5652623 ] ] } },
{ "type": "Feature", "properties": { "RCID": 450, "PRIM": 2, "GRUP": 2, "OBJL": 114, "RVER": 1, "AGEN": 550, "FIDN": 37882183, "FIDS": 50, "LNAM": "0226024209470032", "SCAMIN": 499999, "SORDAT": "200805", "SORIND": "US,US,graph,Chart 12300" }, "geometry": { "type": "LineString", "coordinates": [ [ -74.3274983, 39.5945229 ], [ -74.3299319, 39.5969941 ] ] } },
{ "type": "Feature", "properties": { "RCID": 451, "PRIM": 2, "GRUP": 2, "OBJL": 114, "RVER": 1, "AGEN": 550, "FIDN": 37879882, "FIDS": 50, "LNAM": "02260242004A0032", "SCAMIN": 499999, "SORDAT": "200805", "SORIND": "US,US,graph,Chart 12300" }, "geometry": { "type": "LineString", "coordinates": [ [ -74.3374169, 39.575767 ], [ -74.3402905, 39.5760033 ], [ -74.3464584, 39.5753617 ] ] } },
{ "type": "Feature", "properties": { "RCID": 452, "PRIM": 2, "GRUP": 2, "OBJL": 114, "RVER": 1, "AGEN": 550, "FIDN": 37880766, "FIDS": 50, "LNAM": "0226024203BE0032", "SCAMIN": 499999, "SORDAT": "201206", "SORIND": "US,US,graph,Chart 12300" }, "geometry": { "type": "LineString", "coordinates": [ [ -74.5365837, 39.3448684 ], [ -74.5404388, 39.3452175 ], [ -74.5436582, 39.3477496 ], [ -74.5443271, 39.3496649 ] ] } },
{ "type": "Feature", "properties": { "RCID": 453, "PRIM": 2, "GRUP": 2, "OBJL": 114, "RVER": 1, "AGEN": 550, "FIDN": 37879889, "FIDS": 50, "LNAM": "0226024200510032", "SCAMIN": 499999, "SORDAT": "200805", "SORIND": "US,US,graph,Chart 12300" }, "geometry": { "type": "LineString", "coordinates": [ [ -74.4535515, 39.5641155 ], [ -74.4568208, 39.5632298 ], [ -74.4608074, 39.5630543 ] ] } },
{ "type": "Feature", "properties": { "RCID": 454, "PRIM": 2, "GRUP": 2, "OBJL": 114, "RVER": 1, "AGEN": 550, "FIDN": 37879724, "FIDS": 50, "LNAM": "02260241FFAC0032", "SCAMIN": 499999, "SORDAT": "200805", "SORIND": "US,US,graph,Chart 12300" }, "geometry": { "type": "LineString", "coordinates": [ [ -74.4147643, 39.5569607 ], [ -74.411832, 39.5577248 ], [ -74.4091244, 39.5588317 ], [ -74.4059663, 39.5619183 ] ] } },
{ "type": "Feature", "properties": { "RCID": 455, "PRIM": 2, "GRUP": 2, "OBJL": 114, "RVER": 1, "AGEN": 550, "FIDN": 37880836, "FIDS": 50, "LNAM": "0226024204040032", "SCAMIN": 499999, "SORDAT": "201206", "SORIND": "US,US,graph,Chart 12300" }, "geometry": { "type": "LineString", "coordinates": [ [ -74.353001, 39.4677229 ], [ -74.3465308, 39.4712711 ], [ -74.3437849, 39.4735686 ] ] } },
{ "type": "Feature", "properties": { "RCID": 456, "PRIM": 2, "GRUP": 2, "OBJL": 114, "RVER": 1, "AGEN": 550, "FIDN": 37879804, "FIDS": 50, "LNAM": "02260241FFFC0032", "SCAMIN": 499999, "SORDAT": "200805", "SORIND": "US,US,graph,Chart 12300" }, "geometry": { "type": "LineString", "coordinates": [ [ -74.6780339, 39.3341009 ], [ -74.6782496, 39.3351762 ], [ -74.6792408, 39.3357193 ], [ -74.6812812, 39.3359905 ], [ -74.6829717, 39.3359448 ], [ -74.6840794, 39.336352 ], [ -74.6843711, 39.3369404 ] ] } },
{ "type": "Feature", "properties": { "RCID": 457, "PRIM": 2, "GRUP": 2, "OBJL": 114, "RVER": 1, "AGEN": 550, "FIDN": 37879776, "FIDS": 50, "LNAM": "02260241FFE00032", "SCAMIN": 499999, "SORDAT": "200805", "SORIND": "US,US,graph,Chart 12300" }, "geometry": { "type": "LineString", "coordinates": [ [ -74.4015898, 39.4505154 ], [ -74.4073584, 39.4507987 ] ] } },
{ "type": "Feature", "properties": { "RCID": 458, "PRIM": 2, "GRUP": 2, "OBJL": 114, "RVER": 1, "AGEN": 550, "FIDN": 37879783, "FIDS": 50, "LNAM": "02260241FFE70032", "SCAMIN": 499999, "SORDAT": "200805", "SORIND": "US,US,graph,Chart 12300" }, "geometry": { "type": "LineString", "coordinates": [ [ -74.4789884, 39.4192114 ], [ -74.4820378, 39.4217951 ], [ -74.4846709, 39.4227863 ], [ -74.486025, 39.4233695 ] ] } },
{ "type": "Feature", "properties": { "RCID": 459, "PRIM": 2, "GRUP": 2, "OBJL": 114, "RVER": 1, "AGEN": 550, "FIDN": 37879779, "FIDS": 50, "LNAM": "02260241FFE30032", "SCAMIN": 499999, "SORDAT": "200805", "SORIND": "US,US,graph,Chart 12300" }, "geometry": { "type": "LineString", "coordinates": [ [ -74.4636232, 39.4275035 ], [ -74.4669846, 39.42762 ], [ -74.4711974, 39.4284941 ] ] } },
{ "type": "Feature", "properties": { "RCID": 460, "PRIM": 2, "GRUP": 2, "OBJL": 114, "RVER": 1, "AGEN": 550, "FIDN": 37880788, "FIDS": 50, "LNAM": "0226024203D40032", "SCAMIN": 499999, "SORDAT": "201206", "SORIND": "US,US,graph,Chart 12300" }, "geometry": { "type": "LineString", "coordinates": [ [ -74.3196735, 39.5434146 ], [ -74.3150843, 39.5416029 ], [ -74.3142428, 39.5374701 ] ] } },
{ "type": "Feature", "properties": { "RCID": 461, "PRIM": 2, "GRUP": 2, "OBJL": 114, "RVER": 1, "AGEN": 550, "FIDN": 37879781, "FIDS": 50, "LNAM": "02260241FFE50032", "SCAMIN": 499999, "SORDAT": "200805", "SORIND": "US,US,graph,Chart 12300" }, "geometry": { "type": "LineString", "coordinates": [ [ -74.4687154, 39.3882916 ], [ -74.4712068, 39.3877623 ], [ -74.4735387, 39.3881121 ], [ -74.4758709, 39.3889287 ] ] } },
{ "type": "Feature", "properties": { "RCID": 462, "PRIM": 2, "GRUP": 2, "OBJL": 114, "RVER": 1, "AGEN": 550, "FIDN": 37879777, "FIDS": 50, "LNAM": "02260241FFE10032", "SCAMIN": 499999, "SORDAT": "200805", "SORIND": "US,US,graph,Chart 12300" }, "geometry": { "type": "LineString", "coordinates": [ [ -74.4090144, 39.4602057 ], [ -74.4106064, 39.4602319 ], [ -74.4171088, 39.464111 ] ] } },
{ "type": "Feature", "properties": { "RCID": 463, "PRIM": 2, "GRUP": 2, "OBJL": 114, "RVER": 1, "AGEN": 550, "FIDN": 37879690, "FIDS": 50, "LNAM": "02260241FF8A0032", "SCAMIN": 499999, "SORDAT": "200805", "SORIND": "US,US,graph,Chart 12300" }, "geometry": { "type": "LineString", "coordinates": [ [ -74.415952, 39.5687299 ], [ -74.4171444, 39.5704487 ], [ -74.4193265, 39.5721364 ] ] } },
{ "type": "Feature", "properties": { "RCID": 464, "PRIM": 2, "GRUP": 2, "OBJL": 114, "RVER": 1, "AGEN": 550, "FIDN": 37880777, "FIDS": 50, "LNAM": "0226024203C90032", "SCAMIN": 499999, "SORDAT": "201206", "SORIND": "US,US,graph,Chart 12300" }, "geometry": { "type": "LineString", "coordinates": [ [ -74.5453529, 39.3239749 ], [ -74.5459383, 39.3256778 ], [ -74.5474529, 39.3271449 ], [ -74.5494942, 39.3275714 ], [ -74.5502844, 39.3275714 ] ] } },
{ "type": "Feature", "properties": { "RCID": 465, "PRIM": 2, "GRUP": 2, "OBJL": 114, "RVER": 1, "AGEN": 550, "FIDN": 37969925, "FIDS": 50, "LNAM": "0226024360050032", "SCAMIN": 499999, "SORDAT": "201206", "SORIND": "US,US,graph,Chart 12300" }, "geometry": { "type": "LineString", "coordinates": [ [ -74.5600634, 39.313957 ], [ -74.5627381, 39.3152387 ], [ -74.5669191, 39.3165242 ], [ -74.5674534, 39.3171504 ], [ -74.5674923, 39.3176036 ], [ -74.5673659, 39.3183967 ], [ -74.5668824, 39.3190382 ], [ -74.5645411, 39.3210927 ], [ -74.5630127, 39.3227651 ] ] } },
{ "type": "Feature", "properties": { "RCID": 466, "PRIM": 2, "GRUP": 2, "OBJL": 114, "RVER": 1, "AGEN": 550, "FIDN": 37879883, "FIDS": 50, "LNAM": "02260242004B0032", "SCAMIN": 499999, "SORDAT": "200805", "SORIND": "US,US,graph,Chart 12300" }, "geometry": { "type": "LineString", "coordinates": [ [ -74.4535766, 39.5661339 ], [ -74.4557689, 39.5665486 ], [ -74.4590792, 39.5683527 ], [ -74.4600576, 39.5694586 ] ] } },
{ "type": "Feature", "properties": { "RCID": 467, "PRIM": 2, "GRUP": 2, "OBJL": 114, "RVER": 1, "AGEN": 550, "FIDN": 37880828, "FIDS": 50, "LNAM": "0226024203FC0032", "SCAMIN": 499999, "SORDAT": "201206", "SORIND": "US,US,graph,Chart 12300" }, "geometry": { "type": "LineString", "coordinates": [ [ -74.3287407, 39.5291768 ], [ -74.3268797, 39.5306634 ], [ -74.3253572, 39.5328081 ], [ -74.3224853, 39.5325669 ], [ -74.3198028, 39.5326935 ], [ -74.3169491, 39.5360251 ], [ -74.3142428, 39.5374701 ], [ -74.3106965, 39.5375766 ], [ -74.3094406, 39.5364004 ], [ -74.3097866, 39.5342022 ], [ -74.3082641, 39.5316017 ], [ -74.305537, 39.5297385 ], [ -74.3049394, 39.5285526 ], [ -74.3058108, 39.5268492 ], [ -74.3058992, 39.5254534 ], [ -74.3054037, 39.524792 ], [ -74.303796, 39.5239429 ], [ -74.3012104, 39.522938 ], [ -74.2995509, 39.5224858 ], [ -74.2977094, 39.5231948 ] ] } },
{ "type": "Feature", "properties": { "RCID": 468, "PRIM": 2, "GRUP": 2, "OBJL": 114, "RVER": 1, "AGEN": 550, "FIDN": 37880842, "FIDS": 50, "LNAM": "02260242040A0032", "SCAMIN": 499999, "SORDAT": "201206", "SORIND": "US,US,graph,Chart 12300" }, "geometry": { "type": "LineString", "coordinates": [ [ -74.3269984, 39.5264309 ], [ -74.3277921, 39.5243165 ], [ -74.327755, 39.5223641 ], [ -74.3272025, 39.5216519 ] ] } },
{ "type": "Feature", "properties": { "RCID": 469, "PRIM": 2, "GRUP": 2, "OBJL": 114, "RVER": 1, "AGEN": 550, "FIDN": 37879778, "FIDS": 50, "LNAM": "02260241FFE20032", "SCAMIN": 499999, "SORDAT": "200805", "SORIND": "US,US,graph,Chart 12300" }, "geometry": { "type": "LineString", "coordinates": [ [ -74.4558258, 39.4462523 ], [ -74.4555432, 39.448543 ], [ -74.4543402, 39.4500012 ], [ -74.4539645, 39.4511676 ] ] } },
{ "type": "Feature", "properties": { "RCID": 470, "PRIM": 2, "GRUP": 2, "OBJL": 114, "RVER": 1, "AGEN": 550, "FIDN": 37879747, "FIDS": 50, "LNAM": "02260241FFC30032", "SCAMIN": 499999, "SORDAT": "200805", "SORIND": "US,US,graph,Chart 12300" }, "geometry": { "type": "LineString", "coordinates": [ [ -74.4063022, 39.4421315 ], [ -74.4094103, 39.4419459 ] ] } },
{ "type": "Feature", "properties": { "RCID": 471, "PRIM": 2, "GRUP": 2, "OBJL": 114, "RVER": 1, "AGEN": 550, "FIDN": 37880841, "FIDS": 50, "LNAM": "0226024204090032", "SCAMIN": 499999, "SORDAT": "201206", "SORIND": "US,US,graph,Chart 12300" }, "geometry": { "type": "LineString", "coordinates": [ [ -74.2852616, 39.5639401 ], [ -74.2853591, 39.5624178 ], [ -74.2864675, 39.5592577 ], [ -74.2887692, 39.556321 ] ] } },
{ "type": "Feature", "properties": { "RCID": 472, "PRIM": 2, "GRUP": 2, "OBJL": 114, "RVER": 1, "AGEN": 550, "FIDN": 37880805, "FIDS": 50, "LNAM": "0226024203E50032", "SCAMIN": 499999, "SORDAT": "201206", "SORIND": "US,US,graph,Chart 12300" }, "geometry": { "type": "LineString", "coordinates": [ [ -74.529827, 39.3552672 ], [ -74.5296335, 39.3570889 ], [ -74.5298271, 39.3581032 ], [ -74.5310369, 39.3587419 ], [ -74.532295, 39.3592115 ], [ -74.5331903, 39.3597374 ], [ -74.5335532, 39.3609395 ], [ -74.5341823, 39.3614842 ] ] } },
{ "type": "Feature", "properties": { "RCID": 473, "PRIM": 2, "GRUP": 2, "OBJL": 114, "RVER": 1, "AGEN": 550, "FIDN": 37880761, "FIDS": 50, "LNAM": "0226024203B90032", "SCAMIN": 499999, "SORDAT": "201206", "SORIND": "US,US,graph,Chart 12300" }, "geometry": { "type": "LineString", "coordinates": [ [ -74.4515376, 39.3590944 ], [ -74.4579242, 39.3533082 ], [ -74.4619891, 39.3515049 ], [ -74.4664023, 39.3487547 ], [ -74.4704672, 39.3464328 ], [ -74.4737481, 39.3445165 ], [ -74.4757717, 39.3431927 ], [ -74.4768459, 39.3422684 ], [ -74.4787652, 39.3417106 ], [ -74.4797733, 39.3417497 ], [ -74.4810335, 39.342389 ], [ -74.4817896, 39.3428326 ], [ -74.4832514, 39.3427804 ], [ -74.4843604, 39.3430022 ], [ -74.4849485, 39.3435632 ], [ -74.4857632, 39.3442851 ], [ -74.4870334, 39.345929 ], [ -74.489574, 39.3489347 ], [ -74.491936, 39.3521117 ] ] } },
{ "type": "Feature", "properties": { "RCID": 474, "PRIM": 2, "GRUP": 2, "OBJL": 114, "RVER": 1, "AGEN": 550, "FIDN": 37879726, "FIDS": 50, "LNAM": "02260241FFAE0032", "SCAMIN": 499999, "SORDAT": "200805", "SORIND": "US,US,graph,Chart 12300" }, "geometry": { "type": "LineString", "coordinates": [ [ -74.3975673, 39.5436753 ], [ -74.3946966, 39.5433102 ], [ -74.3920633, 39.5417384 ] ] } },
{ "type": "Feature", "properties": { "RCID": 475, "PRIM": 2, "GRUP": 2, "OBJL": 114, "RVER": 1, "AGEN": 550, "FIDN": 37879771, "FIDS": 50, "LNAM": "02260241FFDB0032", "SCAMIN": 499999, "SORDAT": "200805", "SORIND": "US,US,graph,Chart 12300" }, "geometry": { "type": "LineString", "coordinates": [ [ -74.4083451, 39.501516 ], [ -74.412146, 39.5002212 ], [ -74.4150792, 39.4989385 ] ] } },
{ "type": "Feature", "properties": { "RCID": 476, "PRIM": 2, "GRUP": 2, "OBJL": 114, "RVER": 1, "AGEN": 550, "FIDN": 37879731, "FIDS": 50, "LNAM": "02260241FFB30032", "SCAMIN": 499999, "SORDAT": "200805", "SORIND": "US,US,graph,Chart 12300" }, "geometry": { "type": "LineString", "coordinates": [ [ -74.4310864, 39.5557063 ], [ -74.4315864, 39.5571944 ], [ -74.4329035, 39.5589409 ], [ -74.4344834, 39.5597266 ] ] } },
{ "type": "Feature", "properties": { "RCID": 477, "PRIM": 2, "GRUP": 2, "OBJL": 114, "RVER": 1, "AGEN": 550, "FIDN": 37879801, "FIDS": 50, "LNAM": "02260241FFF90032", "SCAMIN": 499999, "SORDAT": "200805", "SORIND": "US,US,graph,Chart 12300" }, "geometry": { "type": "LineString", "coordinates": [ [ -74.6176629, 39.3309702 ], [ -74.6158025, 39.3303041 ], [ -74.6129447, 39.3269092 ] ] } },
{ "type": "Feature", "properties": { "RCID": 478, "PRIM": 2, "GRUP": 2, "OBJL": 114, "RVER": 1, "AGEN": 550, "FIDN": 37880794, "FIDS": 50, "LNAM": "0226024203DA0032", "SCAMIN": 499999, "SORDAT": "201206", "SORIND": "US,US,graph,Chart 12300" }, "geometry": { "type": "LineString", "coordinates": [ [ -74.3588704, 39.4843612 ], [ -74.3589495, 39.4859862 ], [ -74.3586832, 39.4869753 ] ] } },
{ "type": "Feature", "properties": { "RCID": 479, "PRIM": 2, "GRUP": 2, "OBJL": 114, "RVER": 1, "AGEN": 550, "FIDN": 37969937, "FIDS": 50, "LNAM": "0226024360110032", "SCAMIN": 499999, "SORDAT": "201206", "SORIND": "US,US,graph,Chart 12300" }, "geometry": { "type": "LineString", "coordinates": [ [ -74.335302, 39.5428342 ], [ -74.3354967, 39.5428857 ], [ -74.3357002, 39.5429754 ], [ -74.3358473, 39.5431178 ], [ -74.3359306, 39.543255 ], [ -74.3359965, 39.5433932 ], [ -74.3360403, 39.5435324 ], [ -74.3360576, 39.5436721 ], [ -74.3360621, 39.5438954 ], [ -74.3360659, 39.5441191 ], [ -74.3359697, 39.5454675 ], [ -74.3356512, 39.5463667 ], [ -74.3353697, 39.5468147 ], [ -74.3351916, 39.5470381 ], [ -74.3350924, 39.5471496 ], [ -74.3349861, 39.547261 ], [ -74.3346945, 39.5475366 ], [ -74.3343921, 39.5477831 ], [ -74.3337562, 39.5481809 ], [ -74.3330812, 39.548439 ], [ -74.3327298, 39.5485108 ], [ -74.3325508, 39.5485316 ], [ -74.3323697, 39.5485419 ], [ -74.33171, 39.5485062 ], [ -74.3310496, 39.5483797 ], [ -74.3297252, 39.5479595 ], [ -74.3283931, 39.5474907 ], [ -74.3277232, 39.5473035 ], [ -74.3273871, 39.5472331 ], [ -74.3270501, 39.5471826 ], [ -74.3264587, 39.5471128 ], [ -74.3258535, 39.5470454 ], [ -74.3246216, 39.5469504 ], [ -74.3233944, 39.5469636 ], [ -74.3227951, 39.5470314 ], [ -74.3225012, 39.5470841 ], [ -74.322356, 39.5471157 ], [ -74.322212, 39.5471509 ], [ -74.3218934, 39.5472753 ], [ -74.3216193, 39.5474573 ], [ -74.3211461, 39.5479184 ], [ -74.3206741, 39.5483826 ], [ -74.3204017, 39.5485686 ], [ -74.3187469, 39.5492812 ] ] } },
{ "type": "Feature", "properties": { "RCID": 480, "PRIM": 2, "GRUP": 2, "OBJL": 114, "RVER": 1, "AGEN": 550, "FIDN": 37879728, "FIDS": 50, "LNAM": "02260241FFB00032", "SCAMIN": 499999, "SORDAT": "200805", "SORIND": "US,US,graph,Chart 12300" }, "geometry": { "type": "LineString", "coordinates": [ [ -74.4308822, 39.5436758 ], [ -74.4279689, 39.5426241 ], [ -74.4262383, 39.541052 ] ] } },
{ "type": "Feature", "properties": { "RCID": 481, "PRIM": 2, "GRUP": 2, "OBJL": 114, "RVER": 1, "AGEN": 550, "FIDN": 37879784, "FIDS": 50, "LNAM": "02260241FFE80032", "SCAMIN": 499999, "SORDAT": "200805", "SORIND": "US,US,graph,Chart 12300" }, "geometry": { "type": "LineString", "coordinates": [ [ -74.4901902, 39.39454 ], [ -74.4916995, 39.3927256 ], [ -74.4916236, 39.3907411 ], [ -74.4880871, 39.3877651 ] ] } },
{ "type": "Feature", "properties": { "RCID": 482, "PRIM": 2, "GRUP": 2, "OBJL": 114, "RVER": 1, "AGEN": 550, "FIDN": 37880816, "FIDS": 50, "LNAM": "0226024203F00032", "SCAMIN": 499999, "SORDAT": "201206", "SORIND": "US,US,graph,Chart 12300" }, "geometry": { "type": "LineString", "coordinates": [ [ -74.3362515, 39.4569948 ], [ -74.3394454, 39.4575111 ], [ -74.3431144, 39.458015 ], [ -74.3462737, 39.4577503 ], [ -74.347481, 39.4573525 ], [ -74.348208, 39.457113 ], [ -74.3498896, 39.456079 ] ] } },
{ "type": "Feature", "properties": { "RCID": 483, "PRIM": 2, "GRUP": 2, "OBJL": 114, "RVER": 1, "AGEN": 550, "FIDN": 37879720, "FIDS": 50, "LNAM": "02260241FFA80032", "SCAMIN": 499999, "SORDAT": "200805", "SORIND": "US,US,graph,Chart 12300" }, "geometry": { "type": "LineString", "coordinates": [ [ -74.3636974, 39.5428671 ], [ -74.3650605, 39.5463451 ], [ -74.3662647, 39.5482083 ], [ -74.3706281, 39.5496632 ] ] } },
{ "type": "Feature", "properties": { "RCID": 484, "PRIM": 2, "GRUP": 2, "OBJL": 114, "RVER": 1, "AGEN": 550, "FIDN": 37879693, "FIDS": 50, "LNAM": "02260241FF8D0032", "SCAMIN": 499999, "SORDAT": "200805", "SORIND": "US,US,graph,Chart 12300" }, "geometry": { "type": "LineString", "coordinates": [ [ -74.3424941, 39.5603434 ], [ -74.3434048, 39.5578465 ], [ -74.3442054, 39.5552141 ], [ -74.3441601, 39.5543364 ], [ -74.3438426, 39.5534236 ] ] } },
{ "type": "Feature", "properties": { "RCID": 485, "PRIM": 2, "GRUP": 2, "OBJL": 114, "RVER": 1, "AGEN": 550, "FIDN": 37882182, "FIDS": 50, "LNAM": "0226024209460032", "SCAMIN": 499999, "SORDAT": "200805", "SORIND": "US,US,graph,Chart 12300" }, "geometry": { "type": "LineString", "coordinates": [ [ -74.3257346, 39.5888454 ], [ -74.3256113, 39.5879736 ], [ -74.3258759, 39.5872426 ], [ -74.3267073, 39.5864823 ] ] } },
{ "type": "Feature", "properties": { "RCID": 486, "PRIM": 2, "GRUP": 2, "OBJL": 114, "RVER": 1, "AGEN": 550, "FIDN": 37969922, "FIDS": 50, "LNAM": "0226024360020032", "SCAMIN": 499999, "SORDAT": "200805", "SORIND": "US,US,graph,Chart 12300" }, "geometry": { "type": "LineString", "coordinates": [ [ -74.6287877, 39.3182408 ], [ -74.6312483, 39.3205429 ], [ -74.6340605, 39.323807 ], [ -74.6346924, 39.3264575 ] ] } },
{ "type": "Feature", "properties": { "RCID": 487, "PRIM": 2, "GRUP": 2, "OBJL": 114, "RVER": 1, "AGEN": 550, "FIDN": 37879736, "FIDS": 50, "LNAM": "02260241FFB80032", "SCAMIN": 499999, "SORDAT": "200805", "SORIND": "US,US,graph,Chart 12300" }, "geometry": { "type": "LineString", "coordinates": [ [ -74.5193176, 39.5697301 ], [ -74.517966, 39.5669337 ] ] } },
{ "type": "Feature", "properties": { "RCID": 488, "PRIM": 2, "GRUP": 2, "OBJL": 114, "RVER": 1, "AGEN": 550, "FIDN": 37880789, "FIDS": 50, "LNAM": "0226024203D50032", "SCAMIN": 499999, "SORDAT": "201206", "SORIND": "US,US,graph,Chart 12300" }, "geometry": { "type": "LineString", "coordinates": [ [ -74.3581943, 39.4696013 ], [ -74.3536579, 39.4718919 ], [ -74.3516412, 39.4733179 ], [ -74.3437849, 39.4735686 ], [ -74.3413316, 39.4750501 ] ] } },
{ "type": "Feature", "properties": { "RCID": 489, "PRIM": 2, "GRUP": 2, "OBJL": 114, "RVER": 1, "AGEN": 550, "FIDN": 37880743, "FIDS": 50, "LNAM": "0226024203A70032", "SCAMIN": 499999, "SORDAT": "201206", "SORIND": "US,US,graph,Chart 12300" }, "geometry": { "type": "LineString", "coordinates": [ [ -74.5812118, 39.3174903 ], [ -74.5797346, 39.3171486 ], [ -74.5786458, 39.3171486 ], [ -74.5772667, 39.3178815 ] ] } },
{ "type": "Feature", "properties": { "RCID": 490, "PRIM": 2, "GRUP": 2, "OBJL": 114, "RVER": 1, "AGEN": 550, "FIDN": 37880797, "FIDS": 50, "LNAM": "0226024203DD0032", "SCAMIN": 499999, "SORDAT": "201206", "SORIND": "US,US,graph,Chart 12300" }, "geometry": { "type": "LineString", "coordinates": [ [ -74.347481, 39.4573525 ], [ -74.3479114, 39.4581454 ], [ -74.3480075, 39.4589385 ], [ -74.3477109, 39.4596133 ], [ -74.3452987, 39.460104 ], [ -74.3448044, 39.4621282 ], [ -74.3461093, 39.4624043 ], [ -74.3498067, 39.462757 ], [ -74.3517958, 39.4609808 ], [ -74.3530764, 39.460793 ], [ -74.353754, 39.462203 ], [ -74.3529829, 39.4644199 ] ] } },
{ "type": "Feature", "properties": { "RCID": 491, "PRIM": 2, "GRUP": 2, "OBJL": 114, "RVER": 1, "AGEN": 550, "FIDN": 37879885, "FIDS": 50, "LNAM": "02260242004D0032", "SCAMIN": 499999, "SORDAT": "200805", "SORIND": "US,US,graph,Chart 12300" }, "geometry": { "type": "LineString", "coordinates": [ [ -74.5446896, 39.5805425 ], [ -74.5499213, 39.5817081 ], [ -74.5552623, 39.58258 ] ] } },
{ "type": "Feature", "properties": { "RCID": 492, "PRIM": 2, "GRUP": 2, "OBJL": 114, "RVER": 1, "AGEN": 550, "FIDN": 37879744, "FIDS": 50, "LNAM": "02260241FFC00032", "SCAMIN": 499999, "SORDAT": "200805", "SORIND": "US,US,graph,Chart 12300" }, "geometry": { "type": "LineString", "coordinates": [ [ -74.4980019, 39.553936 ], [ -74.501175, 39.5511289 ] ] } },
{ "type": "Feature", "properties": { "RCID": 493, "PRIM": 2, "GRUP": 2, "OBJL": 114, "RVER": 1, "AGEN": 550, "FIDN": 37879800, "FIDS": 50, "LNAM": "02260241FFF80032", "SCAMIN": 499999, "SORDAT": "200805", "SORIND": "US,US,graph,Chart 12300" }, "geometry": { "type": "LineString", "coordinates": [ [ -74.5553296, 39.3467885 ], [ -74.5566284, 39.3478675 ], [ -74.5568623, 39.3497684 ], [ -74.5568633, 39.3524387 ] ] } },
{ "type": "Feature", "properties": { "RCID": 494, "PRIM": 2, "GRUP": 2, "OBJL": 114, "RVER": 1, "AGEN": 550, "FIDN": 37879751, "FIDS": 50, "LNAM": "02260241FFC70032", "SCAMIN": 499999, "SORDAT": "201206", "SORIND": "US,US,graph,Chart 12300" }, "geometry": { "type": "LineString", "coordinates": [ [ -74.4484355, 39.3943127 ], [ -74.4483653, 39.3932403 ], [ -74.4483653, 39.3914538 ], [ -74.4484064, 39.389795 ] ] } },
{ "type": "Feature", "properties": { "RCID": 495, "PRIM": 2, "GRUP": 2, "OBJL": 114, "RVER": 1, "AGEN": 550, "FIDN": 37879891, "FIDS": 50, "LNAM": "0226024200530032", "SCAMIN": 499999, "SORDAT": "200805", "SORIND": "US,US,graph,Chart 12300" }, "geometry": { "type": "LineString", "coordinates": [ [ -74.4937491, 39.5506763 ], [ -74.494983, 39.5475912 ], [ -74.4954336, 39.5456693 ], [ -74.496034, 39.5416507 ] ] } },
{ "type": "Feature", "properties": { "RCID": 496, "PRIM": 2, "GRUP": 2, "OBJL": 114, "RVER": 1, "AGEN": 550, "FIDN": 37879745, "FIDS": 50, "LNAM": "02260241FFC10032", "SCAMIN": 499999, "SORDAT": "200805", "SORIND": "US,US,graph,Chart 12300" }, "geometry": { "type": "LineString", "coordinates": [ [ -74.5118641, 39.5660301 ], [ -74.5133397, 39.564016 ] ] } },
{ "type": "Feature", "properties": { "RCID": 497, "PRIM": 2, "GRUP": 2, "OBJL": 114, "RVER": 1, "AGEN": 550, "FIDN": 37879725, "FIDS": 50, "LNAM": "02260241FFAD0032", "SCAMIN": 499999, "SORDAT": "200805", "SORIND": "US,US,graph,Chart 12300" }, "geometry": { "type": "LineString", "coordinates": [ [ -74.3918271, 39.5363878 ], [ -74.390258, 39.5419717 ] ] } },
{ "type": "Feature", "properties": { "RCID": 498, "PRIM": 2, "GRUP": 2, "OBJL": 114, "RVER": 1, "AGEN": 550, "FIDN": 37879743, "FIDS": 50, "LNAM": "02260241FFBF0032", "SCAMIN": 499999, "SORDAT": "200805", "SORIND": "US,US,graph,Chart 12300" }, "geometry": { "type": "LineString", "coordinates": [ [ -74.4134218, 39.4763293 ], [ -74.4145263, 39.4764189 ], [ -74.4174218, 39.4749609 ] ] } },
{ "type": "Feature", "properties": { "RCID": 499, "PRIM": 2, "GRUP": 2, "OBJL": 114, "RVER": 1, "AGEN": 550, "FIDN": 37879732, "FIDS": 50, "LNAM": "02260241FFB40032", "SCAMIN": 499999, "SORDAT": "200805", "SORIND": "US,US,graph,Chart 12300" }, "geometry": { "type": "LineString", "coordinates": [ [ -74.4584824, 39.5327451 ], [ -74.4548186, 39.5321981 ], [ -74.4524868, 39.5323733 ], [ -74.450456, 39.5329563 ] ] } },
{ "type": "Feature", "properties": { "RCID": 500, "PRIM": 2, "GRUP": 2, "OBJL": 114, "RVER": 1, "AGEN": 550, "FIDN": 37879782, "FIDS": 50, "LNAM": "02260241FFE60032", "SCAMIN": 499999, "SORDAT": "200805", "SORIND": "US,US,graph,Chart 12300" }, "geometry": { "type": "LineString", "coordinates": [ [ -74.4667989, 39.3839296 ], [ -74.4691746, 39.3843773 ], [ -74.471055, 39.3842601 ], [ -74.4737627, 39.3832672 ] ] } },
{ "type": "Feature", "properties": { "RCID": 501, "PRIM": 2, "GRUP": 2, "OBJL": 114, "RVER": 1, "AGEN": 550, "FIDN": 37879737, "FIDS": 50, "LNAM": "02260241FFB90032", "SCAMIN": 499999, "SORDAT": "200805", "SORIND": "US,US,graph,Chart 12300" }, "geometry": { "type": "LineString", "coordinates": [ [ -74.5578483, 39.5992987 ], [ -74.5585597, 39.6006583 ], [ -74.5583722, 39.602113 ], [ -74.5560411, 39.6042084 ] ] } },
{ "type": "Feature", "properties": { "RCID": 502, "PRIM": 2, "GRUP": 2, "OBJL": 114, "RVER": 1, "AGEN": 550, "FIDN": 37879884, "FIDS": 50, "LNAM": "02260242004C0032", "SCAMIN": 499999, "SORDAT": "200805", "SORIND": "US,US,graph,Chart 12300" }, "geometry": { "type": "LineString", "coordinates": [ [ -74.5520113, 39.5967285 ], [ -74.5505858, 39.5995253 ], [ -74.5455105, 39.6053744 ] ] } },
{ "type": "Feature", "properties": { "RCID": 503, "PRIM": 2, "GRUP": 2, "OBJL": 114, "RVER": 1, "AGEN": 550, "FIDN": 37880782, "FIDS": 50, "LNAM": "0226024203CE0032", "SCAMIN": 499999, "SORDAT": "201206", "SORIND": "US,US,graph,Chart 12300" }, "geometry": { "type": "LineString", "coordinates": [ [ -74.3070899, 39.5213791 ], [ -74.3092273, 39.5198525 ], [ -74.3100186, 39.5178157 ], [ -74.3128115, 39.5171082 ], [ -74.3127518, 39.5133013 ], [ -74.3163075, 39.5139266 ] ] } },
{ "type": "Feature", "properties": { "RCID": 504, "PRIM": 2, "GRUP": 2, "OBJL": 114, "RVER": 1, "AGEN": 550, "FIDN": 37879815, "FIDS": 50, "LNAM": "0226024200070032", "SCAMIN": 499999, "SORDAT": "201206", "SORIND": "US,US,graph,Chart 12300" }, "geometry": { "type": "LineString", "coordinates": [ [ -74.45276, 39.387738 ], [ -74.4540325, 39.3876947 ], [ -74.4546699, 39.3875298 ], [ -74.4559873, 39.3867714 ], [ -74.4574747, 39.3853533 ], [ -74.4582821, 39.3835065 ], [ -74.459472, 39.3821544 ], [ -74.4609169, 39.3816597 ], [ -74.4639342, 39.3814289 ], [ -74.4657113, 39.3816036 ] ] } },
{ "type": "Feature", "properties": { "RCID": 505, "PRIM": 2, "GRUP": 2, "OBJL": 114, "RVER": 1, "AGEN": 550, "FIDN": 37879774, "FIDS": 50, "LNAM": "02260241FFDE0032", "SCAMIN": 499999, "SORDAT": "200805", "SORIND": "US,US,graph,Chart 12300" }, "geometry": { "type": "LineString", "coordinates": [ [ -74.487219, 39.5544378 ], [ -74.4853556, 39.5500391 ], [ -74.4848283, 39.5479428 ] ] } },
{ "type": "Feature", "properties": { "RCID": 506, "PRIM": 2, "GRUP": 2, "OBJL": 114, "RVER": 1, "AGEN": 550, "FIDN": 37879742, "FIDS": 50, "LNAM": "02260241FFBE0032", "SCAMIN": 499999, "SORDAT": "200805", "SORIND": "US,US,graph,Chart 12300" }, "geometry": { "type": "LineString", "coordinates": [ [ -74.454272, 39.5373263 ], [ -74.454311, 39.5406416 ] ] } },
{ "type": "Feature", "properties": { "RCID": 507, "PRIM": 2, "GRUP": 2, "OBJL": 114, "RVER": 1, "AGEN": 550, "FIDN": 37879727, "FIDS": 50, "LNAM": "02260241FFAF0032", "SCAMIN": 499999, "SORDAT": "200805", "SORIND": "US,US,graph,Chart 12300" }, "geometry": { "type": "LineString", "coordinates": [ [ -74.4164972, 39.5417596 ], [ -74.4184905, 39.5412284 ], [ -74.4205211, 39.5403543 ], [ -74.4227024, 39.5397715 ] ] } },
{ "type": "Feature", "properties": { "RCID": 508, "PRIM": 2, "GRUP": 2, "OBJL": 114, "RVER": 1, "AGEN": 550, "FIDN": 37879735, "FIDS": 50, "LNAM": "02260241FFB70032", "SCAMIN": 499999, "SORDAT": "200805", "SORIND": "US,US,graph,Chart 12300" }, "geometry": { "type": "LineString", "coordinates": [ [ -74.5163091, 39.5729533 ], [ -74.515912, 39.5742404 ], [ -74.5178688, 39.5772088 ] ] } },
{ "type": "Feature", "properties": { "RCID": 509, "PRIM": 2, "GRUP": 2, "OBJL": 114, "RVER": 1, "AGEN": 550, "FIDN": 37880781, "FIDS": 50, "LNAM": "0226024203CD0032", "SCAMIN": 499999, "SORDAT": "201206", "SORIND": "US,US,graph,Chart 12300" }, "geometry": { "type": "LineString", "coordinates": [ [ -74.3328564, 39.5208348 ], [ -74.3275618, 39.521605 ], [ -74.3272025, 39.5216519 ], [ -74.3236865, 39.5221106 ], [ -74.3217883, 39.5217276 ], [ -74.3198902, 39.5199349 ], [ -74.3183677, 39.5199502 ], [ -74.3176955, 39.5212832 ], [ -74.3175571, 39.523321 ], [ -74.3156392, 39.5247765 ], [ -74.312614, 39.5256192 ], [ -74.3109729, 39.525374 ], [ -74.3079478, 39.5223864 ], [ -74.3070899, 39.5213791 ], [ -74.3066428, 39.5208542 ], [ -74.3060156, 39.5171199 ], [ -74.3049622, 39.5160123 ], [ -74.3035358, 39.5151806 ] ] } },
{ "type": "Feature", "properties": { "RCID": 510, "PRIM": 2, "GRUP": 2, "OBJL": 114, "RVER": 1, "AGEN": 550, "FIDN": 37879691, "FIDS": 50, "LNAM": "02260241FF8B0032", "SCAMIN": 499999, "SORDAT": "200805", "SORIND": "US,US,graph,Chart 12300" }, "geometry": { "type": "LineString", "coordinates": [ [ -74.5042684, 39.5701585 ], [ -74.5036234, 39.5755195 ] ] } },
{ "type": "Feature", "properties": { "RCID": 511, "PRIM": 2, "GRUP": 2, "OBJL": 114, "RVER": 1, "AGEN": 550, "FIDN": 37969933, "FIDS": 50, "LNAM": "02260243600D0032", "SCAMIN": 499999, "SORDAT": "201206", "SORIND": "US,US,graph,Chart 12300" }, "geometry": { "type": "LineString", "coordinates": [ [ -74.6638364, 39.2271247 ], [ -74.6628993, 39.2277035 ], [ -74.6623368, 39.2278351 ], [ -74.6617025, 39.2278776 ], [ -74.6613874, 39.2278863 ], [ -74.6610893, 39.2278977 ], [ -74.6606444, 39.2279182 ], [ -74.6601971, 39.227931 ], [ -74.6593003, 39.2279344 ], [ -74.6584089, 39.2279085 ], [ -74.6575326, 39.227854 ], [ -74.6570083, 39.2277569 ], [ -74.6564874, 39.2275986 ], [ -74.6559689, 39.2274531 ], [ -74.6557103, 39.2274083 ], [ -74.6554519, 39.2273944 ], [ -74.6549373, 39.22747 ], [ -74.6544259, 39.2276319 ], [ -74.6539153, 39.2278112 ], [ -74.6536595, 39.2278858 ], [ -74.6534029, 39.2279388 ], [ -74.6524239, 39.228007 ], [ -74.6514121, 39.2279907 ], [ -74.6503933, 39.2279962 ], [ -74.6498891, 39.2280405 ], [ -74.6496397, 39.2280789 ], [ -74.6493927, 39.2281302 ], [ -74.6489706, 39.2282594 ], [ -74.6485837, 39.2284417 ], [ -74.6482508, 39.228679 ], [ -74.6481103, 39.2288187 ], [ -74.6479904, 39.2289727 ], [ -74.6475463, 39.2297444 ], [ -74.6472213, 39.2305226 ], [ -74.6467357, 39.2321127 ], [ -74.6466315, 39.2324913 ], [ -74.6465413, 39.2328709 ], [ -74.6464158, 39.2336253 ], [ -74.6464314, 39.2341719 ], [ -74.646573, 39.2347168 ], [ -74.6470769, 39.235803 ], [ -74.6476131, 39.2368869 ], [ -74.6478474, 39.2376999 ], [ -74.6478617, 39.2378356 ], [ -74.6478674, 39.2379712 ], [ -74.6478396, 39.2383699 ], [ -74.6477328, 39.238764 ], [ -74.6475211, 39.2391543 ], [ -74.6473678, 39.2393481 ], [ -74.6472778, 39.2394447 ], [ -74.6471785, 39.2395411 ], [ -74.6468153, 39.2398097 ], [ -74.6464295, 39.2399891 ], [ -74.6460244, 39.240112 ], [ -74.6458159, 39.2401625 ], [ -74.645604, 39.2402111 ], [ -74.6449998, 39.240215 ], [ -74.6443671, 39.2400783 ], [ -74.6437501, 39.2399745 ], [ -74.6434612, 39.2399891 ], [ -74.6433242, 39.2400226 ], [ -74.6431929, 39.2400771 ], [ -74.6428244, 39.240305 ], [ -74.6425038, 39.2405711 ], [ -74.6419452, 39.2411688 ], [ -74.6393368, 39.2430843 ], [ -74.6332887, 39.2432718 ], [ -74.6292646, 39.2452217 ], [ -74.626247, 39.2488864 ] ] } },
{ "type": "Feature", "properties": { "RCID": 512, "PRIM": 2, "GRUP": 2, "OBJL": 114, "RVER": 1, "AGEN": 550, "FIDN": 37880783, "FIDS": 50, "LNAM": "0226024203CF0032", "SCAMIN": 499999, "SORDAT": "201206", "SORIND": "US,US,graph,Chart 12300" }, "geometry": { "type": "LineString", "coordinates": [ [ -74.3224853, 39.5325669 ], [ -74.3236118, 39.5349921 ], [ -74.3233448, 39.5359736 ], [ -74.3202571, 39.5382327 ], [ -74.319211, 39.5417191 ], [ -74.3196735, 39.5434146 ], [ -74.3199878, 39.5445668 ], [ -74.3166214, 39.5469802 ] ] } },
{ "type": "Feature", "properties": { "RCID": 513, "PRIM": 2, "GRUP": 2, "OBJL": 114, "RVER": 1, "AGEN": 550, "FIDN": 37879746, "FIDS": 50, "LNAM": "02260241FFC20032", "SCAMIN": 499999, "SORDAT": "200805", "SORIND": "US,US,graph,Chart 12300" }, "geometry": { "type": "LineString", "coordinates": [ [ -74.4051937, 39.4425338 ], [ -74.4064778, 39.4448043 ] ] } },
{ "type": "Feature", "properties": { "RCID": 514, "PRIM": 2, "GRUP": 2, "OBJL": 114, "RVER": 1, "AGEN": 550, "FIDN": 37879733, "FIDS": 50, "LNAM": "02260241FFB50032", "SCAMIN": 499999, "SORDAT": "200805", "SORIND": "US,US,graph,Chart 12300" }, "geometry": { "type": "LineString", "coordinates": [ [ -74.4212062, 39.5183301 ], [ -74.4197985, 39.5160716 ], [ -74.4169395, 39.5141496 ] ] } },
{ "type": "Feature", "properties": { "RCID": 515, "PRIM": 2, "GRUP": 2, "OBJL": 114, "RVER": 1, "AGEN": 550, "FIDN": 37879729, "FIDS": 50, "LNAM": "02260241FFB10032", "SCAMIN": 499999, "SORDAT": "200805", "SORIND": "US,US,graph,Chart 12300" }, "geometry": { "type": "LineString", "coordinates": [ [ -74.4248087, 39.5217991 ], [ -74.4250114, 39.5236518 ], [ -74.4260651, 39.5252827 ], [ -74.4267425, 39.5266806 ] ] } },
{ "type": "Feature", "properties": { "RCID": 516, "PRIM": 2, "GRUP": 2, "OBJL": 114, "RVER": 1, "AGEN": 550, "FIDN": 37879734, "FIDS": 50, "LNAM": "02260241FFB60032", "SCAMIN": 499999, "SORDAT": "200805", "SORIND": "US,US,graph,Chart 12300" }, "geometry": { "type": "LineString", "coordinates": [ [ -74.4148898, 39.5689997 ], [ -74.4149633, 39.5712059 ], [ -74.4153402, 39.5735927 ], [ -74.4169955, 39.5746401 ] ] } },
{ "type": "Feature", "properties": { "RCID": 517, "PRIM": 2, "GRUP": 2, "OBJL": 114, "RVER": 1, "AGEN": 550, "FIDN": 37879895, "FIDS": 50, "LNAM": "0226024200570032", "SCAMIN": 499999, "SORDAT": "200805", "SORIND": "US,US,graph,Chart 12300" }, "geometry": { "type": "LineString", "coordinates": [ [ -74.6623492, 39.3251894 ], [ -74.6595003, 39.3274562 ], [ -74.6575191, 39.329675 ], [ -74.6563544, 39.3327085 ] ] } },
{ "type": "Feature", "properties": { "RCID": 518, "PRIM": 2, "GRUP": 2, "OBJL": 114, "RVER": 1, "AGEN": 550, "FIDN": 37880829, "FIDS": 50, "LNAM": "0226024203FD0032", "SCAMIN": 499999, "SORDAT": "201206", "SORIND": "US,US,graph,Chart 12300" }, "geometry": { "type": "LineString", "coordinates": [ [ -74.3317147, 39.5101392 ], [ -74.3290754, 39.5124618 ], [ -74.3239035, 39.5143836 ], [ -74.322133, 39.5166512 ], [ -74.3225055, 39.5183735 ] ] } },
{ "type": "Feature", "properties": { "RCID": 519, "PRIM": 2, "GRUP": 2, "OBJL": 114, "RVER": 1, "AGEN": 550, "FIDN": 37879802, "FIDS": 50, "LNAM": "02260241FFFA0032", "SCAMIN": 499999, "SORDAT": "200805", "SORIND": "US,US,graph,Chart 12300" }, "geometry": { "type": "LineString", "coordinates": [ [ -74.6743687, 39.3303859 ], [ -74.6736435, 39.3328685 ], [ -74.6713711, 39.3358568 ], [ -74.6706138, 39.3373961 ] ] } },
{ "type": "Feature", "properties": { "RCID": 520, "PRIM": 2, "GRUP": 2, "OBJL": 114, "RVER": 1, "AGEN": 550, "FIDN": 37879892, "FIDS": 50, "LNAM": "0226024200540032", "SCAMIN": 499999, "SORDAT": "200805", "SORIND": "US,US,graph,Chart 12300" }, "geometry": { "type": "LineString", "coordinates": [ [ -74.4920645, 39.5506878 ], [ -74.4906202, 39.5474756 ], [ -74.4903182, 39.5444474 ] ] } },
{ "type": "Feature", "properties": { "RCID": 521, "PRIM": 2, "GRUP": 2, "OBJL": 114, "RVER": 1, "AGEN": 550, "FIDN": 37880823, "FIDS": 50, "LNAM": "0226024203F70032", "SCAMIN": 499999, "SORDAT": "201206", "SORIND": "US,US,graph,Chart 12300" }, "geometry": { "type": "LineString", "coordinates": [ [ -74.3178064, 39.4788512 ], [ -74.3178703, 39.4807364 ], [ -74.3194629, 39.4828291 ], [ -74.3230983, 39.4869607 ], [ -74.32431, 39.4883557 ], [ -74.3253141, 39.4891606 ], [ -74.3265605, 39.4899385 ], [ -74.3267682, 39.4906629 ], [ -74.3265605, 39.4924065 ], [ -74.3267601, 39.4943525 ] ] } },
{ "type": "Feature", "properties": { "RCID": 522, "PRIM": 2, "GRUP": 2, "OBJL": 114, "RVER": 1, "AGEN": 550, "FIDN": 37879723, "FIDS": 50, "LNAM": "02260241FFAB0032", "SCAMIN": 499999, "SORDAT": "200805", "SORIND": "US,US,graph,Chart 12300" }, "geometry": { "type": "LineString", "coordinates": [ [ -74.4040051, 39.5485571 ], [ -74.4017653, 39.550288 ], [ -74.3979098, 39.5528818 ], [ -74.3932739, 39.5535925 ] ] } },
{ "type": "Feature", "properties": { "RCID": 523, "PRIM": 2, "GRUP": 2, "OBJL": 114, "RVER": 1, "AGEN": 550, "FIDN": 37879688, "FIDS": 50, "LNAM": "02260241FF880032", "SCAMIN": 499999, "SORDAT": "200805", "SORIND": "US,US,graph,Chart 12300" }, "geometry": { "type": "LineString", "coordinates": [ [ -74.3368679, 39.5769857 ], [ -74.3392386, 39.5793216 ], [ -74.3403513, 39.582976 ] ] } },
{ "type": "Feature", "properties": { "RCID": 524, "PRIM": 2, "GRUP": 2, "OBJL": 114, "RVER": 1, "AGEN": 550, "FIDN": 37879721, "FIDS": 50, "LNAM": "02260241FFA90032", "SCAMIN": 499999, "SORDAT": "200805", "SORIND": "US,US,graph,Chart 12300" }, "geometry": { "type": "LineString", "coordinates": [ [ -74.403968, 39.5588307 ], [ -74.4018282, 39.5593574 ], [ -74.4000227, 39.5588919 ], [ -74.3991951, 39.558601 ], [ -74.3974655, 39.5596495 ] ] } },
{ "type": "Feature", "properties": { "RCID": 525, "PRIM": 2, "GRUP": 2, "OBJL": 114, "RVER": 1, "AGEN": 550, "FIDN": 37879780, "FIDS": 50, "LNAM": "02260241FFE40032", "SCAMIN": 499999, "SORDAT": "200805", "SORIND": "US,US,graph,Chart 12300" }, "geometry": { "type": "LineString", "coordinates": [ [ -74.463993, 39.4224193 ], [ -74.4651026, 39.42342 ], [ -74.4702931, 39.4240606 ] ] } },
{ "type": "Feature", "properties": { "RCID": 526, "PRIM": 2, "GRUP": 2, "OBJL": 114, "RVER": 1, "AGEN": 550, "FIDN": 37880769, "FIDS": 50, "LNAM": "0226024203C10032", "SCAMIN": 499999, "SORDAT": "201206", "SORIND": "US,US,graph,Chart 12300" }, "geometry": { "type": "LineString", "coordinates": [ [ -74.3642927, 39.4847975 ], [ -74.3588704, 39.4843612 ], [ -74.3537751, 39.4805261 ], [ -74.352257, 39.4792418 ], [ -74.3469983, 39.477968 ], [ -74.3423509, 39.4751787 ], [ -74.3413316, 39.4750501 ], [ -74.3383791, 39.4746777 ], [ -74.3331261, 39.4754438 ], [ -74.3311261, 39.4738555 ], [ -74.3307509, 39.4705825 ], [ -74.3306304, 39.4685454 ], [ -74.3314738, 39.4676297 ], [ -74.3349918, 39.4661159 ], [ -74.3358834, 39.4633498 ], [ -74.3362448, 39.4600603 ], [ -74.3359075, 39.4580977 ], [ -74.3355053, 39.4573651 ] ] } },
{ "type": "Feature", "properties": { "RCID": 527, "PRIM": 2, "GRUP": 2, "OBJL": 114, "RVER": 1, "AGEN": 550, "FIDN": 37880771, "FIDS": 50, "LNAM": "0226024203C30032", "SCAMIN": 499999, "SORDAT": "201206", "SORIND": "US,US,graph,Chart 12300" }, "geometry": { "type": "LineString", "coordinates": [ [ -74.3442115, 39.4515643 ], [ -74.338872, 39.4550748 ], [ -74.338066, 39.4554462 ], [ -74.3370845, 39.4558367 ] ] } },
{ "type": "Feature", "properties": { "RCID": 528, "PRIM": 2, "GRUP": 2, "OBJL": 114, "RVER": 1, "AGEN": 550, "FIDN": 37879722, "FIDS": 50, "LNAM": "02260241FFAA0032", "SCAMIN": 499999, "SORDAT": "200805", "SORIND": "US,US,graph,Chart 12300" }, "geometry": { "type": "LineString", "coordinates": [ [ -74.3957319, 39.5475529 ], [ -74.3917641, 39.5463974 ], [ -74.3899583, 39.5451166 ] ] } },
{ "type": "Feature", "properties": { "RCID": 529, "PRIM": 2, "GRUP": 2, "OBJL": 114, "RVER": 1, "AGEN": 550, "FIDN": 37879740, "FIDS": 50, "LNAM": "02260241FFBC0032", "SCAMIN": 499999, "SORDAT": "200805", "SORIND": "US,US,graph,Chart 12300" }, "geometry": { "type": "LineString", "coordinates": [ [ -74.4341404, 39.556021 ], [ -74.4352723, 39.5571062 ], [ -74.4367771, 39.558154 ] ] } },
{ "type": "Feature", "properties": { "RCID": 530, "PRIM": 2, "GRUP": 2, "OBJL": 114, "RVER": 1, "AGEN": 550, "FIDN": 37879739, "FIDS": 50, "LNAM": "02260241FFBB0032", "SCAMIN": 499999, "SORDAT": "200805", "SORIND": "US,US,graph,Chart 12300" }, "geometry": { "type": "LineString", "coordinates": [ [ -74.4269398, 39.5205348 ], [ -74.4266206, 39.518848 ], [ -74.4242881, 39.517392 ] ] } },
{ "type": "Feature", "properties": { "RCID": 531, "PRIM": 2, "GRUP": 2, "OBJL": 114, "RVER": 1, "AGEN": 550, "FIDN": 37879775, "FIDS": 50, "LNAM": "02260241FFDF0032", "SCAMIN": 499999, "SORDAT": "200805", "SORIND": "US,US,graph,Chart 12300" }, "geometry": { "type": "LineString", "coordinates": [ [ -74.4990905, 39.5561361 ], [ -74.5017783, 39.5554378 ], [ -74.5040347, 39.5544474 ] ] } }
]
}
