{
"type": "FeatureCollection",
"name": "SBDARE",
"crs": { "type": "name", "properties": { "name": "urn:ogc:def:crs:OGC:1.3:CRS84" } },
"features": [
{ "type": "Feature", "properties": { "RCID": 741, "PRIM": 1, "GRUP": 2, "OBJL": 121, "RVER": 1, "AGEN": 550, "FIDN": 37886538, "FIDS": 50, "LNAM": "022602421A4A0032", "NATSUR": [ "4" ], "SCAMIN": 499999, "SORDAT": "200303", "SORIND": "US,US,graph,Chart 12300" }, "geometry": { "type": "Point", "coordinates": [ -72.9528101, 39.4395158 ] } },
{ "type": "Feature", "properties": { "RCID": 742, "PRIM": 1, "GRUP": 2, "OBJL": 121, "RVER": 1, "AGEN": 550, "FIDN": 37886829, "FIDS": 50, "LNAM": "022602421B6D0032", "NATSUR": [ "1" ], "SCAMIN": 499999, "SORDAT": "200303", "SORIND": "US,US,graph,Chart 12300" }, "geometry": { "type": "Point", "coordinates": [ -72.1199545, 39.1100409 ] } },
{ "type": "Feature", "properties": { "RCID": 743, "PRIM": 1, "GRUP": 2, "OBJL": 121, "RVER": 1, "AGEN": 550, "FIDN": 37886818, "FIDS": 50, "LNAM": "022602421B620032", "NATSUR": [ "4" ], "SCAMIN": 499999, "SORDAT": "200303", "SORIND": "US,US,graph,Chart 12300" }, "geometry": { "type": "Point", "coordinates": [ -72.8135838, 39.2611417 ] } },
{ "type": "Feature", "properties": { "RCID": 744, "PRIM": 1, "GRUP": 2, "OBJL": 121, "RVER": 1, "AGEN": 550, "FIDN": 37886286, "FIDS": 50, "LNAM": "02260242194E0032", "NATSUR": [ "1", "4" ], "SCAMIN": 499999, "SORDAT": "200303", "SORIND": "US,US,graph,Chart 12300" }, "geometry": { "type": "Point", "coordinates": [ -72.078696, 39.4915176 ] } },
{ "type": "Feature", "properties": { "RCID": 745, "PRIM": 1, "GRUP": 2, "OBJL": 121, "RVER": 1, "AGEN": 550, "FIDN": 37886268, "FIDS": 50, "LNAM": "02260242193C0032", "NATSUR": [ "4" ], "SCAMIN": 499999, "SORDAT": "200303", "SORIND": "US,US,graph,Chart 12300" }, "geometry": { "type": "Point", "coordinates": [ -73.3421949, 39.2385426 ] } },
{ "type": "Feature", "properties": { "RCID": 746, "PRIM": 1, "GRUP": 2, "OBJL": 121, "RVER": 1, "AGEN": 550, "FIDN": 37886253, "FIDS": 50, "LNAM": "02260242192D0032", "NATSUR": [ "17" ], "SCAMIN": 499999, "SORDAT": "200303", "SORIND": "US,US,graph,Chart 12300" }, "geometry": { "type": "Point", "coordinates": [ -73.1776204, 39.3943026 ] } },
{ "type": "Feature", "properties": { "RCID": 747, "PRIM": 1, "GRUP": 2, "OBJL": 121, "RVER": 1, "AGEN": 550, "FIDN": 37886200, "FIDS": 50, "LNAM": "0226024218F80032", "NATSUR": [ "4" ], "SCAMIN": 499999, "SORDAT": "200303", "SORIND": "US,US,graph,Chart 12300" }, "geometry": { "type": "Point", "coordinates": [ -74.0748978, 39.3710415 ] } },
{ "type": "Feature", "properties": { "RCID": 748, "PRIM": 1, "GRUP": 2, "OBJL": 121, "RVER": 1, "AGEN": 550, "FIDN": 37886652, "FIDS": 50, "LNAM": "022602421ABC0032", "NATSUR": [ "1" ], "SCAMIN": 499999, "SORDAT": "200303", "SORIND": "US,US,graph,Chart 12300" }, "geometry": { "type": "Point", "coordinates": [ -71.5988204, 39.2640543 ] } },
{ "type": "Feature", "properties": { "RCID": 749, "PRIM": 1, "GRUP": 2, "OBJL": 121, "RVER": 1, "AGEN": 550, "FIDN": 37886769, "FIDS": 50, "LNAM": "022602421B310032", "NATSUR": [ "4" ], "SCAMIN": 499999, "SORDAT": "200303", "SORIND": "US,US,graph,Chart 12300" }, "geometry": { "type": "Point", "coordinates": [ -73.2812884, 39.3976143 ] } },
{ "type": "Feature", "properties": { "RCID": 750, "PRIM": 1, "GRUP": 2, "OBJL": 121, "RVER": 1, "AGEN": 550, "FIDN": 37886381, "FIDS": 50, "LNAM": "0226024219AD0032", "NATSUR": [ "1" ], "SCAMIN": 499999, "SORDAT": "200303", "SORIND": "US,US,graph,Chart 12300" }, "geometry": { "type": "Point", "coordinates": [ -71.8474645, 39.4931984 ] } },
{ "type": "Feature", "properties": { "RCID": 751, "PRIM": 1, "GRUP": 2, "OBJL": 121, "RVER": 1, "AGEN": 550, "FIDN": 37886759, "FIDS": 50, "LNAM": "022602421B270032", "NATSUR": [ "4" ], "SCAMIN": 499999, "SORDAT": "200303", "SORIND": "US,US,graph,Chart 12300" }, "geometry": { "type": "Point", "coordinates": [ -73.0273631, 39.3902765 ] } },
{ "type": "Feature", "properties": { "RCID": 752, "PRIM": 1, "GRUP": 2, "OBJL": 121, "RVER": 1, "AGEN": 550, "FIDN": 37886735, "FIDS": 50, "LNAM": "022602421B0F0032", "NATSUR": [ "2" ], "SCAMIN": 499999, "SORDAT": "200303", "SORIND": "US,US,graph,Chart 12300" }, "geometry": { "type": "Point", "coordinates": [ -71.6476582, 39.4360209 ] } },
{ "type": "Feature", "properties": { "RCID": 753, "PRIM": 1, "GRUP": 2, "OBJL": 121, "RVER": 1, "AGEN": 550, "FIDN": 37886074, "FIDS": 50, "LNAM": "02260242187A0032", "NATSUR": [ "4", "17" ], "SCAMIN": 499999, "SORDAT": "200303", "SORIND": "US,US,graph,Chart 12300" }, "geometry": { "type": "Point", "coordinates": [ -73.6095359, 39.4509751 ] } },
{ "type": "Feature", "properties": { "RCID": 754, "PRIM": 1, "GRUP": 2, "OBJL": 121, "RVER": 1, "AGEN": 550, "FIDN": 37886462, "FIDS": 50, "LNAM": "0226024219FE0032", "NATSUR": [ "4", "1" ], "SCAMIN": 499999, "SORDAT": "200303", "SORIND": "US,US,graph,Chart 12300" }, "geometry": { "type": "Point", "coordinates": [ -71.7409285, 39.3185314 ] } },
{ "type": "Feature", "properties": { "RCID": 755, "PRIM": 1, "GRUP": 2, "OBJL": 121, "RVER": 1, "AGEN": 550, "FIDN": 37886546, "FIDS": 50, "LNAM": "022602421A520032", "NATSUR": [ "1" ], "SCAMIN": 499999, "SORDAT": "200303", "SORIND": "US,US,graph,Chart 12300" }, "geometry": { "type": "Point", "coordinates": [ -71.9085515, 39.2286061 ] } },
{ "type": "Feature", "properties": { "RCID": 756, "PRIM": 1, "GRUP": 2, "OBJL": 121, "RVER": 1, "AGEN": 550, "FIDN": 37886052, "FIDS": 50, "LNAM": "0226024218640032", "NATSUR": [ "4", "6" ], "SCAMIN": 499999, "SORDAT": "200303", "SORIND": "US,US,graph,Chart 12300" }, "geometry": { "type": "Point", "coordinates": [ -73.0965426, 39.349366 ] } },
{ "type": "Feature", "properties": { "RCID": 757, "PRIM": 1, "GRUP": 2, "OBJL": 121, "RVER": 1, "AGEN": 550, "FIDN": 37886329, "FIDS": 50, "LNAM": "0226024219790032", "NATSUR": [ "4" ], "SCAMIN": 499999, "SORDAT": "200303", "SORIND": "US,US,graph,Chart 12300" }, "geometry": { "type": "Point", "coordinates": [ -73.4795094, 39.4159871 ] } },
{ "type": "Feature", "properties": { "RCID": 758, "PRIM": 1, "GRUP": 2, "OBJL": 121, "RVER": 1, "AGEN": 550, "FIDN": 37886510, "FIDS": 50, "LNAM": "022602421A2E0032", "NATSUR": [ "2" ], "SCAMIN": 499999, "SORDAT": "200303", "SORIND": "US,US,graph,Chart 12300" }, "geometry": { "type": "Point", "coordinates": [ -71.7734327, 39.4402485 ] } },
{ "type": "Feature", "properties": { "RCID": 759, "PRIM": 1, "GRUP": 2, "OBJL": 121, "RVER": 1, "AGEN": 550, "FIDN": 37886762, "FIDS": 50, "LNAM": "022602421B2A0032", "NATSUR": [ "1" ], "SCAMIN": 499999, "SORDAT": "200303", "SORIND": "US,US,graph,Chart 12300" }, "geometry": { "type": "Point", "coordinates": [ -71.4768752, 39.4425864 ] } },
{ "type": "Feature", "properties": { "RCID": 760, "PRIM": 1, "GRUP": 2, "OBJL": 121, "RVER": 1, "AGEN": 550, "FIDN": 37886359, "FIDS": 50, "LNAM": "0226024219970032", "NATSUR": [ "4", "17" ], "SCAMIN": 499999, "SORDAT": "200303", "SORIND": "US,US,graph,Chart 12300" }, "geometry": { "type": "Point", "coordinates": [ -73.4869992, 39.2807468 ] } },
{ "type": "Feature", "properties": { "RCID": 761, "PRIM": 1, "GRUP": 2, "OBJL": 121, "RVER": 1, "AGEN": 550, "FIDN": 37886082, "FIDS": 50, "LNAM": "0226024218820032", "NATSUR": [ "1" ], "SCAMIN": 499999, "SORDAT": "200303", "SORIND": "US,US,graph,Chart 12300" }, "geometry": { "type": "Point", "coordinates": [ -71.7145759, 39.4885834 ] } },
{ "type": "Feature", "properties": { "RCID": 762, "PRIM": 1, "GRUP": 2, "OBJL": 121, "RVER": 1, "AGEN": 550, "FIDN": 37886505, "FIDS": 50, "LNAM": "022602421A290032", "NATSUR": [ "1" ], "SCAMIN": 499999, "SORDAT": "200303", "SORIND": "US,US,graph,Chart 12300" }, "geometry": { "type": "Point", "coordinates": [ -72.0374059, 39.1853692 ] } },
{ "type": "Feature", "properties": { "RCID": 763, "PRIM": 1, "GRUP": 2, "OBJL": 121, "RVER": 1, "AGEN": 550, "FIDN": 37886139, "FIDS": 50, "LNAM": "0226024218BB0032", "NATSUR": [ "4", "17" ], "SCAMIN": 499999, "SORDAT": "200303", "SORIND": "US,US,graph,Chart 12300" }, "geometry": { "type": "Point", "coordinates": [ -73.4236927, 39.4942561 ] } },
{ "type": "Feature", "properties": { "RCID": 764, "PRIM": 1, "GRUP": 2, "OBJL": 121, "RVER": 1, "AGEN": 550, "FIDN": 37886448, "FIDS": 50, "LNAM": "0226024219F00032", "NATSUR": [ "1" ], "SCAMIN": 499999, "SORDAT": "200303", "SORIND": "US,US,graph,Chart 12300" }, "geometry": { "type": "Point", "coordinates": [ -72.1138937, 39.3582529 ] } },
{ "type": "Feature", "properties": { "RCID": 765, "PRIM": 1, "GRUP": 2, "OBJL": 121, "RVER": 1, "AGEN": 550, "FIDN": 37886486, "FIDS": 50, "LNAM": "022602421A160032", "NATSUR": [ "4" ], "SCAMIN": 499999, "SORDAT": "200303", "SORIND": "US,US,graph,Chart 12300" }, "geometry": { "type": "Point", "coordinates": [ -72.8252555, 39.1911406 ] } },
{ "type": "Feature", "properties": { "RCID": 766, "PRIM": 1, "GRUP": 2, "OBJL": 121, "RVER": 1, "AGEN": 550, "FIDN": 37886248, "FIDS": 50, "LNAM": "0226024219280032", "NATSUR": [ "1", "4" ], "SCAMIN": 499999, "SORDAT": "200303", "SORIND": "US,US,graph,Chart 12300" }, "geometry": { "type": "Point", "coordinates": [ -72.0776194, 39.2982893 ] } },
{ "type": "Feature", "properties": { "RCID": 767, "PRIM": 1, "GRUP": 2, "OBJL": 121, "RVER": 1, "AGEN": 550, "FIDN": 37886092, "FIDS": 50, "LNAM": "02260242188C0032", "NATSUR": [ "4", "17" ], "SCAMIN": 499999, "SORDAT": "200303", "SORIND": "US,US,graph,Chart 12300" }, "geometry": { "type": "Point", "coordinates": [ -72.8545085, 39.5393198 ] } },
{ "type": "Feature", "properties": { "RCID": 768, "PRIM": 1, "GRUP": 2, "OBJL": 121, "RVER": 1, "AGEN": 550, "FIDN": 37886176, "FIDS": 50, "LNAM": "0226024218E00032", "NATSUR": [ "1" ], "SCAMIN": 499999, "SORDAT": "200303", "SORIND": "US,US,graph,Chart 12300" }, "geometry": { "type": "Point", "coordinates": [ -72.4328114, 39.1734366 ] } },
{ "type": "Feature", "properties": { "RCID": 769, "PRIM": 1, "GRUP": 2, "OBJL": 121, "RVER": 1, "AGEN": 550, "FIDN": 37886686, "FIDS": 50, "LNAM": "022602421ADE0032", "NATSUR": [ "4" ], "SCAMIN": 499999, "SORDAT": "200303", "SORIND": "US,US,graph,Chart 12300" }, "geometry": { "type": "Point", "coordinates": [ -73.1055987, 39.266599 ] } },
{ "type": "Feature", "properties": { "RCID": 770, "PRIM": 1, "GRUP": 2, "OBJL": 121, "RVER": 1, "AGEN": 550, "FIDN": 37886041, "FIDS": 50, "LNAM": "0226024218590032", "NATSUR": [ "1" ], "SCAMIN": 499999, "SORDAT": "200303", "SORIND": "US,US,graph,Chart 12300" }, "geometry": { "type": "Point", "coordinates": [ -71.530054, 39.3675889 ] } },
{ "type": "Feature", "properties": { "RCID": 771, "PRIM": 1, "GRUP": 2, "OBJL": 121, "RVER": 1, "AGEN": 550, "FIDN": 37886027, "FIDS": 50, "LNAM": "02260242184B0032", "NATSUR": [ "1" ], "SCAMIN": 499999, "SORDAT": "200303", "SORIND": "US,US,graph,Chart 12300" }, "geometry": { "type": "Point", "coordinates": [ -71.6594907, 39.5812456 ] } },
{ "type": "Feature", "properties": { "RCID": 772, "PRIM": 1, "GRUP": 2, "OBJL": 121, "RVER": 1, "AGEN": 550, "FIDN": 37886798, "FIDS": 50, "LNAM": "022602421B4E0032", "NATSUR": [ "1" ], "SCAMIN": 499999, "SORDAT": "200303", "SORIND": "US,US,graph,Chart 12300" }, "geometry": { "type": "Point", "coordinates": [ -71.7968336, 39.2579146 ] } },
{ "type": "Feature", "properties": { "RCID": 773, "PRIM": 1, "GRUP": 2, "OBJL": 121, "RVER": 1, "AGEN": 550, "FIDN": 37886748, "FIDS": 50, "LNAM": "022602421B1C0032", "NATSUR": [ "4" ], "SCAMIN": 499999, "SORDAT": "200805", "SORIND": "US,US,graph,Chart 12300" }, "geometry": { "type": "Point", "coordinates": [ -74.2401317, 39.2407449 ] } },
{ "type": "Feature", "properties": { "RCID": 774, "PRIM": 1, "GRUP": 2, "OBJL": 121, "RVER": 1, "AGEN": 550, "FIDN": 37886313, "FIDS": 50, "LNAM": "0226024219690032", "NATSUR": [ "2" ], "SCAMIN": 499999, "SORDAT": "200303", "SORIND": "US,US,graph,Chart 12300" }, "geometry": { "type": "Point", "coordinates": [ -71.5295942, 39.007295 ] } },
{ "type": "Feature", "properties": { "RCID": 775, "PRIM": 1, "GRUP": 2, "OBJL": 121, "RVER": 1, "AGEN": 550, "FIDN": 37886109, "FIDS": 50, "LNAM": "02260242189D0032", "NATSUR": [ "17" ], "SCAMIN": 499999, "SORDAT": "200303", "SORIND": "US,US,graph,Chart 12300" }, "geometry": { "type": "Point", "coordinates": [ -72.1612266, 39.416622 ] } },
{ "type": "Feature", "properties": { "RCID": 776, "PRIM": 1, "GRUP": 2, "OBJL": 121, "RVER": 1, "AGEN": 550, "FIDN": 37886051, "FIDS": 50, "LNAM": "0226024218630032", "NATSUR": [ "4" ], "SCAMIN": 499999, "SORDAT": "200303", "SORIND": "US,US,graph,Chart 12300" }, "geometry": { "type": "Point", "coordinates": [ -72.6195471, 39.4289106 ] } },
{ "type": "Feature", "properties": { "RCID": 777, "PRIM": 1, "GRUP": 2, "OBJL": 121, "RVER": 1, "AGEN": 550, "FIDN": 37886172, "FIDS": 50, "LNAM": "0226024218DC0032", "NATSUR": [ "4" ], "SCAMIN": 499999, "SORDAT": "200303", "SORIND": "US,US,graph,Chart 12300" }, "geometry": { "type": "Point", "coordinates": [ -74.0324134, 39.3256107 ] } },
{ "type": "Feature", "properties": { "RCID": 778, "PRIM": 1, "GRUP": 2, "OBJL": 121, "RVER": 1, "AGEN": 550, "FIDN": 37886702, "FIDS": 50, "LNAM": "022602421AEE0032", "NATSUR": [ "4", "17" ], "SCAMIN": 499999, "SORDAT": "200303", "SORIND": "US,US,graph,Chart 12300" }, "geometry": { "type": "Point", "coordinates": [ -73.0405812, 39.5576562 ] } },
{ "type": "Feature", "properties": { "RCID": 779, "PRIM": 1, "GRUP": 2, "OBJL": 121, "RVER": 1, "AGEN": 550, "FIDN": 37886097, "FIDS": 50, "LNAM": "0226024218910032", "NATSUR": [ "4", "17" ], "SCAMIN": 499999, "SORDAT": "200303", "SORIND": "US,US,graph,Chart 12300" }, "geometry": { "type": "Point", "coordinates": [ -73.3515286, 39.5462121 ] } },
{ "type": "Feature", "properties": { "RCID": 780, "PRIM": 1, "GRUP": 2, "OBJL": 121, "RVER": 1, "AGEN": 550, "FIDN": 37886558, "FIDS": 50, "LNAM": "022602421A5E0032", "NATSUR": [ "1", "4" ], "SCAMIN": 499999, "SORDAT": "200303", "SORIND": "US,US,graph,Chart 12300" }, "geometry": { "type": "Point", "coordinates": [ -73.5781914, 39.3062004 ] } },
{ "type": "Feature", "properties": { "RCID": 781, "PRIM": 1, "GRUP": 2, "OBJL": 121, "RVER": 1, "AGEN": 550, "FIDN": 37886377, "FIDS": 50, "LNAM": "0226024219A90032", "NATSUR": [ "4" ], "SCAMIN": 499999, "SORDAT": "200303", "SORIND": "US,US,graph,Chart 12300" }, "geometry": { "type": "Point", "coordinates": [ -71.571817, 39.2639877 ] } },
{ "type": "Feature", "properties": { "RCID": 782, "PRIM": 1, "GRUP": 2, "OBJL": 121, "RVER": 1, "AGEN": 550, "FIDN": 37886410, "FIDS": 50, "LNAM": "0226024219CA0032", "NATSUR": [ "1", "4" ], "SCAMIN": 499999, "SORDAT": "200303", "SORIND": "US,US,graph,Chart 12300" }, "geometry": { "type": "Point", "coordinates": [ -71.8731814, 39.3600661 ] } },
{ "type": "Feature", "properties": { "RCID": 783, "PRIM": 1, "GRUP": 2, "OBJL": 121, "RVER": 1, "AGEN": 550, "FIDN": 37886273, "FIDS": 50, "LNAM": "0226024219410032", "NATSUR": [ "1" ], "SCAMIN": 499999, "SORDAT": "200303", "SORIND": "US,US,graph,Chart 12300" }, "geometry": { "type": "Point", "coordinates": [ -71.5795828, 39.4862112 ] } },
{ "type": "Feature", "properties": { "RCID": 784, "PRIM": 1, "GRUP": 2, "OBJL": 121, "RVER": 1, "AGEN": 550, "FIDN": 37886031, "FIDS": 50, "LNAM": "02260242184F0032", "NATSUR": [ "2", "4" ], "SCAMIN": 499999, "SORDAT": "200303", "SORIND": "US,US,graph,Chart 12300" }, "geometry": { "type": "Point", "coordinates": [ -72.0165691, 39.4118171 ] } },
{ "type": "Feature", "properties": { "RCID": 785, "PRIM": 1, "GRUP": 2, "OBJL": 121, "RVER": 1, "AGEN": 550, "FIDN": 37886400, "FIDS": 50, "LNAM": "0226024219C00032", "NATSUR": [ "4", "6" ], "SCAMIN": 499999, "SORDAT": "200303", "SORIND": "US,US,graph,Chart 12300" }, "geometry": { "type": "Point", "coordinates": [ -72.612672, 39.2021787 ] } },
{ "type": "Feature", "properties": { "RCID": 786, "PRIM": 1, "GRUP": 2, "OBJL": 121, "RVER": 1, "AGEN": 550, "FIDN": 37886181, "FIDS": 50, "LNAM": "0226024218E50032", "NATSUR": [ "1", "17" ], "SCAMIN": 499999, "SORDAT": "200303", "SORIND": "US,US,graph,Chart 12300" }, "geometry": { "type": "Point", "coordinates": [ -72.5262724, 39.3832971 ] } },
{ "type": "Feature", "properties": { "RCID": 787, "PRIM": 1, "GRUP": 2, "OBJL": 121, "RVER": 1, "AGEN": 550, "FIDN": 37886295, "FIDS": 50, "LNAM": "0226024219570032", "NATSUR": [ "1" ], "SCAMIN": 499999, "SORDAT": "200303", "SORIND": "US,US,graph,Chart 12300" }, "geometry": { "type": "Point", "coordinates": [ -71.9195184, 39.5434872 ] } },
{ "type": "Feature", "properties": { "RCID": 788, "PRIM": 1, "GRUP": 2, "OBJL": 121, "RVER": 1, "AGEN": 550, "FIDN": 37886744, "FIDS": 50, "LNAM": "022602421B180032", "NATSUR": [ "4", "17", "6" ], "SCAMIN": 499999, "SORDAT": "200303", "SORIND": "US,US,graph,Chart 12300" }, "geometry": { "type": "Point", "coordinates": [ -72.5981274, 39.2608203 ] } },
{ "type": "Feature", "properties": { "RCID": 789, "PRIM": 1, "GRUP": 2, "OBJL": 121, "RVER": 1, "AGEN": 550, "FIDN": 37886481, "FIDS": 50, "LNAM": "022602421A110032", "NATSUR": [ "4" ], "SCAMIN": 499999, "SORDAT": "200303", "SORIND": "US,US,graph,Chart 12300" }, "geometry": { "type": "Point", "coordinates": [ -72.7913399, 39.3519098 ] } },
{ "type": "Feature", "properties": { "RCID": 790, "PRIM": 1, "GRUP": 2, "OBJL": 121, "RVER": 1, "AGEN": 550, "FIDN": 37886604, "FIDS": 50, "LNAM": "022602421A8C0032", "NATSUR": [ "1" ], "SCAMIN": 499999, "SORDAT": "200303", "SORIND": "US,US,graph,Chart 12300" }, "geometry": { "type": "Point", "coordinates": [ -72.2610071, 39.4362128 ] } },
{ "type": "Feature", "properties": { "RCID": 791, "PRIM": 1, "GRUP": 2, "OBJL": 121, "RVER": 1, "AGEN": 550, "FIDN": 37886568, "FIDS": 50, "LNAM": "022602421A680032", "NATSUR": [ "1", "4", "6" ], "SCAMIN": 499999, "SORDAT": "200303", "SORIND": "US,US,graph,Chart 12300" }, "geometry": { "type": "Point", "coordinates": [ -72.4627068, 39.4933813 ] } },
{ "type": "Feature", "properties": { "RCID": 792, "PRIM": 1, "GRUP": 2, "OBJL": 121, "RVER": 1, "AGEN": 550, "FIDN": 37886647, "FIDS": 50, "LNAM": "022602421AB70032", "NATSUR": [ "4", "17" ], "SCAMIN": 499999, "SORDAT": "200303", "SORIND": "US,US,graph,Chart 12300" }, "geometry": { "type": "Point", "coordinates": [ -72.5859831, 39.5485639 ] } },
{ "type": "Feature", "properties": { "RCID": 793, "PRIM": 1, "GRUP": 2, "OBJL": 121, "RVER": 1, "AGEN": 550, "FIDN": 37886668, "FIDS": 50, "LNAM": "022602421ACC0032", "NATSUR": [ "4", "6" ], "SCAMIN": 499999, "SORDAT": "200303", "SORIND": "US,US,graph,Chart 12300" }, "geometry": { "type": "Point", "coordinates": [ -74.0398436, 39.5147905 ] } },
{ "type": "Feature", "properties": { "RCID": 794, "PRIM": 1, "GRUP": 2, "OBJL": 121, "RVER": 1, "AGEN": 550, "FIDN": 37886035, "FIDS": 50, "LNAM": "0226024218530032", "NATSUR": [ "1" ], "SCAMIN": 499999, "SORDAT": "200303", "SORIND": "US,US,graph,Chart 12300" }, "geometry": { "type": "Point", "coordinates": [ -71.7159816, 39.3600618 ] } },
{ "type": "Feature", "properties": { "RCID": 795, "PRIM": 1, "GRUP": 2, "OBJL": 121, "RVER": 1, "AGEN": 550, "FIDN": 37886149, "FIDS": 50, "LNAM": "0226024218C50032", "NATSUR": [ "1", "4", "17" ], "SCAMIN": 499999, "SORDAT": "200303", "SORIND": "US,US,graph,Chart 12300" }, "geometry": { "type": "Point", "coordinates": [ -72.5078278, 39.2756516 ] } },
{ "type": "Feature", "properties": { "RCID": 796, "PRIM": 1, "GRUP": 2, "OBJL": 121, "RVER": 1, "AGEN": 550, "FIDN": 37886576, "FIDS": 50, "LNAM": "022602421A700032", "NATSUR": [ "1" ], "SCAMIN": 499999, "SORDAT": "200303", "SORIND": "US,US,graph,Chart 12300" }, "geometry": { "type": "Point", "coordinates": [ -72.1566838, 39.1772867 ] } },
{ "type": "Feature", "properties": { "RCID": 797, "PRIM": 1, "GRUP": 2, "OBJL": 121, "RVER": 1, "AGEN": 550, "FIDN": 37886825, "FIDS": 50, "LNAM": "022602421B690032", "NATSUR": [ "4", "17" ], "SCAMIN": 499999, "SORDAT": "200303", "SORIND": "US,US,graph,Chart 12300" }, "geometry": { "type": "Point", "coordinates": [ -72.7744889, 39.430618 ] } },
{ "type": "Feature", "properties": { "RCID": 798, "PRIM": 1, "GRUP": 2, "OBJL": 121, "RVER": 1, "AGEN": 550, "FIDN": 37886304, "FIDS": 50, "LNAM": "0226024219600032", "NATSUR": [ "4", "1" ], "SCAMIN": 499999, "SORDAT": "200303", "SORIND": "US,US,graph,Chart 12300" }, "geometry": { "type": "Point", "coordinates": [ -72.3104134, 39.328766 ] } },
{ "type": "Feature", "properties": { "RCID": 799, "PRIM": 1, "GRUP": 2, "OBJL": 121, "RVER": 1, "AGEN": 550, "FIDN": 37886523, "FIDS": 50, "LNAM": "022602421A3B0032", "NATSUR": [ "1", "4" ], "SCAMIN": 499999, "SORDAT": "200303", "SORIND": "US,US,graph,Chart 12300" }, "geometry": { "type": "Point", "coordinates": [ -72.5250744, 39.4434767 ] } },
{ "type": "Feature", "properties": { "RCID": 800, "PRIM": 1, "GRUP": 2, "OBJL": 121, "RVER": 1, "AGEN": 550, "FIDN": 37886695, "FIDS": 50, "LNAM": "022602421AE70032", "NATSUR": [ "4", "17" ], "SCAMIN": 499999, "SORDAT": "200303", "SORIND": "US,US,graph,Chart 12300" }, "geometry": { "type": "Point", "coordinates": [ -72.6806456, 39.3193327 ] } },
{ "type": "Feature", "properties": { "RCID": 801, "PRIM": 1, "GRUP": 2, "OBJL": 121, "RVER": 1, "AGEN": 550, "FIDN": 37886409, "FIDS": 50, "LNAM": "0226024219C90032", "NATSUR": [ "4" ], "SCAMIN": 499999, "SORDAT": "200303", "SORIND": "US,US,graph,Chart 12300" }, "geometry": { "type": "Point", "coordinates": [ -73.9110982, 39.428526 ] } },
{ "type": "Feature", "properties": { "RCID": 802, "PRIM": 1, "GRUP": 2, "OBJL": 121, "RVER": 1, "AGEN": 550, "FIDN": 37886434, "FIDS": 50, "LNAM": "0226024219E20032", "NATSUR": [ "1", "4" ], "SCAMIN": 499999, "SORDAT": "200303", "SORIND": "US,US,graph,Chart 12300" }, "geometry": { "type": "Point", "coordinates": [ -71.965953, 39.3354734 ] } },
{ "type": "Feature", "properties": { "RCID": 803, "PRIM": 1, "GRUP": 2, "OBJL": 121, "RVER": 1, "AGEN": 550, "FIDN": 37886760, "FIDS": 50, "LNAM": "022602421B280032", "NATSUR": [ "4" ], "SCAMIN": 499999, "SORDAT": "200303", "SORIND": "US,US,graph,Chart 12300" }, "geometry": { "type": "Point", "coordinates": [ -73.3152714, 39.4534979 ] } },
{ "type": "Feature", "properties": { "RCID": 804, "PRIM": 1, "GRUP": 2, "OBJL": 121, "RVER": 1, "AGEN": 550, "FIDN": 37886670, "FIDS": 50, "LNAM": "022602421ACE0032", "NATSUR": [ "4" ], "SCAMIN": 499999, "SORDAT": "200303", "SORIND": "US,US,graph,Chart 12300" }, "geometry": { "type": "Point", "coordinates": [ -72.0999121, 39.5527238 ] } }
]
}
