{
"type": "FeatureCollection",
"name": "SLCONS",
"crs": { "type": "name", "properties": { "name": "urn:ogc:def:crs:OGC:1.3:CRS84" } },
"features": [
{ "type": "Feature", "properties": { "RCID": 110, "PRIM": 2, "GRUP": 2, "OBJL": 122, "RVER": 1, "AGEN": 550, "FIDN": 37886002, "FIDS": 50, "LNAM": "0226024218320032", "CATSLC": 4, "WATLEV": 2, "SORDAT": "201206", "SORIND": "US,US,graph,Chart 12300" }, "geometry": { "type": "LineString", "coordinates": [ [ -74.482205, 39.589861 ], [ -74.4840415, 39.591192 ] ] } }
]
}
