{
"type": "FeatureCollection",
"name": "SOUNDG",
"crs": { "type": "name", "properties": { "name": "urn:ogc:def:crs:OGC:1.3:CRS84" } },
"features": [
{ "type": "Feature", "properties": { "RCID": 805, "PRIM": 1, "GRUP": 2, "OBJL": 129, "RVER": 1, "AGEN": 550, "FIDN": 95255626, "FIDS": 8389, "LNAM": "022605AD7C4A20C5", "SCAMIN": 499999, "SORDAT": "200303", "SORIND": "US,US,graph,Chart 12300" }, "geometry": { "type": "MultiPoint", "coordinates": [ [ -74.5168529, 39.1693192, 17.3 ], [ -74.4893642, 39.1799362, 20.1 ], [ -74.4459508, 39.1745451, 18.2 ], [ -74.3873832, 39.1692484, 20.1 ], [ -74.269186, 39.242065, 20.1 ], [ -74.1749468, 39.2693129, 25.6 ], [ -74.1539625, 39.2143852, 20.1 ], [ -74.1230953, 39.3550727, 25.6 ], [ -74.118155, 39.1801415, 21.9 ], [ -74.1100044, 39.483785, 20.1 ], [ -74.1001938, 39.2203844, 23.7 ], [ -74.0808672, 39.3625111, 21.9 ], [ -74.0799974, 39.3976609, 20.1 ], [ -74.0754989, 39.2888002, 29.2 ], [ -74.0516062, 39.3405398, 21.9 ], [ -74.0448614, 39.2557097, 31.0 ], [ -74.0366326, 39.2135533, 23.7 ], [ -74.0356977, 39.1783605, 25.6 ], [ -74.0279789, 39.3119021, 25.6 ], [ -74.0279768, 39.3763181, 21.9 ], [ -74.0257273, 39.5000894, 21.9 ], [ -74.0111574, 39.4664549, 23.7 ], [ -74.0094881, 39.5240589, 21.9 ], [ -74.0064719, 39.425322, 23.7 ], [ -74.0062651, 39.2834091, 31.0 ], [ -74.0054047, 39.2498891, 25.6 ], [ -73.98881, 39.5577108, 23.7 ], [ -73.9708044, 39.5865109, 23.7 ], [ -73.9704636, 39.3258604, 27.4 ], [ -73.9630016, 39.4936618, 21.9 ], [ -73.9594866, 39.240197, 31.0 ], [ -73.9588634, 39.2829478, 29.2 ], [ -73.9554528, 39.4589963, 23.7 ], [ -73.9530922, 39.3820025, 25.6 ], [ -73.9511342, 39.353484, 25.6 ], [ -73.9490612, 39.5389655, 23.7 ], [ -73.9443811, 39.1938949, 32.9 ], [ -73.9436641, 39.5720628, 25.6 ], [ -73.9432187, 39.4202796, 25.6 ], [ -73.9161393, 39.2568058, 32.9 ], [ -73.9130218, 39.3382224, 29.2 ], [ -73.9113171, 39.3008998, 32.9 ], [ -73.9032756, 39.2166565, 31.0 ], [ -73.903201, 39.4839714, 25.6 ], [ -73.8991983, 39.3712396, 29.2 ], [ -73.8923429, 39.4103642, 29.2 ], [ -73.8802902, 39.5737815, 25.6 ], [ -73.8792965, 39.2846491, 31.0 ], [ -73.8781053, 39.4549775, 29.2 ], [ -73.8718327, 39.5193771, 25.6 ], [ -73.8622608, 39.2484729, 31.0 ], [ -73.8519241, 39.221249, 29.2 ], [ -73.8479898, 39.5953949, 29.2 ], [ -73.8394736, 39.542522, 29.2 ], [ -73.8353494, 39.4195613, 29.2 ], [ -73.8349079, 39.4819387, 27.4 ], [ -73.8314777, 39.520226, 31.0 ], [ -73.8300741, 39.3204614, 31.0 ], [ -73.8284558, 39.2699742, 31.0 ], [ -73.8227188, 39.3530255, 36.5 ], [ -73.8023958, 39.2544739, 34.7 ], [ -73.7937476, 39.5360488, 21.9 ], [ -73.7886678, 39.5901323, 20.1 ], [ -73.786041, 39.4432718, 27.4 ], [ -73.7848252, 39.204359, 45.7 ], [ -73.7791097, 39.3526194, 36.5 ], [ -73.7744468, 39.27556, 40.2 ], [ -73.7742048, 39.5556733, 25.6 ], [ -73.7652168, 39.4095898, 32.9 ], [ -73.7603391, 39.237311, 40.2 ], [ -73.7529, 39.1839674, 38.4 ], [ -73.7494193, 39.3231471, 29.2 ], [ -73.748157, 39.4890756, 25.6 ], [ -73.7328234, 39.5166438, 23.7 ], [ -73.7210546, 39.346059, 29.2 ], [ -73.7129588, 39.3055242, 43.8 ], [ -73.7126143, 39.5862298, 31.0 ], [ -73.7108293, 39.2536469, 38.4 ], [ -73.7087315, 39.404748, 31.0 ], [ -73.7058682, 39.4418604, 31.0 ], [ -73.7029365, 39.2231655, 43.8 ], [ -73.6961893, 39.2898204, 34.7 ], [ -73.6908567, 39.5644811, 27.4 ], [ -73.6831465, 39.273493, 34.7 ], [ -73.6830676, 39.4852146, 32.9 ], [ -73.6730253, 39.5647444, 29.2 ], [ -73.6724497, 39.5247962, 29.2 ], [ -73.6654928, 39.3809839, 36.5 ], [ -73.6509524, 39.1887275, 42.0 ], [ -73.6437516, 39.2885805, 38.4 ], [ -73.6434854, 39.2488913, 47.5 ], [ -73.6406637, 39.5376731, 29.2 ], [ -73.6381898, 39.4190709, 40.2 ], [ -73.6359223, 39.4964573, 31.0 ], [ -73.633107, 39.3400638, 45.7 ], [ -73.6215306, 39.4589979, 31.0 ], [ -73.6160061, 39.3752994, 38.4 ], [ -73.6158164, 39.1763093, 36.5 ], [ -73.6154988, 39.40517, 32.9 ], [ -73.610759, 39.215833, 42.0 ], [ -73.6016949, 39.2602629, 47.5 ], [ -73.5975611, 39.5896505, 34.7 ], [ -73.5968923, 39.3159903, 38.4 ], [ -73.589679, 39.4860064, 32.9 ], [ -73.5705805, 39.4099929, 43.8 ], [ -73.5653593, 39.4418676, 34.7 ], [ -73.5615127, 39.554454, 34.7 ], [ -73.5466328, 39.4737123, 38.4 ], [ -73.545374, 39.5260629, 40.2 ], [ -73.5383387, 39.2600506, 40.2 ], [ -73.535426, 39.2093612, 38.4 ], [ -73.5350098, 39.2967523, 47.5 ], [ -73.5310575, 39.5804187, 38.4 ], [ -73.5217593, 39.4649305, 32.9 ], [ -73.5134173, 39.3529563, 47.5 ], [ -73.5016007, 39.4358104, 40.2 ], [ -73.4994665, 39.5469905, 32.9 ], [ -73.4984724, 39.2040335, 40.2 ], [ -73.4932231, 39.590249, 40.2 ], [ -73.4922298, 39.4055546, 42.0 ], [ -73.4916851, 39.3243144, 42.0 ], [ -73.4904077, 39.4622229, 31.0 ], [ -73.4895103, 39.4894539, 34.7 ], [ -73.4667203, 39.4666576, 40.2 ], [ -73.4622717, 39.1943081, 51.2 ], [ -73.4555562, 39.2629449, 45.7 ], [ -73.4540082, 39.5224376, 40.2 ], [ -73.4534573, 39.3730594, 40.2 ], [ -73.4506243, 39.545797, 31.0 ], [ -73.4498007, 39.414431, 40.2 ], [ -73.4491292, 39.5897551, 34.7 ], [ -73.446506, 39.2240684, 40.2 ], [ -73.4417751, 39.4457286, 32.9 ], [ -73.4243149, 39.5708191, 32.9 ], [ -73.4230846, 39.3379258, 42.0 ], [ -73.4134995, 39.2519872, 42.0 ], [ -73.4107555, 39.4337937, 31.0 ], [ -73.4094967, 39.5131722, 34.7 ], [ -73.4045083, 39.4779447, 31.0 ], [ -73.3894898, 39.4703317, 38.4 ], [ -73.3886828, 39.4130204, 38.4 ], [ -73.3853804, 39.3592518, 47.5 ], [ -73.3761266, 39.5893788, 32.9 ], [ -73.3711766, 39.304279, 49.3 ], [ -73.3707177, 39.3407697, 47.5 ], [ -73.3658425, 39.504303, 34.7 ], [ -73.3642145, 39.44045, 32.9 ], [ -73.3626588, 39.2743142, 49.3 ], [ -73.3523387, 39.2021713, 53.0 ], [ -73.3509392, 39.4858058, 38.4 ], [ -73.3340858, 39.5588774, 34.7 ], [ -73.3276104, 39.4636523, 32.9 ], [ -73.3257627, 39.3870783, 47.5 ], [ -73.3151933, 39.581753, 32.9 ], [ -73.3124954, 39.4369973, 34.7 ], [ -73.3121473, 39.3527641, 49.3 ], [ -73.3116573, 39.1953468, 56.6 ], [ -73.308741, 39.3116635, 49.3 ], [ -73.304987, 39.5059665, 34.7 ], [ -73.2924161, 39.2521912, 58.5 ], [ -73.2817652, 39.5482076, 34.7 ], [ -73.2801371, 39.4174583, 47.5 ], [ -73.2748482, 39.2889854, 56.6 ], [ -73.2707776, 39.3882961, 53.0 ], [ -73.2665882, 39.3324519, 56.6 ], [ -73.2645191, 39.4771401, 40.2 ], [ -73.2614617, 39.5812183, 38.4 ], [ -73.2556689, 39.4408533, 40.2 ], [ -73.2328286, 39.5550526, 40.2 ], [ -73.2278829, 39.5151811, 43.8 ], [ -73.221688, 39.1876899, 62.1 ], [ -73.2184581, 39.3679151, 56.6 ], [ -73.215909, 39.5757846, 38.4 ], [ -73.2138266, 39.5467983, 36.5 ], [ -73.2088146, 39.4714968, 40.2 ], [ -73.2056409, 39.2596343, 62.1 ], [ -73.1998077, 39.5008897, 38.4 ], [ -73.1856773, 39.2277888, 64.0 ], [ -73.1799212, 39.4055562, 56.6 ], [ -73.1730503, 39.3140163, 62.1 ], [ -73.1725898, 39.3661669, 62.1 ], [ -73.1561673, 39.59549, 42.0 ], [ -73.1549635, 39.4378297, 56.6 ], [ -73.1539946, 39.4944424, 40.2 ], [ -73.14556, 39.1990715, 67.6 ], [ -73.1443635, 39.5238536, 42.0 ], [ -73.1435825, 39.5725762, 40.2 ], [ -73.1411675, 39.412013, 62.1 ], [ -73.138297, 39.2900187, 60.3 ], [ -73.1374984, 39.2499168, 62.1 ], [ -73.1171567, 39.3769326, 62.1 ], [ -73.1100943, 39.4708348, 62.1 ], [ -73.1047253, 39.4418627, 65.8 ], [ -73.1027559, 39.3271745, 60.3 ], [ -73.0950649, 39.2096253, 71.3 ], [ -73.0902208, 39.5572787, 47.5 ], [ -73.0816003, 39.2474355, 69.4 ], [ -73.0781746, 39.4071713, 64.0 ], [ -73.0744134, 39.289812, 65.8 ], [ -73.0697648, 39.3688112, 64.0 ], [ -73.0628892, 39.5345272, 65.8 ], [ -73.0498518, 39.4359862, 60.3 ], [ -73.0477193, 39.4946731, 67.6 ], [ -73.039392, 39.3164057, 67.6 ], [ -73.0285195, 39.2030045, 74.9 ], [ -73.0182572, 39.2565391, 71.3 ], [ -73.0177847, 39.4729088, 58.5 ], [ -73.0173365, 39.5194226, 67.6 ], [ -73.0110892, 39.5621098, 65.8 ], [ -73.0095429, 39.3779477, 56.6 ], [ -73.0056279, 39.2011423, 69.4 ], [ -72.9922619, 39.3432228, 71.3 ], [ -72.9879124, 39.2902313, 71.3 ], [ -72.9773528, 39.1881515, 71.3 ], [ -72.9705297, 39.317625, 60.3 ], [ -72.968215, 39.2313109, 76.8 ], [ -72.967026, 39.4777459, 60.3 ], [ -72.9666535, 39.5226429, 60.3 ], [ -72.9640505, 39.5669383, 62.1 ], [ -72.9571345, 39.4287546, 60.3 ], [ -72.9453755, 39.3622237, 73.1 ], [ -72.943299, 39.2792124, 69.4 ], [ -72.9349001, 39.201974, 78.6 ], [ -72.9271543, 39.59206, 60.3 ], [ -72.9171081, 39.2404107, 71.3 ], [ -72.9157987, 39.4239055, 65.8 ], [ -72.9151856, 39.3056037, 71.3 ], [ -72.9139766, 39.4634266, 65.8 ], [ -72.9023592, 39.5516395, 58.5 ], [ -72.8972788, 39.3891069, 74.9 ], [ -72.8955914, 39.5103559, 56.6 ], [ -72.8896856, 39.3415919, 67.6 ], [ -72.8798427, 39.273904, 74.9 ], [ -72.8776851, 39.2036986, 84.1 ], [ -72.8665336, 39.2453736, 80.4 ], [ -72.86504, 39.4585885, 62.1 ], [ -72.8578476, 39.5260667, 62.1 ], [ -72.8514579, 39.3149775, 74.9 ], [ -72.8514579, 39.3767237, 71.3 ], [ -72.836503, 39.5747877, 62.1 ], [ -72.8309405, 39.4190646, 67.6 ], [ -72.828694, 39.5067298, 65.8 ], [ -72.8244348, 39.206319, 87.7 ], [ -72.8216088, 39.3401701, 74.9 ], [ -72.8193932, 39.2899949, 82.2 ], [ -72.8079586, 39.4498476, 67.6 ], [ -72.806308, 39.5462036, 65.8 ], [ -72.7892923, 39.4888211, 58.5 ], [ -72.7877305, 39.41382, 71.3 ], [ -72.7776207, 39.3623076, 78.6 ], [ -72.775784, 39.2385462, 95.0 ], [ -72.7652318, 39.5488197, 64.0 ], [ -72.7627981, 39.2966424, 87.7 ], [ -72.7543174, 39.3905278, 80.4 ], [ -72.7477744, 39.2052845, 117.0 ], [ -72.7380129, 39.4301578, 76.8 ], [ -72.7362434, 39.3568113, 87.7 ], [ -72.7360936, 39.1687582, 126.1 ], [ -72.732026, 39.4862015, 71.3 ], [ -72.7294683, 39.2772079, 106.0 ], [ -72.7276051, 39.2410279, 117.0 ], [ -72.7209806, 39.5339196, 65.8 ], [ -72.713773, 39.5936726, 65.8 ], [ -72.7076111, 39.40837, 85.9 ], [ -72.7034463, 39.476525, 71.3 ], [ -72.6940869, 39.3332014, 104.2 ], [ -72.6923474, 39.5667359, 69.4 ], [ -72.6883959, 39.2273255, 124.3 ], [ -72.6850629, 39.1878977, 131.6 ], [ -72.6840178, 39.5149879, 69.4 ], [ -72.6754335, 39.2451637, 129.8 ], [ -72.6690865, 39.4432625, 89.6 ], [ -72.6690302, 39.3899201, 98.7 ], [ -72.6493978, 39.5315031, 74.9 ], [ -72.6424269, 39.3115099, 120.7 ], [ -72.6366179, 39.2123141, 135.3 ], [ -72.6305619, 39.4109927, 102.4 ], [ -72.6281841, 39.3686035, 115.2 ], [ -72.6280637, 39.4766254, 87.7 ], [ -72.6195353, 39.2743142, 129.8 ], [ -72.6182761, 39.5828663, 78.6 ], [ -72.6034906, 39.4601981, 98.7 ], [ -72.5987099, 39.515432, 84.1 ], [ -72.5811236, 39.2455639, 142.6 ], [ -72.5764391, 39.370229, 126.1 ], [ -72.5752119, 39.5594895, 80.4 ], [ -72.5667016, 39.2255958, 137.1 ], [ -72.5657212, 39.3187648, 135.3 ], [ -72.5587188, 39.4259193, 117.0 ], [ -72.5448547, 39.1876811, 235.9 ], [ -72.5432403, 39.5095471, 98.7 ], [ -72.5258001, 39.5637147, 89.6 ], [ -72.5163727, 39.4118086, 124.3 ], [ -72.5134858, 39.2855138, 142.6 ], [ -72.5088678, 39.248069, 140.8 ], [ -72.5010149, 39.472503, 115.2 ], [ -72.5000303, 39.5578771, 95.0 ], [ -72.4998701, 39.1736067, 320.0 ], [ -72.489772, 39.3401724, 135.3 ], [ -72.4896182, 39.5182087, 107.8 ], [ -72.4815035, 39.21789, 215.7 ], [ -72.4554622, 39.4827815, 118.8 ], [ -72.4525506, 39.5902542, 104.2 ], [ -72.4515443, 39.3868764, 129.8 ], [ -72.4473217, 39.0654562, 1212.4 ], [ -72.4385426, 39.435407, 124.3 ], [ -72.4380917, 39.154462, 751.6 ], [ -72.4348692, 39.2846588, 148.1 ], [ -72.4332721, 39.3168914, 142.6 ], [ -72.4319357, 38.9447181, 1750.1 ], [ -72.4287214, 38.8719081, 2298.800000000000182 ], [ -72.4199631, 39.2240788, 292.6 ], [ -72.4176141, 39.0083834, 1611.1 ], [ -72.4172678, 38.8172293, 2446.9 ], [ -72.4096009, 39.5987045, 415.1 ], [ -72.4094455, 39.5486165, 508.4 ], [ -72.4089249, 39.5763947, 477.3 ], [ -72.4077711, 39.1909923, 482.8 ], [ -72.4072943, 39.3399693, 142.6 ], [ -72.4043269, 39.484191, 122.5 ], [ -72.3960067, 39.2613014, 204.8 ], [ -72.3958686, 39.0863, 1058.8 ], [ -72.394746, 39.0286367, 1422.8 ], [ -72.3933973, 39.135716, 868.6 ], [ -72.3930791, 38.9362703, 2170.699999999999818 ], [ -72.3928934, 39.3716503, 138.9 ], [ -72.3892294, 39.4416572, 131.6 ], [ -72.3839992, 38.8581248, 2313.4 ], [ -72.3758666, 39.5280775, 629.1 ], [ -72.3752561, 38.9812348, 1698.9 ], [ -72.3734539, 38.7858653, 2476.1 ], [ -72.372743, 39.5621044, 107.8 ], [ -72.368063, 39.0486551, 1492.3 ], [ -72.3669943, 38.9005075, 2329.800000000000182 ], [ -72.3666512, 39.5958878, 106.0 ], [ -72.3661199, 39.2055885, 446.2 ], [ -72.3646736, 39.5022946, 307.2 ], [ -72.3621582, 39.46968, 129.8 ], [ -72.3603384, 39.2449673, 292.6 ], [ -72.350569, 39.0100039, 1539.8 ], [ -72.3494034, 39.4174556, 138.9 ], [ -72.3444998, 38.8315274, 2434.1 ], [ -72.3384707, 39.4854001, 283.4 ], [ -72.3360441, 39.3718184, 149.9 ], [ -72.3257051, 39.125138, 1095.4 ], [ -72.3251485, 39.5850502, 113.3 ], [ -72.3225745, 39.311929, 210.3 ], [ -72.3166595, 38.968867, 1954.9 ], [ -72.3129717, 39.0798249, 1347.8 ], [ -72.3121334, 39.5047145, 766.2 ], [ -72.3095316, 39.2780407, 283.4 ], [ -72.306714, 39.4095883, 159.1 ], [ -72.3003957, 38.8012379, 2534.699999999999818 ], [ -72.2983375, 39.553048, 124.3 ], [ -72.2970877, 39.1570481, 905.2 ], [ -72.2968716, 38.8729665, 2421.300000000000182 ], [ -72.2968309, 38.9023333, 2350.0 ], [ -72.2925626, 39.2096181, 671.1 ], [ -72.2845101, 39.5979005, 117.0 ], [ -72.2835239, 39.0298518, 1719.0 ], [ -72.2810761, 38.933804, 2275.0 ], [ -72.2725324, 39.2526135, 482.8 ], [ -72.2675002, 39.0988442, 1265.5 ], [ -72.2654121, 39.1912025, 806.5 ], [ -72.2607442, 39.3151981, 292.6 ], [ -72.2536125, 39.4170522, 248.7 ], [ -72.2533522, 39.4487143, 385.8 ], [ -72.2530451, 39.5735794, 124.3 ], [ -72.2494817, 39.0150677, 1854.4 ], [ -72.2410962, 39.3742917, 299.9 ], [ -72.2356037, 38.7970707, 2459.699999999999818 ], [ -72.2337828, 39.5083407, 226.7 ], [ -72.2330478, 38.8380203, 2487.1 ], [ -72.2313791, 39.0676829, 1709.9 ], [ -72.2297438, 39.1711259, 1031.4 ], [ -72.2241985, 39.4608107, 932.6 ], [ -72.2234952, 38.9917714, 2046.4 ], [ -72.219895, 39.2218236, 833.9 ], [ -72.2182313, 39.2780407, 501.0 ], [ -72.2153013, 39.5544571, 142.6 ], [ -72.1956725, 39.1388257, 1320.3 ], [ -72.1956059, 39.3135818, 442.5 ], [ -72.1942861, 39.4874094, 424.2 ], [ -72.1912716, 38.8820637, 2514.6 ], [ -72.1904356, 38.9418784, 2286.0 ], [ -72.1898609, 39.4436677, 1247.2 ], [ -72.1896418, 39.0381217, 1863.5 ], [ -72.1876581, 38.9728421, 2240.199999999999818 ], [ -72.1850252, 39.2056871, 941.8 ], [ -72.1777946, 39.3974363, 1049.7 ], [ -72.1726824, 39.5491316, 153.6 ], [ -72.1689678, 39.5790132, 148.1 ], [ -72.166326, 39.2505458, 760.7 ], [ -72.1653952, 38.8482296, 2468.800000000000182 ], [ -72.1633102, 39.4644333, 608.9 ], [ -72.1600042, 39.1872704, 1111.9 ], [ -72.1586885, 38.7780324, 2596.800000000000182 ], [ -72.1583404, 39.2910608, 662.0 ], [ -72.1563242, 39.3436307, 491.9 ], [ -72.1559527, 39.5119667, 241.4 ], [ -72.1513407, 39.1043061, 1700.7 ], [ -72.1347175, 39.2381403, 905.2 ], [ -72.1327591, 39.3718584, 1130.1 ], [ -72.1264751, 39.4012924, 1538.0 ], [ -72.1219846, 38.9092133, 2505.4 ], [ -72.1154076, 39.4914192, 323.6 ], [ -72.11502, 39.3049064, 707.7 ], [ -72.1139914, 39.0264239, 2176.199999999999818 ], [ -72.1096809, 39.5411714, 259.6 ], [ -72.1062799, 39.2154108, 1139.3 ], [ -72.1052152, 39.1533212, 1492.3 ], [ -72.104825, 39.0786111, 1982.4 ], [ -72.1002236, 38.8264568, 2340.800000000000182 ], [ -72.0878856, 38.9528636, 2395.699999999999818 ], [ -72.0874365, 38.8620182, 2487.1 ], [ -72.0852221, 39.5793186, 208.4 ], [ -72.0814397, 39.3548013, 1700.7 ], [ -72.0745475, 39.426123, 634.5 ], [ -72.0711439, 39.1947204, 1366.1 ], [ -72.0698621, 39.4777362, 427.9 ], [ -72.0670387, 39.3799794, 1185.0 ], [ -72.0663087, 39.3100714, 1384.4 ], [ -72.0661051, 39.0543237, 2154.300000000000182 ], [ -72.0641761, 38.801398, 2560.300000000000182 ], [ -72.0598683, 39.1206893, 1845.2 ], [ -72.0423524, 39.2459984, 1247.2 ], [ -72.041482, 39.5858574, 259.6 ], [ -72.0359641, 39.2743218, 1572.7 ], [ -72.0295082, 39.5327141, 418.7 ], [ -72.0159797, 39.4291483, 662.0 ], [ -72.0144472, 39.1582904, 1918.4 ], [ -72.0102207, 39.3403807, 1302.1 ], [ -72.0061956, 39.2170658, 1547.1 ], [ -72.0053073, 39.4700773, 788.2 ], [ -71.9978901, 38.9471806, 2221.9 ], [ -71.9965936, 38.8356831, 2560.300000000000182 ], [ -71.9961896, 39.5602974, 491.9 ], [ -71.9957706, 39.2894091, 1909.2 ], [ -71.9938584, 38.7765604, 2701.1 ], [ -71.9901808, 39.2499272, 1792.2 ], [ -71.9838481, 38.9225946, 2450.5 ], [ -71.9836951, 39.5065299, 652.8 ], [ -71.9835972, 39.3653594, 941.8 ], [ -71.9726002, 39.4021026, 886.9 ], [ -71.9694625, 39.1870634, 1982.4 ], [ -71.9571029, 39.5877434, 418.7 ], [ -71.9550541, 39.1173092, 2081.1 ], [ -71.9521224, 38.9745284, 2267.699999999999818 ], [ -71.9509841, 38.8749816, 2496.300000000000182 ], [ -71.9490751, 39.5307002, 662.0 ], [ -71.9483612, 39.4632289, 1194.2 ], [ -71.9411195, 38.9998749, 2395.699999999999818 ], [ -71.9310884, 39.3022204, 1366.1 ], [ -71.928037, 39.2459252, 2064.699999999999818 ], [ -71.9225899, 39.383835, 1093.6 ], [ -71.9218618, 39.2021913, 1746.5 ], [ -71.9111245, 39.5059271, 806.5 ], [ -71.9085215, 39.5665388, 652.8 ], [ -71.9034029, 39.3382092, 1428.2 ], [ -71.9023886, 39.0814527, 2157.9 ], [ -71.8872482, 39.2061108, 2128.699999999999818 ], [ -71.8792993, 39.1721645, 1898.2 ], [ -71.8785154, 38.891699, 2468.800000000000182 ], [ -71.8776533, 38.9680237, 2304.199999999999818 ], [ -71.876287, 39.2695672, 1682.4 ], [ -71.8754632, 39.5325142, 824.7 ], [ -71.8748978, 39.2341729, 2247.5 ], [ -71.8741753, 39.409991, 1655.0 ], [ -71.8700922, 38.9366964, 2267.699999999999818 ], [ -71.8521565, 39.340176, 1627.6 ], [ -71.8421582, 39.4555685, 1230.7 ], [ -71.8411034, 39.5693567, 791.8 ], [ -71.8194996, 39.0645533, 2057.4 ], [ -71.8156505, 39.3931095, 1519.7 ], [ -71.8146513, 39.2321713, 2028.1 ], [ -71.81221, 39.516402, 1068.0 ], [ -71.8077985, 39.4271365, 1455.7 ], [ -71.8011633, 38.900367, 2468.800000000000182 ], [ -71.7935861, 39.3624874, 2018.9 ], [ -71.7838895, 38.9482504, 2487.1 ], [ -71.7794812, 39.1717505, 2384.699999999999818 ], [ -71.7790411, 39.3075693, 2018.9 ], [ -71.7721236, 39.5623118, 1283.8 ], [ -71.7716851, 39.2693737, 2018.9 ], [ -71.7557247, 39.4982713, 1464.8 ], [ -71.7540837, 38.7934194, 2670.0 ], [ -71.7494026, 39.1986557, 2414.0 ], [ -71.7476106, 39.2469922, 2108.6 ], [ -71.7429295, 39.3378251, 2201.800000000000182 ], [ -71.740944, 39.4293597, 1751.9 ], [ -71.7320625, 38.9547776, 2450.5 ], [ -71.7296036, 38.8429028, 2560.300000000000182 ], [ -71.7290532, 39.3714416, 2137.800000000000182 ], [ -71.7142324, 39.4006895, 2000.7 ], [ -71.713338, 39.2936706, 2159.800000000000182 ], [ -71.7099717, 39.5458039, 1420.9 ], [ -71.7077603, 39.0749132, 2194.5 ], [ -71.6866655, 39.1661145, 2446.9 ], [ -71.6775468, 38.9190988, 2450.5 ], [ -71.6771702, 39.4436775, 1945.8 ], [ -71.6695359, 39.3851949, 2119.5 ], [ -71.6683199, 39.4833888, 2103.1 ], [ -71.6669618, 38.9656324, 2441.4 ], [ -71.6653563, 39.3445757, 2254.9 ], [ -71.6629358, 39.500805, 1810.5 ], [ -71.6573781, 39.5635979, 1484.9 ], [ -71.6455639, 39.2691474, 2203.699999999999818 ], [ -71.6423697, 39.3150226, 2364.6 ], [ -71.6419633, 39.018961, 2560.300000000000182 ], [ -71.633353, 39.0898263, 2472.5 ], [ -71.6203634, 38.7730211, 2578.6 ], [ -71.6110667, 38.8872746, 2487.1 ], [ -71.6003062, 39.4940063, 2088.4 ], [ -71.5956726, 39.2791894, 2468.800000000000182 ], [ -71.5847459, 38.9327193, 2450.5 ], [ -71.5845008, 39.2464307, 2357.300000000000182 ], [ -71.5807641, 39.3440263, 2218.300000000000182 ], [ -71.5800813, 39.5556689, 1801.3 ], [ -71.5712903, 39.0465215, 2377.4 ], [ -71.5671666, 39.1198843, 2578.6 ], [ -71.5665067, 39.0070428, 2690.1 ], [ -71.544631, 39.3757054, 2339.0 ], [ -71.5404498, 38.8902169, 2377.4 ], [ -71.5391654, 39.0889362, 2510.9 ], [ -71.5383302, 39.5848553, 2141.5 ], [ -71.5348323, 39.2767954, 2505.4 ], [ -71.5286089, 39.542841, 1947.6 ], [ -71.527096, 38.8196366, 2560.300000000000182 ], [ -71.517851, 39.4956431, 2178.1 ], [ -71.5126496, 39.1591986, 2637.1 ], [ -71.5008947, 39.4489127, 2181.699999999999818 ], [ -71.4965466, 39.3092649, 2487.1 ], [ -71.4836236, 39.3870739, 2355.4 ], [ -71.4766966, 38.9403884, 2496.300000000000182 ], [ -71.4742306, 39.1173589, 2651.699999999999818 ], [ -71.4700358, 39.2083792, 2591.4 ], [ -71.4691162, 39.5688126, 2029.9 ], [ -71.4575535, 38.8485177, 2560.300000000000182 ], [ -71.446705, 39.3438231, 2414.0 ], [ -71.4447578, 39.0686584, 2651.699999999999818 ], [ -71.4286681, 39.4849404, 2286.0 ], [ -71.4240537, 39.1503674, 2651.699999999999818 ], [ -71.413927, 38.9953634, 2560.300000000000182 ], [ -71.4137014, 39.260265, 2622.4 ], [ -71.4072817, 39.5141836, 2194.5 ], [ -71.4060415, 39.5852291, 1907.4 ], [ -71.4036911, 39.3174703, 2600.5 ], [ -71.3939293, 39.3681857, 2553.0 ], [ -71.3820855, 39.044612, 2670.0 ], [ -71.3816134, 38.8170409, 2642.6 ], [ -71.3807626, 38.9310958, 2651.699999999999818 ], [ -71.3653016, 39.4551993, 2267.699999999999818 ], [ -71.3556653, 38.8981951, 2633.4 ], [ -71.3522655, 39.3891163, 2487.1 ], [ -71.3483093, 39.3126734, 2585.9 ], [ -71.3457846, 39.0933135, 2686.5 ], [ -71.3359978, 39.2269607, 2642.6 ], [ -71.3319933, 38.7868338, 2688.300000000000182 ], [ -71.3301561, 39.1602108, 2688.300000000000182 ], [ -71.3232044, 39.5272755, 2276.800000000000182 ], [ -71.3115981, 39.5858351, 1962.3 ], [ -71.3075691, 39.5013086, 2346.300000000000182 ], [ -71.3021772, 38.973083, 2715.699999999999818 ], [ -71.2772764, 39.4288561, 2450.5 ], [ -71.2608278, 38.8110447, 2688.300000000000182 ], [ -71.2526325, 39.010424, 2724.9 ], [ -71.2468085, 39.3279465, 2468.800000000000182 ], [ -71.2463684, 39.1546439, 2743.199999999999818 ], [ -71.2384379, 39.4533442, 2333.5 ], [ -71.2354656, 39.2975232, 2414.0 ], [ -71.2285046, 39.521422, 2126.800000000000182 ], [ -71.2200425, 39.1861414, 2688.300000000000182 ], [ -71.1964875, 39.560686, 2328.0 ], [ -71.1921497, 38.7984022, 3072.300000000000182 ], [ -71.184717, 38.9041072, 2743.199999999999818 ], [ -71.1642307, 38.859106, 2911.4 ], [ -71.1576595, 39.4572817, 2450.5 ], [ -71.1499431, 39.250128, 2697.4 ], [ -71.1423975, 39.1093334, 2670.0 ], [ -71.1405981, 39.0440049, 2578.6 ], [ -71.14046, 38.9960361, 2761.4 ], [ -71.1274921, 38.9018515, 2999.199999999999818 ], [ -71.1208113, 38.8262402, 2779.699999999999818 ], [ -71.1138595, 39.3395642, 2414.0 ], [ -71.1107024, 39.218513, 2706.6 ], [ -71.1098734, 39.4864066, 2459.699999999999818 ], [ -71.1041995, 38.779772, 2889.5 ], [ -71.0979652, 38.9307261, 2871.199999999999818 ], [ -71.0900058, 39.1474316, 2675.5 ], [ -71.0728438, 39.3986458, 2468.800000000000182 ], [ -71.067444, 39.5774004, 2340.800000000000182 ], [ -71.0661625, 39.4329392, 2414.0 ], [ -71.0581723, 39.2804754, 2560.300000000000182 ], [ -71.0468803, 39.5137768, 2468.800000000000182 ], [ -71.0383624, 39.2118955, 2596.800000000000182 ], [ -71.0281238, 39.1250309, 2668.199999999999818 ], [ -71.0239973, 39.5425894, 2395.699999999999818 ], [ -71.0236219, 38.8000371, 2834.6 ], [ -71.0011654, 39.3153244, 2633.4 ], [ -70.9993632, 39.0835728, 2633.4 ], [ -70.9859384, 38.9777805, 2798.0 ], [ -70.9847809, 39.1815981, 2578.6 ], [ -70.9811534, 38.9183554, 2816.300000000000182 ], [ -70.9778173, 39.0189699, 2743.199999999999818 ], [ -70.9749179, 39.3759108, 2553.0 ], [ -70.9739961, 39.4849959, 2454.199999999999818 ], [ -70.9737358, 39.4325814, 2432.300000000000182 ], [ -70.9686706, 39.2579283, 2670.0 ], [ -70.9593248, 38.8633691, 2779.699999999999818 ], [ -70.9435885, 39.1218664, 2651.699999999999818 ], [ -70.9414583, 39.5286813, 2404.800000000000182 ], [ -70.9409377, 39.5681424, 2419.5 ], [ -70.9355934, 38.8221333, 2852.9 ], [ -70.9249075, 39.3683984, 2441.4 ], [ -70.9136487, 39.3332625, 2450.5 ], [ -70.912095, 39.1801972, 2706.6 ], [ -70.9113937, 39.2152055, 2560.300000000000182 ], [ -70.9096935, 38.9524621, 2907.699999999999818 ], [ -70.8930593, 38.8836642, 2779.699999999999818 ], [ -70.8623644, 39.3708385, 2653.5 ], [ -70.8611959, 39.1048564, 2660.9 ], [ -70.8599158, 39.2665814, 2688.300000000000182 ], [ -70.8572328, 39.5773993, 2377.4 ], [ -70.8505486, 39.0547034, 2810.800000000000182 ], [ -70.8440863, 38.8173019, 2798.0 ], [ -70.8383042, 39.3040796, 2560.300000000000182 ], [ -70.8373399, 38.9177728, 2770.6 ], [ -70.8328649, 38.9833208, 2889.5 ], [ -70.8010388, 39.1818414, 2706.6 ], [ -70.7866944, 39.3956049, 2395.699999999999818 ], [ -70.7773449, 39.0125808, 2743.199999999999818 ], [ -70.7615813, 38.9410627, 2788.9 ], [ -70.7597847, 39.0958387, 2788.9 ], [ -70.7546741, 39.5570703, 2340.800000000000182 ], [ -70.7541908, 39.2428963, 2624.300000000000182 ], [ -70.7524754, 38.9857009, 2834.6 ], [ -70.7507949, 38.782561, 2779.699999999999818 ], [ -70.7462982, 38.8637557, 2779.699999999999818 ], [ -70.744032, 39.1416107, 2660.9 ], [ -70.7437984, 39.0518158, 2743.199999999999818 ], [ -70.7427062, 39.3452508, 2487.1 ], [ -70.7362551, 39.4670822, 2386.5 ], [ -70.7281821, 39.3007694, 2560.300000000000182 ], [ -70.7206531, 39.5131791, 2377.4 ], [ -70.7198008, 39.4326082, 2728.5 ], [ -70.6975368, 39.0489281, 2798.0 ], [ -70.6919328, 39.1786794, 2697.4 ], [ -70.6896773, 39.585054, 2304.199999999999818 ], [ -70.676088, 39.1144739, 2734.0 ], [ -70.6689618, 39.3748929, 2478.0 ], [ -70.6674876, 38.9241182, 2825.4 ], [ -70.642823, 39.5268754, 2304.199999999999818 ], [ -70.6412771, 38.9690858, 2779.699999999999818 ], [ -70.6389411, 39.2747918, 2743.199999999999818 ], [ -70.6372503, 38.779313, 2816.300000000000182 ], [ -70.6291674, 39.4257114, 2468.800000000000182 ], [ -70.6224381, 38.8463446, 2834.6 ], [ -70.6151672, 39.024498, 2743.199999999999818 ], [ -70.6076926, 39.3484943, 2633.4 ], [ -70.5940521, 39.4535024, 2432.300000000000182 ], [ -70.5809864, 38.9136939, 2871.199999999999818 ], [ -70.5707276, 39.2519902, 2743.199999999999818 ], [ -70.5665474, 39.1482607, 2734.0 ], [ -70.5658113, 39.3069677, 2743.199999999999818 ], [ -70.5524457, 39.3618979, 2633.4 ], [ -70.5374799, 39.5403636, 2414.0 ], [ -70.5304495, 38.8097024, 2779.699999999999818 ], [ -70.5256069, 39.0726279, 2697.4 ], [ -70.5243023, 38.8578748, 2852.9 ], [ -70.5042509, 39.4756837, 2377.4 ], [ -70.4996508, 38.9869191, 2816.300000000000182 ], [ -70.4983564, 39.1188283, 2706.6 ], [ -70.4744871, 39.5139809, 2468.800000000000182 ], [ -70.4734352, 39.3592647, 2606.0 ], [ -70.4656368, 39.5745856, 2359.1 ], [ -70.4656323, 39.4059291, 2542.0 ], [ -70.4501284, 39.0516999, 2779.699999999999818 ], [ -70.4444807, 39.2805213, 2596.800000000000182 ], [ -70.4336431, 38.9341773, 2834.6 ], [ -70.4325225, 38.9660783, 2834.6 ], [ -70.4276129, 38.8654932, 2852.9 ], [ -70.417956, 38.7858107, 2798.0 ], [ -70.4147563, 39.166992, 2743.199999999999818 ], [ -70.4111995, 38.8266428, 2834.6 ], [ -70.4014816, 39.0229333, 2779.699999999999818 ], [ -70.4008404, 39.4034651, 2542.0 ], [ -70.3850015, 39.1044957, 2743.199999999999818 ], [ -70.3794771, 39.5157939, 2249.4 ], [ -70.3745158, 38.8870074, 3035.800000000000182 ], [ -70.3618939, 39.3401731, 2651.699999999999818 ], [ -70.3557162, 38.9769842, 2798.0 ], [ -70.3533992, 39.0393015, 2834.6 ], [ -70.3439027, 39.2244409, 2633.4 ], [ -70.3433038, 39.3988526, 2560.300000000000182 ], [ -70.3412489, 38.8027838, 2834.6 ], [ -70.3410514, 39.4590757, 2414.0 ], [ -70.338493, 39.0834525, 2648.1 ], [ -70.3379176, 38.7778853, 2871.199999999999818 ], [ -70.3342299, 39.5727828, 2304.199999999999818 ], [ -70.3292209, 39.1764027, 2743.199999999999818 ], [ -70.3282566, 38.8629538, 2743.199999999999818 ], [ -70.3215049, 39.280108, 2715.699999999999818 ], [ -70.305286, 38.9460961, 2858.4 ], [ -70.30328, 38.9941593, 2651.699999999999818 ], [ -70.3030855, 39.4925264, 2377.4 ], [ -70.2734982, 39.4347378, 2560.300000000000182 ], [ -70.2560808, 39.315441, 2670.0 ], [ -70.240569, 38.9132929, 2761.4 ], [ -70.2376654, 39.1762763, 2670.0 ], [ -70.2339841, 39.2282327, 2710.199999999999818 ], [ -70.2269284, 39.0958387, 2743.199999999999818 ], [ -70.225445, 39.1306001, 2651.699999999999818 ], [ -70.2130233, 38.8627684, 2880.300000000000182 ], [ -70.2121608, 39.2722532, 2688.300000000000182 ], [ -70.1966291, 39.4400463, 2478.0 ], [ -70.1844534, 38.7792367, 2926.0 ], [ -70.1835983, 39.3342853, 2651.699999999999818 ], [ -70.1816516, 39.0112211, 2743.199999999999818 ], [ -70.1704056, 38.9374264, 2779.699999999999818 ], [ -70.1635893, 39.4057242, 2523.699999999999818 ], [ -70.1629517, 39.5176152, 2212.800000000000182 ], [ -70.1509525, 39.1457866, 2642.6 ], [ -70.1479384, 38.8880763, 2926.0 ], [ -70.1463999, 38.834346, 2907.699999999999818 ], [ -70.1352018, 39.0545274, 2679.1 ], [ -70.1295509, 39.4771212, 2432.300000000000182 ], [ -70.1195607, 38.7803072, 2743.199999999999818 ], [ -70.1127227, 38.9071794, 2724.9 ], [ -70.1058336, 39.366578, 2615.1 ], [ -70.100529, 39.5274827, 2240.199999999999818 ], [ -70.0976096, 39.2403652, 2633.4 ], [ -70.0969764, 38.9823321, 2823.6 ], [ -70.0866505, 39.3256747, 2569.4 ], [ -70.0777126, 39.0839336, 2596.800000000000182 ], [ -70.0719231, 39.3059279, 2633.4 ], [ -70.0585938, 39.4586705, 2490.800000000000182 ], [ -70.0582269, 39.3874838, 2587.699999999999818 ], [ -70.0494983, 39.1998565, 2596.800000000000182 ], [ -70.0083057, 39.2482614, 2615.1 ], [ -70.0048878, 38.8609392, 2873.0 ], [ -70.0027152, 39.1535052, 2622.4 ], [ -70.0026572, 39.095478, 2637.1 ], [ -70.0013315, 38.8055929, 2935.199999999999818 ], [ -69.9999504, 38.9201867, 2840.1 ], [ -69.9972788, 39.210915, 2606.0 ], [ -69.9935104, 39.3939128, 2518.199999999999818 ], [ -69.9927643, 39.5693597, 2291.4 ], [ -69.9892078, 39.4501532, 2428.6 ], [ -69.9750329, 39.2827844, 2585.9 ], [ -69.9709411, 38.9731278, 2993.699999999999818 ], [ -69.9403976, 39.4708171, 2461.5 ], [ -69.9280634, 38.9536694, 2814.5 ], [ -69.9197963, 39.2461779, 2578.6 ], [ -69.9150449, 39.3014374, 2556.6 ], [ -69.9109647, 39.1366751, 2679.1 ], [ -69.9090848, 39.0443556, 2660.9 ], [ -69.8821805, 39.5655301, 2139.6 ], [ -69.8788715, 38.8447171, 2944.300000000000182 ], [ -69.8764724, 39.2181207, 2637.1 ], [ -69.8763328, 38.7856594, 3050.4 ], [ -69.8674776, 38.8907484, 2962.6 ], [ -69.8623976, 39.5174068, 2335.300000000000182 ], [ -69.859678, 39.1581865, 2624.300000000000182 ], [ -69.8588506, 39.2766864, 2547.5 ], [ -69.8585335, 38.9747693, 2852.9 ], [ -69.8567896, 39.4621932, 2392.0 ], [ -69.8543709, 39.3819769, 2465.199999999999818 ], [ -69.8181357, 39.0989649, 2743.199999999999818 ], [ -69.8146701, 39.3189806, 2507.199999999999818 ], [ -69.7826757, 39.0407456, 2849.199999999999818 ], [ -69.7762153, 39.1872796, 2606.0 ], [ -69.772699, 39.4544131, 2523.699999999999818 ], [ -69.7654003, 39.2486987, 2556.6 ], [ -69.7625906, 38.9933886, 2944.300000000000182 ], [ -69.7611404, 39.5508349, 2295.1 ], [ -69.7541333, 38.9345813, 2968.1 ], [ -69.7505999, 39.3613, 2481.6 ], [ -69.74665, 38.8894123, 2971.800000000000182 ], [ -69.7427909, 39.086304, 2779.699999999999818 ], [ -69.7415408, 39.4223642, 2435.9 ], [ -69.7382339, 39.5840455, 2249.4 ], [ -69.7291554, 38.8254228, 2980.9 ], [ -69.7207937, 39.5222408, 2359.1 ], [ -69.6990186, 39.3962188, 2432.300000000000182 ], [ -69.6958621, 39.0566284, 2832.800000000000182 ], [ -69.6951901, 39.1224993, 2766.9 ], [ -69.690868, 38.9978458, 2913.199999999999818 ], [ -69.68891, 39.2376746, 2607.800000000000182 ], [ -69.6732403, 39.4754962, 2333.5 ], [ -69.6701522, 39.3426112, 2492.6 ], [ -69.6696463, 38.7811353, 3136.300000000000182 ], [ -69.6596197, 39.201566, 2578.6 ], [ -69.6507127, 38.8449082, 3141.800000000000182 ], [ -69.6399429, 38.8788568, 3123.5 ], [ -69.6294335, 39.4232603, 2401.199999999999818 ], [ -69.6291909, 39.5131741, 2218.300000000000182 ], [ -69.6291909, 39.5687478, 2211.0 ], [ -69.6279955, 39.2722656, 2520.0 ], [ -69.6246024, 39.0251905, 2885.800000000000182 ], [ -69.6209144, 39.0731507, 2788.9 ], [ -69.6177043, 38.9315396, 2990.0 ], [ -69.5954976, 38.9794074, 2944.300000000000182 ], [ -69.5938889, 38.7968978, 3145.5 ], [ -69.5790162, 38.9043744, 3006.5 ], [ -69.5753912, 39.1646386, 2730.300000000000182 ], [ -69.5745289, 39.4675892, 2364.6 ], [ -69.5724837, 39.30472, 2483.5 ], [ -69.5706231, 39.5504296, 2322.5 ], [ -69.5636563, 39.2104108, 2724.9 ], [ -69.5622314, 39.0765971, 2918.699999999999818 ], [ -69.5399257, 39.0150774, 2955.300000000000182 ], [ -69.5169254, 39.4503528, 2340.800000000000182 ], [ -69.5081582, 39.33246, 2529.199999999999818 ], [ -69.5051879, 39.2633564, 2606.0 ], [ -69.5042052, 39.2052258, 2602.300000000000182 ], [ -69.5031833, 39.3998736, 2428.6 ], [ -69.4983479, 38.9825982, 2971.800000000000182 ], [ -69.4833934, 38.8832062, 3068.699999999999818 ], [ -69.4826413, 39.5248563, 2419.5 ], [ -69.4778558, 39.0662526, 2891.300000000000182 ], [ -69.4567428, 39.2571542, 2766.9 ], [ -69.4565058, 39.2243764, 2724.9 ], [ -69.4534147, 39.1556561, 2821.800000000000182 ], [ -69.4507069, 39.0984369, 2902.300000000000182 ], [ -69.4448151, 38.9875261, 2944.300000000000182 ], [ -69.4395577, 39.3698299, 2593.199999999999818 ], [ -69.4389279, 39.4107998, 2682.800000000000182 ], [ -69.4280177, 39.5091433, 2328.0 ], [ -69.4179411, 39.3188588, 3083.300000000000182 ], [ -69.4049039, 38.9402662, 3055.9 ], [ -69.3892041, 39.0270264, 2962.6 ], [ -69.3768733, 39.4503583, 2456.0 ], [ -69.3696291, 39.1277645, 2788.9 ], [ -69.3667734, 39.2850598, 2693.800000000000182 ], [ -69.3639456, 39.0639669, 2938.800000000000182 ], [ -69.3636468, 39.1791854, 3023.0 ], [ -69.339565, 38.9622413, 3030.300000000000182 ], [ -69.3357126, 39.3954066, 2560.300000000000182 ], [ -69.3332692, 39.0741915, 3072.300000000000182 ], [ -69.3269381, 39.2721393, 2776.1 ], [ -69.3244178, 39.5065244, 2414.0 ], [ -69.3142661, 39.5675382, 2267.699999999999818 ], [ -69.3056543, 39.4680002, 2456.0 ], [ -69.3045544, 39.3639395, 2620.6 ], [ -69.2988971, 39.2277897, 2816.300000000000182 ] ] } },
{ "type": "Feature", "properties": { "RCID": 806, "PRIM": 1, "GRUP": 2, "OBJL": 129, "RVER": 1, "AGEN": 550, "FIDN": -1622354520, "FIDS": 8389, "LNAM": "02269F4CD5A820C5", "SCAMIN": 499999, "SORDAT": "20150702", "SORIND": "US,US,graph,W00295" }, "geometry": { "type": "MultiPoint", "coordinates": [ [ -74.2566863, 39.1799959, 17.5 ], [ -74.2299762, 39.197861, 19.0 ], [ -74.2127861, 39.1798859, 20.0 ], [ -74.1838659, 39.2195861, 26.9 ], [ -74.1831909, 39.192101, 21.1 ], [ -74.1560408, 39.2370312, 31.1 ], [ -74.1532558, 39.192966, 23.2 ], [ -74.1240856, 39.2389762, 24.2 ], [ -74.0975555, 39.2582713, 27.3 ] ] } },
{ "type": "Feature", "properties": { "RCID": 807, "PRIM": 1, "GRUP": 2, "OBJL": 129, "RVER": 1, "AGEN": 550, "FIDN": 748029770, "FIDS": 8389, "LNAM": "02262C96074A20C5", "SCAMIN": 499999, "SORDAT": "20041130", "SORIND": "US,US,graph,H-11243" }, "geometry": { "type": "MultiPoint", "coordinates": [ [ -74.3079361, 39.1801972, 19.2 ] ] } },
{ "type": "Feature", "properties": { "RCID": 808, "PRIM": 1, "GRUP": 2, "OBJL": 129, "RVER": 1, "AGEN": 550, "FIDN": -1874542086, "FIDS": 8389, "LNAM": "02269044C1FA20C5", "EXPSOU": 3, "SCAMIN": 499999, "SORDAT": "200303", "SORIND": "US,US,graph,Chart 12300" }, "geometry": { "type": "MultiPoint", "coordinates": [ [ -73.7789719, 39.3117221, 40.2 ], [ -73.4898937, 39.2538481, 49.3 ], [ -73.441981, 39.2945677, 47.5 ], [ -73.0097153, 39.4311747, 65.8 ], [ -70.6183578, 39.2040318, 2834.6 ], [ -70.4971452, 39.2056051, 2748.6 ] ] } },
{ "type": "Feature", "properties": { "RCID": 809, "PRIM": 1, "GRUP": 2, "OBJL": 129, "RVER": 1, "AGEN": 550, "FIDN": 1284052504, "FIDS": 8389, "LNAM": "02264C89161820C5", "SCAMIN": 499999, "SORDAT": "201206", "SORIND": "US,US,graph,Chart 12300" }, "geometry": { "type": "MultiPoint", "coordinates": [ [ -74.2467247, 39.2129225, 21.9 ], [ -74.1941813, 39.2468366, 18.6 ], [ -72.5895399, 39.1870267, 135.3 ], [ -72.5734518, 39.174126, 208.4 ], [ -69.4832974, 38.8297473, 3114.4 ], [ -69.4236075, 38.8142633, 3229.6 ], [ -69.412143, 38.8864672, 3172.9 ], [ -69.3841468, 38.7763064, 3205.800000000000182 ], [ -69.2913503, 38.7885218, 3187.5 ], [ -69.2879109, 38.8494634, 3132.699999999999818 ] ] } },
{ "type": "Feature", "properties": { "RCID": 810, "PRIM": 1, "GRUP": 2, "OBJL": 129, "RVER": 1, "AGEN": 550, "FIDN": -1397667354, "FIDS": 8389, "LNAM": "0226ACB149E620C5", "SCAMIN": 499999, "SORDAT": "20050418", "SORIND": "US,US,graph,H-11242" }, "geometry": { "type": "MultiPoint", "coordinates": [ [ -74.3314924, 39.1810367, 16.4 ], [ -74.2978914, 39.2024763, 20.1 ], [ -74.2840637, 39.1827706, 14.6 ], [ -74.2630647, 39.2040805, 20.1 ], [ -74.2564715, 39.2743228, 13.7 ], [ -74.2412208, 39.3094896, 23.7 ], [ -74.2041031, 39.2893729, 20.1 ], [ -74.1934279, 39.3265019, 23.7 ], [ -74.1768372, 39.3098452, 20.1 ], [ -74.1724582, 39.3807478, 19.2 ], [ -74.1463642, 39.2646195, 20.1 ], [ -74.1416459, 39.3297046, 21.9 ], [ -74.1350048, 39.3823182, 16.4 ], [ -74.1332114, 39.2866776, 25.6 ], [ -74.1211149, 39.419384, 20.1 ], [ -74.1182756, 39.3087039, 25.6 ], [ -74.1085132, 39.4081871, 19.2 ], [ -74.1014138, 39.376781, 20.1 ], [ -74.091182, 39.4380359, 20.1 ], [ -74.0904944, 39.4639703, 20.1 ], [ -74.0858553, 39.4833194, 19.2 ], [ -74.0811437, 39.1892019, 19.2 ], [ -74.0683768, 39.3211806, 21.9 ], [ -74.0602505, 39.4222216, 21.9 ], [ -74.0536169, 39.4729926, 20.1 ] ] } },
{ "type": "Feature", "properties": { "RCID": 811, "PRIM": 1, "GRUP": 2, "OBJL": 129, "RVER": 1, "AGEN": 550, "FIDN": 52411518, "FIDS": 8389, "LNAM": "0226031FBC7E20C5", "SCAMIN": 499999, "SORDAT": "200506", "SORIND": "US,US,graph,Chart 12300" }, "geometry": { "type": "MultiPoint", "coordinates": [ [ -74.2091361, 39.2143411, 21.9 ] ] } },
{ "type": "Feature", "properties": { "RCID": 812, "PRIM": 1, "GRUP": 2, "OBJL": 129, "RVER": 1, "AGEN": 550, "FIDN": -1007511424, "FIDS": 8389, "LNAM": "0226C3F2988020C5", "SCAMIN": 499999, "SORDAT": "20051009", "SORIND": "US,US,graph,H-11455" }, "geometry": { "type": "MultiPoint", "coordinates": [ [ -74.0898573, 39.5147086, 19.2 ], [ -74.0726776, 39.5842666, 20.1 ], [ -74.0390969, 39.5573352, 21.3 ] ] } },
{ "type": "Feature", "properties": { "RCID": 813, "PRIM": 1, "GRUP": 2, "OBJL": 129, "RVER": 1, "AGEN": 550, "FIDN": -1803816043, "FIDS": 8389, "LNAM": "0226947BF39520C5", "SCAMIN": 499999, "SORDAT": "200805", "SORIND": "US,US,graph,Chart 12300" }, "geometry": { "type": "MultiPoint", "coordinates": [ [ -73.9046973, 39.5496598, 25.6 ] ] } }
]
}
