{
"type": "FeatureCollection",
"name": "TESARE",
"crs": { "type": "name", "properties": { "name": "urn:ogc:def:crs:OGC:1.3:CRS84" } },
"features": [
{ "type": "Feature", "properties": { "RCID": 739, "PRIM": 3, "GRUP": 2, "OBJL": 135, "RVER": 1, "AGEN": 550, "FIDN": -1227368623, "FIDS": 20317, "LNAM": "0226B6D7D7514F5D", "NATION": "US", "INFORM": "For more information about maritime zones, please refer to the Coast Pilot, Chapter 1.", "SCAMIN": 999999, "SORDAT": "20240119", "SORIND": "US,US,reprt,L-30-2024" }, "geometry": { "type": "Polygon", "coordinates": [ [ [ -74.3389793, 39.166667 ], [ -74.3376939, 39.166667 ], [ -74.3356275, 39.1672898 ], [ -74.3256373, 39.1706142 ], [ -74.3187561, 39.172799 ], [ -74.3146378, 39.1741885 ], [ -74.3064972, 39.177134 ], [ -74.3024774, 39.1786889 ], [ -74.2945451, 39.1819609 ], [ -74.2867635, 39.1854461 ], [ -74.2791422, 39.1891398 ], [ -74.2723961, 39.1926079 ], [ -74.2616486, 39.1984599 ], [ -74.2580344, 39.2005334 ], [ -74.2509481, 39.2048256 ], [ -74.238574, 39.2128607 ], [ -74.2318875, 39.2175262 ], [ -74.2254135, 39.2223701 ], [ -74.2222587, 39.2248569 ], [ -74.2161182, 39.2299572 ], [ -74.2102096, 39.2352206 ], [ -74.2045396, 39.2406409 ], [ -74.1991157, 39.2462116 ], [ -74.1964979, 39.2490513 ], [ -74.1916248, 39.2546328 ], [ -74.1854595, 39.2592508 ], [ -74.1823032, 39.2617377 ], [ -74.1761594, 39.2668379 ], [ -74.1702475, 39.2721014 ], [ -74.1671497, 39.2750134 ], [ -74.1617583, 39.279507 ], [ -74.1587724, 39.2821188 ], [ -74.153267, 39.287186 ], [ -74.1487103, 39.2907474 ], [ -74.1456087, 39.2932768 ], [ -74.1395773, 39.2984593 ], [ -74.1366495, 39.301111 ], [ -74.1309743, 39.3065312 ], [ -74.1282287, 39.3092982 ], [ -74.1229251, 39.3149414 ], [ -74.1178774, 39.3207247 ], [ -74.1138793, 39.3255373 ], [ -74.1115195, 39.3285117 ], [ -74.1070019, 39.3345541 ], [ -74.1027576, 39.3407151 ], [ -74.0993709, 39.3460366 ], [ -74.0954773, 39.3514825 ], [ -74.091371, 39.3577 ], [ -74.0875461, 39.3640248 ], [ -74.0840247, 39.3703257 ], [ -74.0819203, 39.374261 ], [ -74.0789342, 39.3790321 ], [ -74.0788588, 39.3791597 ], [ -74.0770568, 39.3822074 ], [ -74.074467, 39.3868457 ], [ -74.0684399, 39.3929988 ], [ -74.0658166, 39.3958383 ], [ -74.060763, 39.4016216 ], [ -74.055972, 39.4075379 ], [ -74.050926, 39.4143114 ], [ -74.0458717, 39.4198876 ], [ -74.0433765, 39.4227964 ], [ -74.0385838, 39.4287127 ], [ -74.0355546, 39.4327042 ], [ -74.0314415, 39.4371085 ], [ -74.0263849, 39.4428918 ], [ -74.0191319, 39.4517455 ], [ -74.0127098, 39.4597845 ], [ -74.0104128, 39.4627902 ], [ -74.005966, 39.4688627 ], [ -74.0038053, 39.4719288 ], [ -74.0000057, 39.477531 ], [ -73.9971496, 39.4815568 ], [ -73.9934729, 39.4869998 ], [ -73.9934248, 39.4870644 ], [ -73.9906483, 39.4907982 ], [ -73.986819, 39.4957428 ], [ -73.9845885, 39.4987792 ], [ -73.9794645, 39.5060687 ], [ -73.9760496, 39.511189 ], [ -73.9733295, 39.5150262 ], [ -73.9663534, 39.5252005 ], [ -73.9618205, 39.5310166 ], [ -73.9595891, 39.5340529 ], [ -73.9574262, 39.5371189 ], [ -73.9543788, 39.5416685 ], [ -73.9483129, 39.5489454 ], [ -73.9437608, 39.5546077 ], [ -73.9373958, 39.5630592 ], [ -73.9344527, 39.5667388 ], [ -73.9310413, 39.5712399 ], [ -73.9252294, 39.5786692 ], [ -73.9191987, 39.5867426 ], [ -73.9102214, 39.5992446 ], [ -73.9097207, 39.6 ], [ -73.9102451, 39.6 ], [ -73.9106329, 39.599415 ], [ -73.919606, 39.5869187 ], [ -73.9256292, 39.5788554 ], [ -73.9314397, 39.5714277 ], [ -73.934852, 39.5669255 ], [ -73.9378011, 39.5632379 ], [ -73.9441601, 39.5547944 ], [ -73.9487072, 39.5491382 ], [ -73.9547856, 39.541845 ], [ -73.9578374, 39.5372892 ], [ -73.9599964, 39.5342288 ], [ -73.9622238, 39.5311979 ], [ -73.9667602, 39.525377 ], [ -73.9737402, 39.5151971 ], [ -73.9764656, 39.5113519 ], [ -73.9798756, 39.506239 ], [ -73.9849956, 39.498955 ], [ -73.987222, 39.4959242 ], [ -73.9910527, 39.4909776 ], [ -73.9938781, 39.4871782 ], [ -73.9975605, 39.4817272 ], [ -74.0004175, 39.4777 ], [ -74.0042161, 39.4720991 ], [ -74.0063731, 39.4690384 ], [ -74.0108157, 39.4629716 ], [ -74.0131086, 39.4599713 ], [ -74.0195259, 39.4519381 ], [ -74.0267749, 39.4430892 ], [ -74.0318224, 39.4373163 ], [ -74.0359294, 39.4329185 ], [ -74.0389824, 39.4288994 ], [ -74.0437664, 39.4229938 ], [ -74.0462571, 39.4200902 ], [ -74.0513045, 39.4145217 ], [ -74.0563704, 39.4077247 ], [ -74.0611529, 39.401819 ], [ -74.0661972, 39.3960462 ], [ -74.0688158, 39.3932118 ], [ -74.0748562, 39.3870438 ], [ -74.0774815, 39.3823551 ], [ -74.0793555, 39.3791855 ], [ -74.0823371, 39.3744216 ], [ -74.0844529, 39.3704671 ], [ -74.0879707, 39.3641726 ], [ -74.0917887, 39.3578591 ], [ -74.0958876, 39.3516529 ], [ -74.0997764, 39.3462136 ], [ -74.1031716, 39.3408799 ], [ -74.1074082, 39.33473 ], [ -74.1119176, 39.3286985 ], [ -74.1142731, 39.3257295 ], [ -74.118266, 39.3209231 ], [ -74.1233054, 39.3151493 ], [ -74.1285994, 39.3095162 ], [ -74.1313401, 39.3067543 ], [ -74.1370051, 39.3013438 ], [ -74.1399276, 39.2986969 ], [ -74.145948, 39.2935237 ], [ -74.149044, 39.2909989 ], [ -74.1536247, 39.2874166 ], [ -74.1591226, 39.2823563 ], [ -74.162103, 39.2797493 ], [ -74.1674869, 39.275262 ], [ -74.1706028, 39.2723342 ], [ -74.1765041, 39.2670802 ], [ -74.1826368, 39.2619892 ], [ -74.1857875, 39.2595068 ], [ -74.1919796, 39.2548661 ], [ -74.1968779, 39.2492592 ], [ -74.1994909, 39.2464246 ], [ -74.2049051, 39.240864 ], [ -74.2105648, 39.2354535 ], [ -74.2164628, 39.2301995 ], [ -74.2225922, 39.2251084 ], [ -74.2257413, 39.222626 ], [ -74.2322036, 39.2177909 ], [ -74.238878, 39.2131338 ], [ -74.2512397, 39.2051068 ], [ -74.2583133, 39.2008223 ], [ -74.2619209, 39.1987526 ], [ -74.2726554, 39.1929076 ], [ -74.2793944, 39.1894431 ], [ -74.287002, 39.185756 ], [ -74.2947696, 39.1822772 ], [ -74.3026876, 39.1790111 ], [ -74.3067002, 39.1774589 ], [ -74.3148261, 39.1745187 ], [ -74.318937, 39.1731318 ], [ -74.3258105, 39.1709494 ], [ -74.3358015, 39.1676248 ], [ -74.3389793, 39.166667 ] ] ] } }
]
}
