{
"type": "FeatureCollection",
"name": "WRECKS",
"crs": { "type": "name", "properties": { "name": "urn:ogc:def:crs:OGC:1.3:CRS84" } },
"features": [
{ "type": "Feature", "properties": { "RCID": 129, "PRIM": 3, "GRUP": 2, "OBJL": 159, "RVER": 1, "AGEN": 550, "FIDN": 37880017, "FIDS": 50, "LNAM": "0226024200D10032", "CATWRK": 2, "EXPSOU": 2, "QUASOU": [ "6" ], "VALSOU": 15.0, "WATLEV": 3, "SORDAT": "201206", "SORIND": "US,US,graph,Chart 12300" }, "geometry": { "type": "Polygon", "coordinates": [ [ [ -74.226218, 39.3278616 ], [ -74.2250547, 39.3278537 ], [ -74.2239581, 39.3275496 ], [ -74.2205505, 39.3276104 ], [ -74.2166186, 39.3284615 ], [ -74.2164025, 39.3283566 ], [ -74.2148152, 39.3277578 ], [ -74.2131372, 39.3273351 ], [ -74.211822, 39.326842 ], [ -74.2103253, 39.3256444 ], [ -74.2091008, 39.3243059 ], [ -74.2082845, 39.3230026 ], [ -74.2083298, 39.3219458 ], [ -74.2089648, 39.3200788 ], [ -74.209509, 39.3191629 ], [ -74.2108242, 39.3179652 ], [ -74.2132732, 39.3169083 ], [ -74.2149513, 39.3165912 ], [ -74.2166747, 39.3166265 ], [ -74.2189876, 39.3172254 ], [ -74.220711, 39.3180356 ], [ -74.2217541, 39.3189868 ], [ -74.2224797, 39.3202197 ], [ -74.2230693, 39.3213117 ], [ -74.2232961, 39.322439 ], [ -74.223024, 39.3238127 ], [ -74.2224797, 39.324799 ], [ -74.2225251, 39.3252922 ], [ -74.2230693, 39.3258205 ], [ -74.2246567, 39.3264546 ], [ -74.2263347, 39.3276874 ], [ -74.226218, 39.3278616 ] ] ] } },
{ "type": "Feature", "properties": { "RCID": 134, "PRIM": 1, "GRUP": 2, "OBJL": 159, "RVER": 1, "AGEN": 550, "FIDN": 37886453, "FIDS": 50, "LNAM": "0226024219F50032", "CATWRK": 2, "EXPSOU": 2, "QUASOU": [ "6" ], "VALSOU": 15.0, "WATLEV": 3, "SORDAT": "20050418", "SORIND": "US,US,graph,H-11242" }, "geometry": { "type": "Point", "coordinates": [ -74.2640578, 39.3033871 ] } },
{ "type": "Feature", "properties": { "RCID": 135, "PRIM": 1, "GRUP": 2, "OBJL": 159, "RVER": 1, "AGEN": 550, "FIDN": 37886765, "FIDS": 50, "LNAM": "022602421B2D0032", "CATWRK": 2, "EXPSOU": 2, "QUASOU": [ "6" ], "VALSOU": 11.8, "WATLEV": 3, "SORDAT": "20050725", "SORIND": "US,US,reprt,L-920/05" }, "geometry": { "type": "Point", "coordinates": [ -74.1264209, 39.4006624 ] } },
{ "type": "Feature", "properties": { "RCID": 136, "PRIM": 1, "GRUP": 2, "OBJL": 159, "RVER": 1, "AGEN": 550, "FIDN": 37886780, "FIDS": 50, "LNAM": "022602421B3C0032", "CATWRK": 1, "EXPSOU": 1, "QUASOU": [ "2" ], "WATLEV": 3, "SCAMIN": 999999, "SORDAT": "200303", "SORIND": "US,US,graph,Chart 12300" }, "geometry": { "type": "Point", "coordinates": [ -72.8335811, 39.4392356 ] } },
{ "type": "Feature", "properties": { "RCID": 137, "PRIM": 1, "GRUP": 2, "OBJL": 159, "RVER": 1, "AGEN": 550, "FIDN": 37886084, "FIDS": 50, "LNAM": "0226024218840032", "CATWRK": 2, "EXPSOU": 1, "QUASOU": [ "6" ], "VALSOU": 19.2, "WATLEV": 3, "SORDAT": "201206", "SORIND": "US,US,graph,Chart 12300" }, "geometry": { "type": "Point", "coordinates": [ -74.0850659, 39.5271734 ] } },
{ "type": "Feature", "properties": { "RCID": 138, "PRIM": 1, "GRUP": 2, "OBJL": 159, "RVER": 1, "AGEN": 550, "FIDN": 37886682, "FIDS": 50, "LNAM": "022602421ADA0032", "CATWRK": 2, "EXPSOU": 1, "QUASOU": [ "6" ], "VALSOU": 20.1, "WATLEV": 3, "SORDAT": "20050725", "SORIND": "US,US,reprt,L-920/05" }, "geometry": { "type": "Point", "coordinates": [ -74.1835573, 39.3392776 ] } },
{ "type": "Feature", "properties": { "RCID": 139, "PRIM": 1, "GRUP": 2, "OBJL": 159, "RVER": 1, "AGEN": 550, "FIDN": 37886577, "FIDS": 50, "LNAM": "022602421A710032", "CATWRK": 2, "EXPSOU": 1, "QUASOU": [ "6" ], "VALSOU": 20.1, "WATLEV": 3, "SORDAT": "20050418", "SORIND": "US,US,graph,H-11242" }, "geometry": { "type": "Point", "coordinates": [ -74.2175222, 39.2273333 ] } },
{ "type": "Feature", "properties": { "RCID": 140, "PRIM": 1, "GRUP": 2, "OBJL": 159, "RVER": 1, "AGEN": 550, "FIDN": 37886645, "FIDS": 50, "LNAM": "022602421AB50032", "CATWRK": 1, "EXPSOU": 1, "OBJNAM": "USCSS Robert J Walker", "QUASOU": [ "6" ], "VALSOU": 21.9, "WATLEV": 3, "SCAMIN": 999999, "SORDAT": "20140902", "SORIND": "US,US,reprt,L-1867/14" }, "geometry": { "type": "Point", "coordinates": [ -74.2884579, 39.2211076 ] } },
{ "type": "Feature", "properties": { "RCID": 141, "PRIM": 1, "GRUP": 2, "OBJL": 159, "RVER": 1, "AGEN": 550, "FIDN": 37886426, "FIDS": 50, "LNAM": "0226024219DA0032", "CATWRK": 1, "EXPSOU": 1, "QUASOU": [ "2" ], "WATLEV": 3, "SCAMIN": 999999, "SORDAT": "200303", "SORIND": "US,US,graph,Chart 12300" }, "geometry": { "type": "Point", "coordinates": [ -73.1152336, 39.1674475 ] } },
{ "type": "Feature", "properties": { "RCID": 142, "PRIM": 1, "GRUP": 2, "OBJL": 159, "RVER": 1, "AGEN": 550, "FIDN": 37886719, "FIDS": 50, "LNAM": "022602421AFF0032", "CATWRK": 1, "EXPSOU": 1, "QUASOU": [ "2" ], "WATLEV": 3, "SCAMIN": 999999, "SORDAT": "200303", "SORIND": "US,US,graph,Chart 12300" }, "geometry": { "type": "Point", "coordinates": [ -73.3416778, 39.1733378 ] } },
{ "type": "Feature", "properties": { "RCID": 143, "PRIM": 1, "GRUP": 2, "OBJL": 159, "RVER": 1, "AGEN": 550, "FIDN": 37886236, "FIDS": 50, "LNAM": "02260242191C0032", "CATWRK": 2, "EXPSOU": 1, "QUASOU": [ "6" ], "VALSOU": 19.2, "WATLEV": 3, "SORDAT": "20050418", "SORIND": "US,US,graph,H-11242" }, "geometry": { "type": "Point", "coordinates": [ -74.1610856, 39.3518546 ] } },
{ "type": "Feature", "properties": { "RCID": 144, "PRIM": 1, "GRUP": 2, "OBJL": 159, "RVER": 1, "AGEN": 550, "FIDN": 37886384, "FIDS": 50, "LNAM": "0226024219B00032", "CATWRK": 1, "EXPSOU": 1, "QUASOU": [ "2" ], "WATLEV": 3, "SCAMIN": 999999, "SORDAT": "200303", "SORIND": "US,US,graph,Chart 12300" }, "geometry": { "type": "Point", "coordinates": [ -73.0429409, 39.5404796 ] } },
{ "type": "Feature", "properties": { "RCID": 145, "PRIM": 1, "GRUP": 2, "OBJL": 159, "RVER": 1, "AGEN": 550, "FIDN": 37886756, "FIDS": 50, "LNAM": "022602421B240032", "CATWRK": 1, "EXPSOU": 1, "QUASOU": [ "2" ], "WATLEV": 3, "SCAMIN": 999999, "SORDAT": "200303", "SORIND": "US,US,graph,Chart 12300" }, "geometry": { "type": "Point", "coordinates": [ -72.5010693, 39.2600251 ] } },
{ "type": "Feature", "properties": { "RCID": 146, "PRIM": 1, "GRUP": 2, "OBJL": 159, "RVER": 1, "AGEN": 550, "FIDN": 37886565, "FIDS": 50, "LNAM": "022602421A650032", "CATWRK": 1, "EXPSOU": 1, "QUASOU": [ "6" ], "TECSOU": [ "6" ], "VALSOU": 21.0, "WATLEV": 3, "SCAMIN": 999999, "SORDAT": "200303", "SORIND": "US,US,graph,Chart 12300" }, "geometry": { "type": "Point", "coordinates": [ -74.1553044, 39.2477399 ] } },
{ "type": "Feature", "properties": { "RCID": 147, "PRIM": 1, "GRUP": 2, "OBJL": 159, "RVER": 1, "AGEN": 550, "FIDN": 37886058, "FIDS": 50, "LNAM": "02260242186A0032", "CATWRK": 1, "EXPSOU": 1, "QUASOU": [ "2" ], "WATLEV": 3, "SCAMIN": 999999, "SORDAT": "200303", "SORIND": "US,US,graph,Chart 12300" }, "geometry": { "type": "Point", "coordinates": [ -73.9995425, 39.5001412 ] } },
{ "type": "Feature", "properties": { "RCID": 148, "PRIM": 1, "GRUP": 2, "OBJL": 159, "RVER": 1, "AGEN": 550, "FIDN": 37886201, "FIDS": 50, "LNAM": "0226024218F90032", "CATWRK": 2, "EXPSOU": 2, "QUASOU": [ "6" ], "VALSOU": 13.7, "WATLEV": 3, "SORDAT": "20050418", "SORIND": "US,US,graph,H-11242" }, "geometry": { "type": "Point", "coordinates": [ -74.1370072, 39.4388008 ] } },
{ "type": "Feature", "properties": { "RCID": 149, "PRIM": 1, "GRUP": 2, "OBJL": 159, "RVER": 1, "AGEN": 550, "FIDN": 37886596, "FIDS": 50, "LNAM": "022602421A840032", "CATWRK": 1, "EXPSOU": 1, "QUASOU": [ "6" ], "VALSOU": 21.9, "WATLEV": 3, "SCAMIN": 999999, "SORDAT": "20050418", "SORIND": "US,US,graph,H-11242" }, "geometry": { "type": "Point", "coordinates": [ -74.1830726, 39.2889454 ] } },
{ "type": "Feature", "properties": { "RCID": 150, "PRIM": 1, "GRUP": 2, "OBJL": 159, "RVER": 1, "AGEN": 550, "FIDN": 37886508, "FIDS": 50, "LNAM": "022602421A2C0032", "CATWRK": 1, "EXPSOU": 1, "QUASOU": [ "2" ], "WATLEV": 3, "SCAMIN": 999999, "SORDAT": "200303", "SORIND": "US,US,graph,Chart 12300" }, "geometry": { "type": "Point", "coordinates": [ -74.031733, 39.4667894 ] } }
]
}
