{
"type": "FeatureCollection",
"name": "BOYLAT",
"crs": { "type": "name", "properties": { "name": "urn:ogc:def:crs:OGC:1.3:CRS84" } },
"features": [
{ "type": "Feature", "properties": { "RCID": 7, "PRIM": 1, "GRUP": 2, "OBJL": 17, "RVER": 1, "AGEN": 550, "FIDN": 19032308, "FIDS": 64375, "LNAM": "0226012268F4FB77", "LNAM_REFS": [ "0226012265EDFB77", "0226012265BDFB77" ], "FFPT_RIND": [ 2, 2 ], "BOYSHP": 4, "CATLAM": 1, "COLOUR": [ "4" ], "OBJNAM": "East Passage Lighted Bell Buoy 11", "STATUS": [ "1" ], "SCAMIN": 59999, "SORDAT": "200504", "SORIND": "US,US,graph,Chart 13223" }, "geometry": { "type": "Point", "coordinates": [ -71.3506132, 41.4835046 ] } },
{ "type": "Feature", "properties": { "RCID": 8, "PRIM": 1, "GRUP": 2, "OBJL": 17, "RVER": 1, "AGEN": 550, "FIDN": 19031497, "FIDS": 64375, "LNAM": "0226012265C9FB77", "BOYSHP": 1, "CATLAM": 2, "COLOUR": [ "3" ], "OBJNAM": "Dutch Island Harbor Channel Buoy 2", "STATUS": [ "8" ], "SCAMIN": 59999, "SORDAT": "20120918", "SORIND": "US,US,reprt,1stCGD,LNM 38/12" }, "geometry": { "type": "Point", "coordinates": [ -71.39125, 41.4973 ] } },
{ "type": "Feature", "properties": { "RCID": 9, "PRIM": 1, "GRUP": 2, "OBJL": 17, "RVER": 1, "AGEN": 550, "FIDN": 19032280, "FIDS": 64375, "LNAM": "0226012268D8FB77", "BOYSHP": 1, "CATLAM": 2, "COLOUR": [ "3" ], "OBJNAM": "Dutch Island Harbor Channel Buoy 4", "STATUS": [ "8" ], "SCAMIN": 59999, "SORDAT": "20120918", "SORIND": "US,US,reprt,1stCGD,LNM 38/12" }, "geometry": { "type": "Point", "coordinates": [ -71.3885, 41.4969333 ] } },
{ "type": "Feature", "properties": { "RCID": 10, "PRIM": 1, "GRUP": 2, "OBJL": 17, "RVER": 1, "AGEN": 550, "FIDN": 35581707, "FIDS": 64375, "LNAM": "0226021EEF0BFB77", "BOYSHP": 2, "CATLAM": 1, "COLOUR": [ "4" ], "OBJNAM": "Newport Harbor North Channel Buoy 3", "STATUS": [ "8" ], "SCAMIN": 59999, "SORDAT": "20151027", "SORIND": "US,US,reprt,1stCGD,LNM 43/15" }, "geometry": { "type": "Point", "coordinates": [ -71.3258556, 41.4927111 ] } },
{ "type": "Feature", "properties": { "RCID": 11, "PRIM": 1, "GRUP": 2, "OBJL": 17, "RVER": 1, "AGEN": 550, "FIDN": 35581520, "FIDS": 64375, "LNAM": "0226021EEE50FB77", "BOYSHP": 2, "CATLAM": 1, "COLOUR": [ "4" ], "OBJNAM": "Newport Harbor North Channel Buoy 5", "STATUS": [ "8" ], "SCAMIN": 59999, "SORDAT": "20160823", "SORIND": "US,US,reprt,1stCGD,LNM 34/16" }, "geometry": { "type": "Point", "coordinates": [ -71.3262244, 41.4930139 ] } },
{ "type": "Feature", "properties": { "RCID": 12, "PRIM": 1, "GRUP": 2, "OBJL": 17, "RVER": 1, "AGEN": 550, "FIDN": 35581765, "FIDS": 64375, "LNAM": "0226021EEF45FB77", "BOYSHP": 2, "CATLAM": 1, "COLOUR": [ "4" ], "OBJNAM": "Dutch Island Harbor Channel Buoy 3", "STATUS": [ "8" ], "SCAMIN": 59999, "SORDAT": "20130813", "SORIND": "US,US,reprt,1stCGD,LNM 32/13" }, "geometry": { "type": "Point", "coordinates": [ -71.3884167, 41.4972167 ] } },
{ "type": "Feature", "properties": { "RCID": 13, "PRIM": 1, "GRUP": 2, "OBJL": 17, "RVER": 1, "AGEN": 550, "FIDN": 35583248, "FIDS": 64375, "LNAM": "0226021EF510FB77", "BOYSHP": 2, "CATLAM": 1, "COLOUR": [ "4" ], "OBJNAM": "Dutch Island Harbor Channel Buoy 1", "STATUS": [ "8" ], "SCAMIN": 59999, "SORDAT": "20130813", "SORIND": "US,US,reprt,1stCGD,LNM 32/13" }, "geometry": { "type": "Point", "coordinates": [ -71.3910167, 41.4976167 ] } },
{ "type": "Feature", "properties": { "RCID": 14, "PRIM": 1, "GRUP": 2, "OBJL": 17, "RVER": 1, "AGEN": 550, "FIDN": 35582452, "FIDS": 64375, "LNAM": "0226021EF1F4FB77", "BOYSHP": 2, "CATLAM": 1, "COLOUR": [ "4" ], "OBJNAM": "Newport Harbor North Channel Buoy 1", "STATUS": [ "8" ], "SCAMIN": 59999, "SORDAT": "20151027", "SORIND": "US,US,reprt,1stCGD,LNM 43/15" }, "geometry": { "type": "Point", "coordinates": [ -71.3257, 41.4917472 ] } },
{ "type": "Feature", "properties": { "RCID": 15, "PRIM": 1, "GRUP": 2, "OBJL": 17, "RVER": 1, "AGEN": 550, "FIDN": 35583299, "FIDS": 64375, "LNAM": "0226021EF543FB77", "BOYSHP": 1, "CATLAM": 2, "COLOUR": [ "3" ], "OBJNAM": "Newport Harbor North Channel Buoy 4", "STATUS": [ "8" ], "SCAMIN": 59999, "SORDAT": "20151027", "SORIND": "US,US,reprt,1stCGD,LNM 43/15" }, "geometry": { "type": "Point", "coordinates": [ -71.3253333, 41.4928972 ] } },
{ "type": "Feature", "properties": { "RCID": 16, "PRIM": 1, "GRUP": 2, "OBJL": 17, "RVER": 1, "AGEN": 550, "FIDN": 35582508, "FIDS": 64375, "LNAM": "0226021EF22CFB77", "BOYSHP": 1, "CATLAM": 2, "COLOUR": [ "3" ], "OBJNAM": "Newport Harbor North Channel Buoy 6", "STATUS": [ "8" ], "SCAMIN": 59999, "SORDAT": "20160823", "SORIND": "US,US,reprt,1stCGD,LNM 34/16" }, "geometry": { "type": "Point", "coordinates": [ -71.3269089, 41.4942517 ] } },
{ "type": "Feature", "properties": { "RCID": 17, "PRIM": 1, "GRUP": 2, "OBJL": 17, "RVER": 1, "AGEN": 550, "FIDN": 35581120, "FIDS": 64375, "LNAM": "0226021EECC0FB77", "BOYSHP": 1, "CATLAM": 2, "COLOUR": [ "3" ], "OBJNAM": "Newport Harbor North Channel Buoy 2", "STATUS": [ "8" ], "SCAMIN": 59999, "SORDAT": "20151027", "SORIND": "US,US,reprt,1stCGD,LNM 43/15" }, "geometry": { "type": "Point", "coordinates": [ -71.3251778, 41.4919222 ] } },
{ "type": "Feature", "properties": { "RCID": 18, "PRIM": 1, "GRUP": 2, "OBJL": 17, "RVER": 1, "AGEN": 550, "FIDN": 19031575, "FIDS": 64375, "LNAM": "022601226617FB77", "BOYSHP": 1, "CATLAM": 2, "COLOUR": [ "3" ], "OBJNAM": "East Passage Buoy 16", "STATUS": [ "1" ], "SCAMIN": 59999, "SORDAT": "200504", "SORIND": "US,US,graph,Chart 13223" }, "geometry": { "type": "Point", "coordinates": [ -71.3291632, 41.5232338 ] } },
{ "type": "Feature", "properties": { "RCID": 19, "PRIM": 1, "GRUP": 2, "OBJL": 17, "RVER": 1, "AGEN": 550, "FIDN": 19031471, "FIDS": 64375, "LNAM": "0226012265AFFB77", "BOYSHP": 1, "CATLAM": 2, "COLOUR": [ "3" ], "OBJNAM": "Rose Island Shoal Northeast End Buoy 2", "STATUS": [ "1" ], "SCAMIN": 59999, "SORDAT": "200504", "SORIND": "US,US,graph,Chart 13223" }, "geometry": { "type": "Point", "coordinates": [ -71.3368581, 41.504274 ] } },
{ "type": "Feature", "properties": { "RCID": 20, "PRIM": 1, "GRUP": 2, "OBJL": 17, "RVER": 1, "AGEN": 550, "FIDN": 19031530, "FIDS": 64375, "LNAM": "0226012265EAFB77", "LNAM_REFS": [ "0226013788D8FB77", "0226013788D7FB77" ], "FFPT_RIND": [ 2, 2 ], "BOYSHP": 4, "CATLAM": 3, "COLOUR": [ "4", "3", "4" ], "COLPAT": [ "1" ], "OBJNAM": "East Passage Channel Junction Lighted Bell Buoy EP", "STATUS": [ "1" ], "SCAMIN": 59999, "SORDAT": "20141209", "SORIND": "US,US,reprt,1stCGD,LNM 49/14" }, "geometry": { "type": "Point", "coordinates": [ -71.3471667, 41.5112667 ] } },
{ "type": "Feature", "properties": { "RCID": 21, "PRIM": 1, "GRUP": 2, "OBJL": 17, "RVER": 1, "AGEN": 550, "FIDN": 19031486, "FIDS": 64375, "LNAM": "0226012265BEFB77", "BOYSHP": 1, "CATLAM": 2, "COLOUR": [ "3" ], "OBJNAM": "Jamestown Harbor Channel Buoy 4", "STATUS": [ "8" ], "SCAMIN": 59999, "SORDAT": "20160315", "SORIND": "US,US,reprt,1stCGD,LNM 11/16" }, "geometry": { "type": "Point", "coordinates": [ -71.3631831, 41.4959331 ] } },
{ "type": "Feature", "properties": { "RCID": 22, "PRIM": 1, "GRUP": 2, "OBJL": 17, "RVER": 1, "AGEN": 550, "FIDN": 19031508, "FIDS": 64375, "LNAM": "0226012265D4FB77", "BOYSHP": 1, "CATLAM": 2, "COLOUR": [ "3" ], "OBJNAM": "West Passage Buoy 10", "STATUS": [ "1" ], "SCAMIN": 59999, "SORDAT": "20050426", "SORIND": "US,US,reprt,1stCGD,LNM 17/05" }, "geometry": { "type": "Point", "coordinates": [ -71.3936111, 41.535 ] } },
{ "type": "Feature", "properties": { "RCID": 23, "PRIM": 1, "GRUP": 2, "OBJL": 17, "RVER": 1, "AGEN": 550, "FIDN": 19031637, "FIDS": 64375, "LNAM": "022601226655FB77", "LNAM_REFS": [ "0226012265E5FB77" ], "FFPT_RIND": [ 2 ], "BOYSHP": 4, "CATLAM": 1, "COLOUR": [ "4" ], "OBJNAM": "Mitchell Rock Gong Buoy 3", "STATUS": [ "1" ], "SCAMIN": 59999, "SORDAT": "200504", "SORIND": "US,US,graph,Chart 13223" }, "geometry": { "type": "Point", "coordinates": [ -71.3364401, 41.4927182 ] } },
{ "type": "Feature", "properties": { "RCID": 24, "PRIM": 1, "GRUP": 2, "OBJL": 17, "RVER": 1, "AGEN": 550, "FIDN": 19031464, "FIDS": 64375, "LNAM": "0226012265A8FB77", "BOYSHP": 2, "CATLAM": 1, "COLOUR": [ "4" ], "OBJNAM": "Rose Island South Point Buoy 1", "STATUS": [ "1" ], "SCAMIN": 59999, "SORDAT": "200504", "SORIND": "US,US,graph,Chart 13223" }, "geometry": { "type": "Point", "coordinates": [ -71.3401732, 41.4933755 ] } },
{ "type": "Feature", "properties": { "RCID": 25, "PRIM": 1, "GRUP": 2, "OBJL": 17, "RVER": 1, "AGEN": 550, "FIDN": 19031515, "FIDS": 64375, "LNAM": "0226012265DBFB77", "BOYSHP": 1, "CATLAM": 2, "COLOUR": [ "3" ], "OBJNAM": "East Passage Buoy 12A", "STATUS": [ "1" ], "SCAMIN": 59999, "SORDAT": "200504", "SORIND": "US,US,graph,Chart 13223" }, "geometry": { "type": "Point", "coordinates": [ -71.3458214, 41.4999766 ] } },
{ "type": "Feature", "properties": { "RCID": 26, "PRIM": 1, "GRUP": 2, "OBJL": 17, "RVER": 1, "AGEN": 550, "FIDN": 19031655, "FIDS": 64375, "LNAM": "022601226667FB77", "LNAM_REFS": [ "0226012265C4FB77" ], "FFPT_RIND": [ 2 ], "BOYSHP": 1, "CATLAM": 2, "COLOUR": [ "3" ], "OBJNAM": "Jamestown Harbor Channel Lighted Buoy 2", "STATUS": [ "8" ], "SCAMIN": 59999, "SORDAT": "20160315", "SORIND": "US,US,reprt,1stCGD,LNM 11/16" }, "geometry": { "type": "Point", "coordinates": [ -71.3608831, 41.4957 ] } },
{ "type": "Feature", "properties": { "RCID": 27, "PRIM": 1, "GRUP": 2, "OBJL": 17, "RVER": 1, "AGEN": 550, "FIDN": 19031470, "FIDS": 64375, "LNAM": "0226012265AEFB77", "BOYSHP": 2, "CATLAM": 1, "COLOUR": [ "4" ], "OBJNAM": "Goat Island Southwest Buoy 1", "STATUS": [ "1" ], "SCAMIN": 59999, "SORDAT": "200504", "SORIND": "US,US,graph,Chart 13223" }, "geometry": { "type": "Point", "coordinates": [ -71.3294602, 41.4825473 ] } },
{ "type": "Feature", "properties": { "RCID": 28, "PRIM": 1, "GRUP": 2, "OBJL": 17, "RVER": 1, "AGEN": 550, "FIDN": 19031624, "FIDS": 64375, "LNAM": "022601226648FB77", "BOYSHP": 2, "CATLAM": 1, "COLOUR": [ "4" ], "OBJNAM": "Tracey Ledge Buoy 5", "STATUS": [ "1" ], "SCAMIN": 59999, "SORDAT": "200504", "SORIND": "US,US,graph,Chart 13223" }, "geometry": { "type": "Point", "coordinates": [ -71.3338556, 41.4981911 ] } },
{ "type": "Feature", "properties": { "RCID": 29, "PRIM": 1, "GRUP": 2, "OBJL": 17, "RVER": 1, "AGEN": 550, "FIDN": 19031489, "FIDS": 64375, "LNAM": "0226012265C1FB77", "BOYSHP": 2, "CATLAM": 3, "COLOUR": [ "4", "3", "4" ], "COLPAT": [ "1" ], "OBJNAM": "Seventeen-Foot Spot Buoy", "STATUS": [ "1" ], "SCAMIN": 59999, "SORDAT": "20070925", "SORIND": "US,US,reprt,1stCGD,LNM 39/07" }, "geometry": { "type": "Point", "coordinates": [ -71.3352469, 41.5067867 ] } },
{ "type": "Feature", "properties": { "RCID": 30, "PRIM": 1, "GRUP": 2, "OBJL": 17, "RVER": 1, "AGEN": 550, "FIDN": 19031642, "FIDS": 64375, "LNAM": "02260122665AFB77", "LNAM_REFS": [ "0226012265CFFB77" ], "FFPT_RIND": [ 2 ], "BOYSHP": 4, "CATLAM": 1, "COLOUR": [ "4" ], "OBJNAM": "East Passage Lighted Buoy 17", "STATUS": [ "1" ], "SCAMIN": 59999, "SORDAT": "200504", "SORIND": "US,US,graph,Chart 13223" }, "geometry": { "type": "Point", "coordinates": [ -71.3354054, 41.5297238 ] } },
{ "type": "Feature", "properties": { "RCID": 31, "PRIM": 1, "GRUP": 2, "OBJL": 17, "RVER": 1, "AGEN": 550, "FIDN": 19031640, "FIDS": 64375, "LNAM": "022601226658FB77", "LNAM_REFS": [ "0226012265CAFB77", "0226012265F6FB77" ], "FFPT_RIND": [ 2, 2 ], "BOYSHP": 4, "CATLAM": 1, "COLOUR": [ "4" ], "OBJNAM": "East Passage Lighted Gong Buoy 9", "STATUS": [ "1" ], "SCAMIN": 59999, "SORDAT": "200504", "SORIND": "US,US,graph,Chart 13223" }, "geometry": { "type": "Point", "coordinates": [ -71.3539643, 41.4773333 ] } },
{ "type": "Feature", "properties": { "RCID": 32, "PRIM": 1, "GRUP": 2, "OBJL": 17, "RVER": 1, "AGEN": 550, "FIDN": 19031639, "FIDS": 64375, "LNAM": "022601226657FB77", "LNAM_REFS": [ "0226012265EEFB77", "0226012265E0FB77" ], "FFPT_RIND": [ 2, 2 ], "BOYSHP": 4, "CATLAM": 1, "COLOUR": [ "4" ], "OBJNAM": "Goat Island Lighted Bell Buoy 3", "STATUS": [ "1" ], "SCAMIN": 59999, "SORDAT": "20070925", "SORIND": "US,US,reprt,1stCGD,LNM 39/07" }, "geometry": { "type": "Point", "coordinates": [ -71.3268706, 41.4816942 ] } },
{ "type": "Feature", "properties": { "RCID": 33, "PRIM": 1, "GRUP": 2, "OBJL": 17, "RVER": 1, "AGEN": 550, "FIDN": 19031481, "FIDS": 64375, "LNAM": "0226012265B9FB77", "BOYSHP": 1, "CATLAM": 2, "COLOUR": [ "3" ], "OBJNAM": "Beaverhead Point Shoal Buoy 2", "STATUS": [ "1" ], "SCAMIN": 59999, "SORDAT": "20070612", "SORIND": "US,US,reprt,1stCGD,LNM 24/07" }, "geometry": { "type": "Point", "coordinates": [ -71.3982094, 41.4957994 ] } },
{ "type": "Feature", "properties": { "RCID": 34, "PRIM": 1, "GRUP": 2, "OBJL": 17, "RVER": 1, "AGEN": 550, "FIDN": 19031537, "FIDS": 64375, "LNAM": "0226012265F1FB77", "BOYSHP": 2, "CATLAM": 1, "COLOUR": [ "4" ], "OBJNAM": "Gull Rocks Shoal Buoy 7", "STATUS": [ "1" ], "SCAMIN": 59999, "SORDAT": "200504", "SORIND": "US,US,graph,Chart 13223" }, "geometry": { "type": "Point", "coordinates": [ -71.3331298, 41.5043343 ] } },
{ "type": "Feature", "properties": { "RCID": 35, "PRIM": 1, "GRUP": 2, "OBJL": 17, "RVER": 1, "AGEN": 550, "FIDN": 19032307, "FIDS": 64375, "LNAM": "0226012268F3FB77", "LNAM_REFS": [ "0226012265BCFB77", "0226012265F8FB77" ], "FFPT_RIND": [ 2, 2 ], "BOYSHP": 4, "CATLAM": 2, "COLOUR": [ "3" ], "OBJNAM": "East Passage Lighted Bell Buoy 12", "STATUS": [ "1" ], "SCAMIN": 59999, "SORDAT": "200504", "SORIND": "US,US,graph,Chart 13223" }, "geometry": { "type": "Point", "coordinates": [ -71.3446609, 41.4945731 ] } },
{ "type": "Feature", "properties": { "RCID": 36, "PRIM": 1, "GRUP": 2, "OBJL": 17, "RVER": 1, "AGEN": 550, "FIDN": 19031647, "FIDS": 64375, "LNAM": "02260122665FFB77", "LNAM_REFS": [ "0226012265D8FB77" ], "FFPT_RIND": [ 2 ], "BOYSHP": 4, "CATLAM": 1, "COLOUR": [ "4" ], "OBJNAM": "Goat Island Southeast Lighted Buoy 7", "STATUS": [ "5" ], "INFORM": "Removed when endangered by ice", "SCAMIN": 59999, "SORDAT": "20191105", "SORIND": "US,US,reprt,1stCGD,LNM 45/19" }, "geometry": { "type": "Point", "coordinates": [ -71.3252826, 41.4836063 ] } },
{ "type": "Feature", "properties": { "RCID": 37, "PRIM": 1, "GRUP": 2, "OBJL": 17, "RVER": 1, "AGEN": 550, "FIDN": 19031463, "FIDS": 64375, "LNAM": "0226012265A7FB77", "BOYSHP": 2, "CATLAM": 1, "COLOUR": [ "4" ], "OBJNAM": "Jamestown Harbor Channel Buoy 1", "STATUS": [ "8" ], "SCAMIN": 59999, "SORDAT": "20160315", "SORIND": "US,US,reprt,1stCGD,LNM 11/16" }, "geometry": { "type": "Point", "coordinates": [ -71.3610669, 41.4952169 ] } },
{ "type": "Feature", "properties": { "RCID": 38, "PRIM": 1, "GRUP": 2, "OBJL": 17, "RVER": 1, "AGEN": 550, "FIDN": 19031518, "FIDS": 64375, "LNAM": "0226012265DEFB77", "BOYSHP": 2, "CATLAM": 1, "COLOUR": [ "4" ], "OBJNAM": "Jamestown Harbor Channel Buoy 3", "STATUS": [ "8" ], "SCAMIN": 59999, "SORDAT": "20120731", "SORIND": "US,US,reprt,1stCGD,LNM 31/12" }, "geometry": { "type": "Point", "coordinates": [ -71.3631, 41.4954667 ] } },
{ "type": "Feature", "properties": { "RCID": 39, "PRIM": 1, "GRUP": 2, "OBJL": 17, "RVER": 1, "AGEN": 550, "FIDN": 19031455, "FIDS": 64375, "LNAM": "02260122659FFB77", "BOYSHP": 2, "CATLAM": 3, "COLOUR": [ "4", "3", "4" ], "COLPAT": [ "1" ], "OBJNAM": "Gull Rocks South Buoy", "STATUS": [ "1" ], "SCAMIN": 59999, "SORDAT": "200504", "SORIND": "US,US,graph,Chart 13223" }, "geometry": { "type": "Point", "coordinates": [ -71.3329011, 41.5001837 ] } },
{ "type": "Feature", "properties": { "RCID": 40, "PRIM": 1, "GRUP": 2, "OBJL": 17, "RVER": 1, "AGEN": 550, "FIDN": 19031516, "FIDS": 64375, "LNAM": "0226012265DCFB77", "BOYSHP": 1, "CATLAM": 2, "COLOUR": [ "3" ], "OBJNAM": "Newport Harbor Buoy 4", "STATUS": [ "1" ], "SCAMIN": 59999, "SORDAT": "200504", "SORIND": "US,US,graph,Chart 13223" }, "geometry": { "type": "Point", "coordinates": [ -71.3349215, 41.4811657 ] } },
{ "type": "Feature", "properties": { "RCID": 41, "PRIM": 1, "GRUP": 2, "OBJL": 17, "RVER": 1, "AGEN": 550, "FIDN": 19031579, "FIDS": 64375, "LNAM": "02260122661BFB77", "LNAM_REFS": [ "0226012265A3FB77", "0226012265CBFB77" ], "FFPT_RIND": [ 2, 2 ], "BOYSHP": 4, "CATLAM": 2, "COLOUR": [ "3" ], "OBJNAM": "East Pass Lighted Bell Buoy 14", "STATUS": [ "1" ], "SCAMIN": 59999, "SORDAT": "20021105", "SORIND": "US,US,reprt,1stCGD,LNM 45/02" }, "geometry": { "type": "Point", "coordinates": [ -71.3342186, 41.51663 ] } }
]
}
