{
"type": "FeatureCollection",
"name": "BRIDGE",
"crs": { "type": "name", "properties": { "name": "urn:ogc:def:crs:OGC:1.3:CRS84" } },
"features": [
{ "type": "Feature", "properties": { "RCID": 396, "PRIM": 3, "GRUP": 2, "OBJL": 11, "RVER": 1, "AGEN": 550, "FIDN": 583085438, "FIDS": 8691, "LNAM": "022622C12D7E21F3", "CATBRG": [ "1" ], "HORCLR": 12.1, "VERCLR": 4.2, "SCAMIN": 89999, "SORDAT": "20140818", "SORIND": "US,US,graph,GC-11187" }, "geometry": { "type": "Polygon", "coordinates": [ [ [ -71.3267414, 41.4912017 ], [ -71.3264118, 41.4912111 ], [ -71.3263594, 41.4912126 ], [ -71.3252624, 41.491228 ], [ -71.325, 41.4912317 ], [ -71.325, 41.4913104 ], [ -71.325, 41.4913294 ], [ -71.325, 41.4913358 ], [ -71.3251688, 41.491333 ], [ -71.3253084, 41.4913307 ], [ -71.3257394, 41.491323 ], [ -71.3258427, 41.4913212 ], [ -71.3259311, 41.4913196 ], [ -71.3260855, 41.4913169 ], [ -71.3263612, 41.4913121 ], [ -71.3263776, 41.4913118 ], [ -71.3265141, 41.4913094 ], [ -71.3267398, 41.4913062 ], [ -71.3267398, 41.4913054 ], [ -71.3267411, 41.4912169 ], [ -71.3267414, 41.4912017 ] ] ] } },
{ "type": "Feature", "properties": { "RCID": 397, "PRIM": 3, "GRUP": 2, "OBJL": 11, "RVER": 1, "AGEN": 550, "FIDN": 225213806, "FIDS": 8691, "LNAM": "02260D6C7D6E21F3", "CATBRG": [ "1" ], "HORCLR": 9.4, "OBJNAM": "Coasters Harbor Island Bridge", "VERCLR": 0.9, "SCAMIN": 89999, "SORDAT": "20140818", "SORIND": "US,US,graph,GC-11187" }, "geometry": { "type": "Polygon", "coordinates": [ [ [ -71.325, 41.5064448 ], [ -71.325, 41.5065638 ], [ -71.3252314, 41.5066145 ], [ -71.325276, 41.5065116 ], [ -71.325, 41.5064448 ] ] ] } },
{ "type": "Feature", "properties": { "RCID": 398, "PRIM": 3, "GRUP": 2, "OBJL": 11, "RVER": 1, "AGEN": 550, "FIDN": 149017025, "FIDS": 8691, "LNAM": "022608E1D1C121F3", "CATBRG": [ "1" ], "SCAMIN": 29999, "SORDAT": "20140818", "SORIND": "US,US,graph,GC-11187" }, "geometry": { "type": "Polygon", "coordinates": [ [ [ -71.3748355, 41.5069968 ], [ -71.3748334, 41.5068977 ], [ -71.374822, 41.5068978 ], [ -71.3746909, 41.5068995 ], [ -71.3746931, 41.5070042 ], [ -71.3747295, 41.5070023 ], [ -71.3748234, 41.5069974 ], [ -71.3748355, 41.5069968 ] ] ] } },
{ "type": "Feature", "properties": { "RCID": 399, "PRIM": 3, "GRUP": 2, "OBJL": 11, "RVER": 1, "AGEN": 550, "FIDN": 677523155, "FIDS": 8691, "LNAM": "022628622ED321F3", "CATBRG": [ "1" ], "HORCLR": 182.8, "OBJNAM": "Jamestown - Verrazzano Fixed Bridge", "VERCLR": 41.1, "INFORM": "Vertical clearance for center 91.4 meters/300 feet.", "SCAMIN": 89999, "SORDAT": "20140818", "SORIND": "US,US,graph,GC-11187" }, "geometry": { "type": "Polygon", "coordinates": [ [ [ -71.3915599, 41.5263204 ], [ -71.3915532, 41.5263285 ], [ -71.3914223, 41.5264872 ], [ -71.3914192, 41.526491 ], [ -71.3916886, 41.5265383 ], [ -71.3922308, 41.5266336 ], [ -71.3925145, 41.5266834 ], [ -71.3926373, 41.526705 ], [ -71.3927885, 41.5267307 ], [ -71.3933143, 41.5268201 ], [ -71.3933204, 41.5268212 ], [ -71.3938823, 41.5269168 ], [ -71.3939558, 41.5269293 ], [ -71.3942417, 41.5269779 ], [ -71.3942845, 41.5269852 ], [ -71.3946961, 41.5270566 ], [ -71.3950569, 41.5271192 ], [ -71.3951791, 41.5271404 ], [ -71.395648, 41.5272217 ], [ -71.3958536, 41.5272568 ], [ -71.3958572, 41.5272575 ], [ -71.3959413, 41.5272718 ], [ -71.3964337, 41.527356 ], [ -71.3965843, 41.5273818 ], [ -71.3966258, 41.5273889 ], [ -71.3969728, 41.5274482 ], [ -71.3969822, 41.5274498 ], [ -71.3974596, 41.5275345 ], [ -71.3975113, 41.527539 ], [ -71.3982656, 41.5276691 ], [ -71.398743, 41.5277572 ], [ -71.3991458, 41.527823 ], [ -71.3999192, 41.5279568 ], [ -71.4, 41.5279707 ], [ -71.4, 41.5277826 ], [ -71.3999736, 41.5277781 ], [ -71.399428, 41.5276841 ], [ -71.3990595, 41.5276217 ], [ -71.3988159, 41.5275792 ], [ -71.3987812, 41.5275732 ], [ -71.3979318, 41.5274253 ], [ -71.3976406, 41.5273765 ], [ -71.3975161, 41.5273453 ], [ -71.3972225, 41.5272949 ], [ -71.3971778, 41.5272872 ], [ -71.3971376, 41.5272803 ], [ -71.3968227, 41.5272262 ], [ -71.396759, 41.5272152 ], [ -71.3966146, 41.5271904 ], [ -71.3965683, 41.5271824 ], [ -71.3964807, 41.5271673 ], [ -71.3960448, 41.5270923 ], [ -71.3958915, 41.527066 ], [ -71.3957668, 41.5270445 ], [ -71.3957108, 41.5270349 ], [ -71.3952839, 41.5269619 ], [ -71.3951053, 41.5269314 ], [ -71.3946105, 41.5268469 ], [ -71.3945707, 41.5268401 ], [ -71.3944772, 41.526824 ], [ -71.3942868, 41.5267913 ], [ -71.3941136, 41.5267615 ], [ -71.39382, 41.5267111 ], [ -71.3937705, 41.5267026 ], [ -71.3937108, 41.5266923 ], [ -71.3932698, 41.5266153 ], [ -71.39293, 41.5265559 ], [ -71.3925617, 41.5264916 ], [ -71.3925597, 41.5264913 ], [ -71.3923254, 41.5264512 ], [ -71.3918128, 41.5263636 ], [ -71.391597, 41.5263268 ], [ -71.3915599, 41.5263204 ] ] ] } },
{ "type": "Feature", "properties": { "RCID": 400, "PRIM": 3, "GRUP": 2, "OBJL": 11, "RVER": 1, "AGEN": 550, "FIDN": 211289069, "FIDS": 8691, "LNAM": "02260C9803ED21F3", "CATBRG": [ "1" ], "OBJNAM": "Pell Bridge Newport", "SCAMIN": 89999, "SORDAT": "20140818", "SORIND": "US,US,graph,GC-11187" }, "geometry": { "type": "Polygon", "coordinates": [ [ [ -71.351395, 41.5055189 ], [ -71.351338, 41.5056736 ], [ -71.3515208, 41.505715 ], [ -71.3517497, 41.5057668 ], [ -71.3523804, 41.5059086 ], [ -71.3530204, 41.5060524 ], [ -71.353646, 41.5061929 ], [ -71.3537106, 41.5062075 ], [ -71.353998, 41.506272 ], [ -71.3540547, 41.5062848 ], [ -71.3543549, 41.5063522 ], [ -71.354597, 41.5064066 ], [ -71.3549085, 41.5064768 ], [ -71.3555622, 41.5066243 ], [ -71.3556231, 41.5066381 ], [ -71.3557313, 41.5066625 ], [ -71.3558421, 41.5066876 ], [ -71.3559293, 41.5067073 ], [ -71.355987, 41.5067204 ], [ -71.3559883, 41.5067207 ], [ -71.356382, 41.5068097 ], [ -71.3563895, 41.5068114 ], [ -71.3567296, 41.5068883 ], [ -71.3571553, 41.506984 ], [ -71.3573399, 41.5070255 ], [ -71.3574848, 41.507058 ], [ -71.3575656, 41.5070762 ], [ -71.3576795, 41.5071018 ], [ -71.357782, 41.5071248 ], [ -71.3582087, 41.5072207 ], [ -71.3582106, 41.5072128 ], [ -71.3582329, 41.5071173 ], [ -71.3582413, 41.5070817 ], [ -71.3582448, 41.5070668 ], [ -71.3578381, 41.5069761 ], [ -71.3577292, 41.5069518 ], [ -71.3576451, 41.5069331 ], [ -71.3575155, 41.5069042 ], [ -71.3574321, 41.5068855 ], [ -71.3572119, 41.5068365 ], [ -71.3565206, 41.5066823 ], [ -71.356442, 41.5066645 ], [ -71.3564387, 41.5066638 ], [ -71.3560533, 41.5065766 ], [ -71.3560468, 41.5065752 ], [ -71.3559481, 41.5065529 ], [ -71.3558934, 41.5065405 ], [ -71.355791, 41.5065173 ], [ -71.354994, 41.5063372 ], [ -71.3549651, 41.5063307 ], [ -71.3547877, 41.5062906 ], [ -71.354445, 41.5062131 ], [ -71.3543622, 41.5061943 ], [ -71.3540709, 41.5061285 ], [ -71.3537888, 41.5060647 ], [ -71.3537151, 41.5060481 ], [ -71.3537119, 41.5060473 ], [ -71.353217, 41.5059354 ], [ -71.3523644, 41.5057405 ], [ -71.3516354, 41.5055739 ], [ -71.351395, 41.5055189 ] ] ] } },
{ "type": "Feature", "properties": { "RCID": 401, "PRIM": 3, "GRUP": 2, "OBJL": 11, "RVER": 1, "AGEN": 550, "FIDN": 600008681, "FIDS": 8691, "LNAM": "022623C367E921F3", "CATBRG": [ "1" ], "OBJNAM": "Pell Bridge Newport", "SCAMIN": 89999, "SORDAT": "20140818", "SORIND": "US,US,graph,GC-11187" }, "geometry": { "type": "Polygon", "coordinates": [ [ [ -71.325, 41.4995806 ], [ -71.325, 41.4997406 ], [ -71.3260073, 41.4999675 ], [ -71.3268895, 41.5001642 ], [ -71.3272916, 41.5002538 ], [ -71.3285673, 41.5005435 ], [ -71.3297935, 41.5008217 ], [ -71.3311776, 41.5011328 ], [ -71.3321171, 41.5013427 ], [ -71.3326508, 41.5014624 ], [ -71.3328874, 41.5015154 ], [ -71.332906, 41.5015196 ], [ -71.3333585, 41.5016211 ], [ -71.3340858, 41.5017841 ], [ -71.3348928, 41.5019668 ], [ -71.3349242, 41.501974 ], [ -71.3357242, 41.5021551 ], [ -71.3357599, 41.5021632 ], [ -71.3364909, 41.5023288 ], [ -71.3365057, 41.5023321 ], [ -71.3365543, 41.502343 ], [ -71.3365879, 41.5023505 ], [ -71.3376428, 41.5025867 ], [ -71.3376784, 41.5025946 ], [ -71.3388267, 41.5028517 ], [ -71.3389199, 41.5028728 ], [ -71.3389636, 41.5028827 ], [ -71.3400147, 41.5031212 ], [ -71.3400465, 41.5031284 ], [ -71.3410197, 41.5033491 ], [ -71.3410278, 41.5033509 ], [ -71.3413413, 41.5034221 ], [ -71.3414184, 41.5034393 ], [ -71.3414222, 41.5034401 ], [ -71.3415659, 41.5034723 ], [ -71.3416769, 41.5034972 ], [ -71.3426965, 41.5037256 ], [ -71.3429859, 41.5037904 ], [ -71.343412, 41.5038858 ], [ -71.3439884, 41.5040206 ], [ -71.3452215, 41.5042975 ], [ -71.3459757, 41.504467 ], [ -71.3460397, 41.5043034 ], [ -71.3458652, 41.5042639 ], [ -71.3430354, 41.5036391 ], [ -71.3427546, 41.5035771 ], [ -71.3417817, 41.5033623 ], [ -71.3416261, 41.503328 ], [ -71.3414802, 41.5032958 ], [ -71.3414798, 41.5032957 ], [ -71.3413565, 41.5032684 ], [ -71.3410855, 41.5032075 ], [ -71.3410687, 41.5032037 ], [ -71.3368788, 41.5022608 ], [ -71.3365551, 41.5021877 ], [ -71.3333311, 41.5014597 ], [ -71.3327003, 41.5013172 ], [ -71.3297156, 41.5006432 ], [ -71.3295976, 41.5006167 ], [ -71.3292774, 41.5005429 ], [ -71.3286761, 41.5004075 ], [ -71.3280993, 41.5002771 ], [ -71.3275331, 41.5001489 ], [ -71.3269731, 41.5000237 ], [ -71.3268056, 41.4999855 ], [ -71.326497, 41.4999151 ], [ -71.3259785, 41.4998008 ], [ -71.3255733, 41.4997078 ], [ -71.3251623, 41.4996175 ], [ -71.325, 41.4995806 ] ] ] } },
{ "type": "Feature", "properties": { "RCID": 402, "PRIM": 3, "GRUP": 2, "OBJL": 11, "RVER": 1, "AGEN": 550, "FIDN": 727338655, "FIDS": 8691, "LNAM": "02262B5A4E9F21F3", "CATBRG": [ "1" ], "CONRAD": 3, "HORCLR": 457.2, "OBJNAM": "Pell Bridge Newport", "VERCLR": 59.1, "INFORM": "Vertical clearance given is for center span", "SCAMIN": 89999, "SORDAT": "20140818", "SORIND": "US,US,graph,GC-11187" }, "geometry": { "type": "Polygon", "coordinates": [ [ [ -71.3460397, 41.5043034 ], [ -71.3459757, 41.504467 ], [ -71.3464901, 41.5045826 ], [ -71.3469053, 41.504676 ], [ -71.346958, 41.5046878 ], [ -71.3483579, 41.5050036 ], [ -71.3484797, 41.5050308 ], [ -71.3499776, 41.5053656 ], [ -71.351338, 41.5056736 ], [ -71.351395, 41.5055189 ], [ -71.3498659, 41.5051694 ], [ -71.3465318, 41.5044148 ], [ -71.3460397, 41.5043034 ] ] ] } }
]
}
