{
"type": "FeatureCollection",
"name": "BUISGL",
"crs": { "type": "name", "properties": { "name": "urn:ogc:def:crs:OGC:1.3:CRS84" } },
"features": [
{ "type": "Feature", "properties": { "RCID": 405, "PRIM": 3, "GRUP": 2, "OBJL": 12, "RVER": 1, "AGEN": 550, "FIDN": 148313709, "FIDS": 8691, "LNAM": "022608D7166D21F3", "SCAMIN": 29999, "SORDAT": "20140818", "SORIND": "US,US,graph,GC-11187" }, "geometry": { "type": "Polygon", "coordinates": [ [ [ -71.3611115, 41.4863204 ], [ -71.3612035, 41.4862354 ], [ -71.3612462, 41.4862615 ], [ -71.3614869, 41.4860392 ], [ -71.361443, 41.4860123 ], [ -71.3615011, 41.4859587 ], [ -71.3616387, 41.4860429 ], [ -71.3616925, 41.4859932 ], [ -71.3617376, 41.4860209 ], [ -71.3617244, 41.4860331 ], [ -71.3617695, 41.4860608 ], [ -71.361715, 41.4861112 ], [ -71.361667, 41.4860818 ], [ -71.3616234, 41.486122 ], [ -71.3615841, 41.486098 ], [ -71.3612509, 41.4864058 ], [ -71.3611115, 41.4863204 ] ] ] } },
{ "type": "Feature", "properties": { "RCID": 406, "PRIM": 3, "GRUP": 2, "OBJL": 12, "RVER": 1, "AGEN": 550, "FIDN": 99893721, "FIDS": 8691, "LNAM": "022605F441D921F3", "SCAMIN": 29999, "SORDAT": "20140818", "SORIND": "US,US,graph,GC-11187" }, "geometry": { "type": "Polygon", "coordinates": [ [ [ -71.3745257, 41.5067958 ], [ -71.3745815, 41.5067983 ], [ -71.374589, 41.5067052 ], [ -71.3745113, 41.5067017 ], [ -71.3745049, 41.5067804 ], [ -71.3745257, 41.5067958 ] ] ] } },
{ "type": "Feature", "properties": { "RCID": 407, "PRIM": 3, "GRUP": 2, "OBJL": 12, "RVER": 1, "AGEN": 550, "FIDN": 403813991, "FIDS": 8691, "LNAM": "02261811B66721F3", "SCAMIN": 29999, "SORDAT": "200504", "SORIND": "US,US,graph,Chart 13223" }, "geometry": { "type": "Polygon", "coordinates": [ [ [ -71.385658, 41.4818907 ], [ -71.3854733, 41.4820968 ], [ -71.3853312, 41.4820036 ], [ -71.3855096, 41.4817986 ], [ -71.385658, 41.4818907 ] ] ] } },
{ "type": "Feature", "properties": { "RCID": 408, "PRIM": 3, "GRUP": 2, "OBJL": 12, "RVER": 1, "AGEN": 550, "FIDN": 235239734, "FIDS": 8691, "LNAM": "02260E05793621F3", "SCAMIN": 29999, "SORDAT": "200504", "SORIND": "US,US,graph,Chart 13223" }, "geometry": { "type": "Polygon", "coordinates": [ [ [ -71.330111, 41.5110735 ], [ -71.3301038, 41.511538 ], [ -71.3298631, 41.5115362 ], [ -71.3298703, 41.5110717 ], [ -71.330111, 41.5110735 ] ] ] } },
{ "type": "Feature", "properties": { "RCID": 409, "PRIM": 3, "GRUP": 2, "OBJL": 12, "RVER": 1, "AGEN": 550, "FIDN": 192313531, "FIDS": 8691, "LNAM": "02260B7678BB21F3", "SCAMIN": 29999, "SORDAT": "20140818", "SORIND": "US,US,graph,GC-11187" }, "geometry": { "type": "Polygon", "coordinates": [ [ [ -71.3652, 41.5105167 ], [ -71.3651874, 41.5104941 ], [ -71.3651284, 41.5105127 ], [ -71.3650856, 41.510436 ], [ -71.3650336, 41.5104524 ], [ -71.3649626, 41.5103251 ], [ -71.3651991, 41.5102506 ], [ -71.3652798, 41.5103953 ], [ -71.3652714, 41.510398 ], [ -71.3653058, 41.5104597 ], [ -71.3652428, 41.5104796 ], [ -71.365254, 41.5104997 ], [ -71.3652, 41.5105167 ] ] ] } },
{ "type": "Feature", "properties": { "RCID": 410, "PRIM": 3, "GRUP": 2, "OBJL": 12, "RVER": 1, "AGEN": 550, "FIDN": 200255181, "FIDS": 8691, "LNAM": "02260BEFA6CD21F3", "SCAMIN": 29999, "SORDAT": "20140818", "SORIND": "US,US,graph,GC-11187" }, "geometry": { "type": "Polygon", "coordinates": [ [ [ -71.3262738, 41.5130387 ], [ -71.3260707, 41.5130157 ], [ -71.3260619, 41.513071 ], [ -71.3256396, 41.5130321 ], [ -71.3256165, 41.5130252 ], [ -71.3256002, 41.5130157 ], [ -71.3255982, 41.5129598 ], [ -71.3256045, 41.5129532 ], [ -71.32565, 41.512668 ], [ -71.3263264, 41.5127288 ], [ -71.3263698, 41.5125046 ], [ -71.326886, 41.512561 ], [ -71.3268361, 41.5128175 ], [ -71.3267946, 41.5128122 ], [ -71.326731, 41.5131602 ], [ -71.3262618, 41.5131101 ], [ -71.3262738, 41.5130387 ] ] ] } },
{ "type": "Feature", "properties": { "RCID": 411, "PRIM": 3, "GRUP": 2, "OBJL": 12, "RVER": 1, "AGEN": 550, "FIDN": 454766988, "FIDS": 8691, "LNAM": "02261B1B318C21F3", "SCAMIN": 29999, "SORDAT": "20140818", "SORIND": "US,US,graph,GC-11187" }, "geometry": { "type": "Polygon", "coordinates": [ [ [ -71.365757, 41.5111161 ], [ -71.3657266, 41.5110641 ], [ -71.3657021, 41.5110722 ], [ -71.3656219, 41.5109354 ], [ -71.3656393, 41.5109296 ], [ -71.3656238, 41.5109031 ], [ -71.3655468, 41.5109286 ], [ -71.3655165, 41.510877 ], [ -71.3655944, 41.5108512 ], [ -71.3655354, 41.5107506 ], [ -71.3655163, 41.5107569 ], [ -71.3654738, 41.5106844 ], [ -71.3656603, 41.5106226 ], [ -71.3657031, 41.5106956 ], [ -71.3656938, 41.5106987 ], [ -71.3658629, 41.5109874 ], [ -71.3659136, 41.5109706 ], [ -71.3659842, 41.5110911 ], [ -71.3659635, 41.5110979 ], [ -71.3659521, 41.5110786 ], [ -71.3659081, 41.5110931 ], [ -71.3658949, 41.5110704 ], [ -71.365757, 41.5111161 ] ] ] } },
{ "type": "Feature", "properties": { "RCID": 412, "PRIM": 3, "GRUP": 2, "OBJL": 12, "RVER": 1, "AGEN": 550, "FIDN": 212520485, "FIDS": 8691, "LNAM": "02260CAACE2521F3", "SCAMIN": 29999, "SORDAT": "20140818", "SORIND": "US,US,graph,GC-11187" }, "geometry": { "type": "Polygon", "coordinates": [ [ [ -71.3257763, 41.4877559 ], [ -71.3254482, 41.487742 ], [ -71.3254311, 41.4879965 ], [ -71.3255486, 41.4879972 ], [ -71.3255487, 41.4878546 ], [ -71.3255718, 41.4878553 ], [ -71.3257779, 41.4878617 ], [ -71.3257763, 41.4877559 ] ] ] } },
{ "type": "Feature", "properties": { "RCID": 413, "PRIM": 3, "GRUP": 2, "OBJL": 12, "RVER": 1, "AGEN": 550, "FIDN": 526585697, "FIDS": 8691, "LNAM": "02261F630F6121F3", "SCAMIN": 29999, "SORDAT": "20140818", "SORIND": "US,US,graph,GC-11187" }, "geometry": { "type": "Polygon", "coordinates": [ [ [ -71.3275661, 41.505493 ], [ -71.3279233, 41.504783 ], [ -71.3282594, 41.5048838 ], [ -71.3279018, 41.5055865 ], [ -71.3275661, 41.505493 ] ] ] } },
{ "type": "Feature", "properties": { "RCID": 414, "PRIM": 3, "GRUP": 2, "OBJL": 12, "RVER": 1, "AGEN": 550, "FIDN": 243754989, "FIDS": 8691, "LNAM": "02260E8767ED21F3", "SCAMIN": 29999, "SORDAT": "20050620", "SORIND": "US,US,graph,GC-10585" }, "geometry": { "type": "Polygon", "coordinates": [ [ [ -71.3289091, 41.5097975 ], [ -71.3281526, 41.5098 ], [ -71.3281497, 41.5093034 ], [ -71.3289061, 41.5093008 ], [ -71.3289091, 41.5097975 ] ] ] } },
{ "type": "Feature", "properties": { "RCID": 415, "PRIM": 3, "GRUP": 2, "OBJL": 12, "RVER": 1, "AGEN": 550, "FIDN": 736435849, "FIDS": 8691, "LNAM": "02262BE51E8921F3", "SCAMIN": 29999, "SORDAT": "200504", "SORIND": "US,US,graph,Chart 13223" }, "geometry": { "type": "Polygon", "coordinates": [ [ [ -71.3302057, 41.5109894 ], [ -71.329962, 41.5109856 ], [ -71.3299695, 41.5105253 ], [ -71.3302172, 41.5105298 ], [ -71.3302057, 41.5109894 ] ] ] } },
{ "type": "Feature", "properties": { "RCID": 416, "PRIM": 3, "GRUP": 2, "OBJL": 12, "RVER": 1, "AGEN": 550, "FIDN": 228475165, "FIDS": 8691, "LNAM": "02260D9E411D21F3", "SCAMIN": 29999, "SORDAT": "20050620", "SORIND": "US,US,graph,GC-10585" }, "geometry": { "type": "Polygon", "coordinates": [ [ [ -71.3282312, 41.4864066 ], [ -71.3280918, 41.4863458 ], [ -71.328018, 41.4864541 ], [ -71.3278174, 41.4865344 ], [ -71.3277997, 41.4864144 ], [ -71.3279718, 41.4862249 ], [ -71.3283013, 41.4862172 ], [ -71.32845, 41.4863969 ], [ -71.3284163, 41.4865173 ], [ -71.3282533, 41.4866143 ], [ -71.3282988, 41.4867634 ], [ -71.3280472, 41.4868816 ], [ -71.327903, 41.4868188 ], [ -71.327869, 41.4866853 ], [ -71.3282311, 41.4864873 ], [ -71.3282312, 41.4864066 ] ] ] } },
{ "type": "Feature", "properties": { "RCID": 417, "PRIM": 3, "GRUP": 2, "OBJL": 12, "RVER": 1, "AGEN": 550, "FIDN": 736252737, "FIDS": 8691, "LNAM": "02262BE2534121F3", "SCAMIN": 29999, "SORDAT": "20140818", "SORIND": "US,US,graph,GC-11187" }, "geometry": { "type": "Polygon", "coordinates": [ [ [ -71.327219, 41.4926646 ], [ -71.3271705, 41.4925211 ], [ -71.3272728, 41.4925167 ], [ -71.3272163, 41.4917716 ], [ -71.3269383, 41.4917836 ], [ -71.326928, 41.4916487 ], [ -71.3272332, 41.4916603 ], [ -71.327217, 41.4914467 ], [ -71.327538, 41.491433 ], [ -71.3275258, 41.4917021 ], [ -71.3278471, 41.4916447 ], [ -71.3277862, 41.4911157 ], [ -71.3277369, 41.4909266 ], [ -71.3276703, 41.4909297 ], [ -71.3277, 41.4905637 ], [ -71.3282923, 41.4905228 ], [ -71.3283612, 41.4912006 ], [ -71.3284204, 41.4911981 ], [ -71.3284284, 41.4913027 ], [ -71.3283685, 41.4913053 ], [ -71.328378, 41.4914305 ], [ -71.3281665, 41.4914627 ], [ -71.3282098, 41.491698 ], [ -71.3281134, 41.4917021 ], [ -71.3281273, 41.4919629 ], [ -71.3275343, 41.4919504 ], [ -71.3275388, 41.4920097 ], [ -71.327405, 41.4920154 ], [ -71.3274434, 41.4925224 ], [ -71.3275275, 41.4925188 ], [ -71.3275321, 41.4925794 ], [ -71.3275029, 41.4926525 ], [ -71.327219, 41.4926646 ] ] ] } },
{ "type": "Feature", "properties": { "RCID": 418, "PRIM": 3, "GRUP": 2, "OBJL": 12, "RVER": 1, "AGEN": 550, "FIDN": 503857792, "FIDS": 8691, "LNAM": "02261E08428021F3", "SCAMIN": 29999, "SORDAT": "20140818", "SORIND": "US,US,graph,GC-11187" }, "geometry": { "type": "Polygon", "coordinates": [ [ [ -71.3595753, 41.5050336 ], [ -71.3595184, 41.504979 ], [ -71.3594631, 41.5050116 ], [ -71.3593892, 41.5049408 ], [ -71.3593558, 41.5049605 ], [ -71.359282, 41.5048897 ], [ -71.3592987, 41.5048799 ], [ -71.3592345, 41.5048183 ], [ -71.359423, 41.5047073 ], [ -71.3594441, 41.5047275 ], [ -71.3594917, 41.5046994 ], [ -71.3595794, 41.5047836 ], [ -71.3594456, 41.5048624 ], [ -71.3594812, 41.5048965 ], [ -71.3594703, 41.5049029 ], [ -71.3595327, 41.5049628 ], [ -71.3596265, 41.5049075 ], [ -71.3596884, 41.5049669 ], [ -71.3595753, 41.5050336 ] ] ] } },
{ "type": "Feature", "properties": { "RCID": 419, "PRIM": 3, "GRUP": 2, "OBJL": 12, "RVER": 1, "AGEN": 550, "FIDN": 407647275, "FIDS": 8691, "LNAM": "0226184C342B21F3", "SCAMIN": 29999, "SORDAT": "20140818", "SORIND": "US,US,graph,GC-11187" }, "geometry": { "type": "Polygon", "coordinates": [ [ [ -71.3665661, 41.4956443 ], [ -71.3665782, 41.4955453 ], [ -71.3667206, 41.4955552 ], [ -71.3667228, 41.4955375 ], [ -71.3668255, 41.4955446 ], [ -71.3668237, 41.4955589 ], [ -71.3670864, 41.4955772 ], [ -71.3670931, 41.4955222 ], [ -71.3671841, 41.4955285 ], [ -71.3671648, 41.4956858 ], [ -71.3665661, 41.4956443 ] ] ] } },
{ "type": "Feature", "properties": { "RCID": 420, "PRIM": 3, "GRUP": 2, "OBJL": 12, "RVER": 1, "AGEN": 550, "FIDN": 26717546, "FIDS": 8691, "LNAM": "02260197AD6A21F3", "SCAMIN": 29999, "SORDAT": "200504", "SORIND": "US,US,graph,Chart 13223" }, "geometry": { "type": "Polygon", "coordinates": [ [ [ -71.329951, 41.5073437 ], [ -71.329944, 41.5075326 ], [ -71.3296525, 41.5075372 ], [ -71.3296595, 41.5080176 ], [ -71.3294784, 41.5080258 ], [ -71.3294519, 41.5080269 ], [ -71.3294472, 41.5075326 ], [ -71.3291767, 41.5075349 ], [ -71.3291767, 41.5073577 ], [ -71.329951, 41.5073437 ] ] ] } },
{ "type": "Feature", "properties": { "RCID": 421, "PRIM": 3, "GRUP": 2, "OBJL": 12, "RVER": 1, "AGEN": 550, "FIDN": 92687322, "FIDS": 8691, "LNAM": "022605864BDA21F3", "SCAMIN": 29999, "SORDAT": "20050620", "SORIND": "US,US,graph,GC-10585" }, "geometry": { "type": "Polygon", "coordinates": [ [ [ -71.3292906, 41.5092995 ], [ -71.3293022, 41.508674 ], [ -71.3294479, 41.5086756 ], [ -71.3294553, 41.5082804 ], [ -71.3299284, 41.5082854 ], [ -71.3299208, 41.5086965 ], [ -71.3295253, 41.5086924 ], [ -71.3295144, 41.5092849 ], [ -71.3299336, 41.5092893 ], [ -71.3299244, 41.5097897 ], [ -71.3294014, 41.5097843 ], [ -71.3294103, 41.5093008 ], [ -71.3292906, 41.5092995 ] ] ] } },
{ "type": "Feature", "properties": { "RCID": 422, "PRIM": 3, "GRUP": 2, "OBJL": 12, "RVER": 1, "AGEN": 550, "FIDN": 184626223, "FIDS": 8691, "LNAM": "02260B012C2F21F3", "SCAMIN": 29999, "SORDAT": "200504", "SORIND": "US,US,graph,Chart 13223" }, "geometry": { "type": "Polygon", "coordinates": [ [ [ -71.3302691, 41.5073911 ], [ -71.3302785, 41.5078598 ], [ -71.3298508, 41.5078621 ], [ -71.3298377, 41.5078621 ], [ -71.3298354, 41.5076476 ], [ -71.3301222, 41.5076476 ], [ -71.3301269, 41.5073911 ], [ -71.3302691, 41.5073911 ] ] ] } },
{ "type": "Feature", "properties": { "RCID": 438, "PRIM": 1, "GRUP": 2, "OBJL": 12, "RVER": 1, "AGEN": 550, "FIDN": 832444152, "FIDS": 12345, "LNAM": "0226319E16F83039", "COLOUR": [ "1" ], "SCAMIN": 29999, "SORDAT": "20140818", "SORIND": "US,US,graph,GC-11187" }, "geometry": { "type": "Point", "coordinates": [ -71.3427231, 41.4954682 ] } },
{ "type": "Feature", "properties": { "RCID": 439, "PRIM": 1, "GRUP": 2, "OBJL": 12, "RVER": 1, "AGEN": 550, "FIDN": 134932943, "FIDS": 7303, "LNAM": "0226080AE9CF1C87", "SCAMIN": 29999, "SORDAT": "200504", "SORIND": "US,US,graph,Chart 13223" }, "geometry": { "type": "Point", "coordinates": [ -71.3622485, 41.5244444 ] } },
{ "type": "Feature", "properties": { "RCID": 440, "PRIM": 1, "GRUP": 2, "OBJL": 12, "RVER": 1, "AGEN": 550, "FIDN": 912006509, "FIDS": 7303, "LNAM": "0226365C1D6D1C87", "SCAMIN": 29999, "SORDAT": "200504", "SORIND": "US,US,graph,Chart 13223" }, "geometry": { "type": "Point", "coordinates": [ -71.3624437, 41.5237109 ] } },
{ "type": "Feature", "properties": { "RCID": 441, "PRIM": 1, "GRUP": 2, "OBJL": 12, "RVER": 1, "AGEN": 550, "FIDN": 320912833, "FIDS": 7303, "LNAM": "02261320BDC11C87", "SCAMIN": 29999, "SORDAT": "200504", "SORIND": "US,US,graph,Chart 13223" }, "geometry": { "type": "Point", "coordinates": [ -71.3655121, 41.4915709 ] } },
{ "type": "Feature", "properties": { "RCID": 442, "PRIM": 1, "GRUP": 2, "OBJL": 12, "RVER": 1, "AGEN": 550, "FIDN": 877081819, "FIDS": 7303, "LNAM": "0226344734DB1C87", "SCAMIN": 29999, "SORDAT": "200504", "SORIND": "US,US,graph,Chart 13223" }, "geometry": { "type": "Point", "coordinates": [ -71.3660307, 41.515969 ] } },
{ "type": "Feature", "properties": { "RCID": 443, "PRIM": 1, "GRUP": 2, "OBJL": 12, "RVER": 1, "AGEN": 550, "FIDN": 313789825, "FIDS": 7303, "LNAM": "022612B40D811C87", "SCAMIN": 29999, "SORDAT": "200504", "SORIND": "US,US,graph,Chart 13223" }, "geometry": { "type": "Point", "coordinates": [ -71.3674787, 41.4980632 ] } },
{ "type": "Feature", "properties": { "RCID": 444, "PRIM": 1, "GRUP": 2, "OBJL": 12, "RVER": 1, "AGEN": 550, "FIDN": 537528921, "FIDS": 7303, "LNAM": "0226200A0A591C87", "SCAMIN": 29999, "SORDAT": "200504", "SORIND": "US,US,graph,Chart 13223" }, "geometry": { "type": "Point", "coordinates": [ -71.3752132, 41.5051086 ] } },
{ "type": "Feature", "properties": { "RCID": 445, "PRIM": 1, "GRUP": 2, "OBJL": 12, "RVER": 1, "AGEN": 550, "FIDN": 85851663, "FIDS": 7303, "LNAM": "0226051DFE0F1C87", "SCAMIN": 29999, "SORDAT": "200504", "SORIND": "US,US,graph,Chart 13223" }, "geometry": { "type": "Point", "coordinates": [ -71.3756731, 41.5050933 ] } },
{ "type": "Feature", "properties": { "RCID": 446, "PRIM": 1, "GRUP": 2, "OBJL": 12, "RVER": 1, "AGEN": 550, "FIDN": 184682078, "FIDS": 7303, "LNAM": "02260B02065E1C87", "SCAMIN": 29999, "SORDAT": "200504", "SORIND": "US,US,graph,Chart 13223" }, "geometry": { "type": "Point", "coordinates": [ -71.3760276, 41.4777431 ] } },
{ "type": "Feature", "properties": { "RCID": 447, "PRIM": 1, "GRUP": 2, "OBJL": 12, "RVER": 1, "AGEN": 550, "FIDN": 91054976, "FIDS": 7303, "LNAM": "0226056D63801C87", "SCAMIN": 29999, "SORDAT": "200504", "SORIND": "US,US,graph,Chart 13223" }, "geometry": { "type": "Point", "coordinates": [ -71.3828135, 41.4966982 ] } },
{ "type": "Feature", "properties": { "RCID": 448, "PRIM": 1, "GRUP": 2, "OBJL": 12, "RVER": 1, "AGEN": 550, "FIDN": 100428518, "FIDS": 7303, "LNAM": "022605FC6AE61C87", "SCAMIN": 29999, "SORDAT": "200504", "SORIND": "US,US,graph,Chart 13223" }, "geometry": { "type": "Point", "coordinates": [ -71.3608053, 41.484235 ] } },
{ "type": "Feature", "properties": { "RCID": 449, "PRIM": 1, "GRUP": 2, "OBJL": 12, "RVER": 1, "AGEN": 550, "FIDN": 279829891, "FIDS": 7303, "LNAM": "022610ADDD831C87", "SCAMIN": 29999, "SORDAT": "200504", "SORIND": "US,US,graph,Chart 13223" }, "geometry": { "type": "Point", "coordinates": [ -71.363324, 41.5219404 ] } },
{ "type": "Feature", "properties": { "RCID": 450, "PRIM": 1, "GRUP": 2, "OBJL": 12, "RVER": 1, "AGEN": 550, "FIDN": 822626790, "FIDS": 7303, "LNAM": "0226310849E61C87", "SCAMIN": 29999, "SORDAT": "200504", "SORIND": "US,US,graph,Chart 13223" }, "geometry": { "type": "Point", "coordinates": [ -71.3638869, 41.4887073 ] } },
{ "type": "Feature", "properties": { "RCID": 451, "PRIM": 1, "GRUP": 2, "OBJL": 12, "RVER": 1, "AGEN": 550, "FIDN": 708630007, "FIDS": 7303, "LNAM": "02262A3CD5F71C87", "SCAMIN": 29999, "SORDAT": "200504", "SORIND": "US,US,graph,Chart 13223" }, "geometry": { "type": "Point", "coordinates": [ -71.3655121, 41.4918897 ] } },
{ "type": "Feature", "properties": { "RCID": 452, "PRIM": 1, "GRUP": 2, "OBJL": 12, "RVER": 1, "AGEN": 550, "FIDN": 267772556, "FIDS": 7303, "LNAM": "02260FF5E28C1C87", "SCAMIN": 29999, "SORDAT": "200504", "SORIND": "US,US,graph,Chart 13223" }, "geometry": { "type": "Point", "coordinates": [ -71.3773402, 41.4823897 ] } },
{ "type": "Feature", "properties": { "RCID": 453, "PRIM": 1, "GRUP": 2, "OBJL": 12, "RVER": 1, "AGEN": 550, "FIDN": 627584284, "FIDS": 7303, "LNAM": "022625682D1C1C87", "SCAMIN": 29999, "SORDAT": "200504", "SORIND": "US,US,graph,Chart 13223" }, "geometry": { "type": "Point", "coordinates": [ -71.3785295, 41.4914791 ] } },
{ "type": "Feature", "properties": { "RCID": 454, "PRIM": 1, "GRUP": 2, "OBJL": 12, "RVER": 1, "AGEN": 550, "FIDN": 258937963, "FIDS": 7303, "LNAM": "02260F6F146B1C87", "SCAMIN": 29999, "SORDAT": "200504", "SORIND": "US,US,graph,Chart 13223" }, "geometry": { "type": "Point", "coordinates": [ -71.3789415, 41.4909235 ] } },
{ "type": "Feature", "properties": { "RCID": 455, "PRIM": 1, "GRUP": 2, "OBJL": 12, "RVER": 1, "AGEN": 550, "FIDN": 885434544, "FIDS": 7303, "LNAM": "022634C6A8B01C87", "SCAMIN": 29999, "SORDAT": "200504", "SORIND": "US,US,graph,Chart 13223" }, "geometry": { "type": "Point", "coordinates": [ -71.3801631, 41.4894061 ] } },
{ "type": "Feature", "properties": { "RCID": 456, "PRIM": 1, "GRUP": 2, "OBJL": 12, "RVER": 1, "AGEN": 550, "FIDN": 477527140, "FIDS": 7303, "LNAM": "02261C767C641C87", "SCAMIN": 29999, "SORDAT": "200504", "SORIND": "US,US,graph,Chart 13223" }, "geometry": { "type": "Point", "coordinates": [ -71.3827009, 41.5006042 ] } },
{ "type": "Feature", "properties": { "RCID": 457, "PRIM": 1, "GRUP": 2, "OBJL": 12, "RVER": 1, "AGEN": 550, "FIDN": 564635706, "FIDS": 7303, "LNAM": "022621A7A83A1C87", "SCAMIN": 29999, "SORDAT": "200504", "SORIND": "US,US,graph,Chart 13223" }, "geometry": { "type": "Point", "coordinates": [ -71.3828027, 41.4971367 ] } },
{ "type": "Feature", "properties": { "RCID": 458, "PRIM": 1, "GRUP": 2, "OBJL": 12, "RVER": 1, "AGEN": 550, "FIDN": 258215708, "FIDS": 7303, "LNAM": "02260F640F1C1C87", "SCAMIN": 29999, "SORDAT": "200504", "SORIND": "US,US,graph,Chart 13223" }, "geometry": { "type": "Point", "coordinates": [ -71.3834722, 41.4957554 ] } },
{ "type": "Feature", "properties": { "RCID": 459, "PRIM": 1, "GRUP": 2, "OBJL": 12, "RVER": 1, "AGEN": 550, "FIDN": 528308333, "FIDS": 7303, "LNAM": "02261F7D586D1C87", "SCAMIN": 29999, "SORDAT": "200504", "SORIND": "US,US,graph,Chart 13223" }, "geometry": { "type": "Point", "coordinates": [ -71.3846843, 41.4962237 ] } },
{ "type": "Feature", "properties": { "RCID": 460, "PRIM": 1, "GRUP": 2, "OBJL": 12, "RVER": 1, "AGEN": 550, "FIDN": 996982465, "FIDS": 7303, "LNAM": "02263B6CBEC11C87", "SCAMIN": 29999, "SORDAT": "200504", "SORIND": "US,US,graph,Chart 13223" }, "geometry": { "type": "Point", "coordinates": [ -71.3853825, 41.4787978 ] } },
{ "type": "Feature", "properties": { "RCID": 461, "PRIM": 1, "GRUP": 2, "OBJL": 12, "RVER": 1, "AGEN": 550, "FIDN": 8652678, "FIDS": 7303, "LNAM": "0226008407861C87", "SCAMIN": 29999, "SORDAT": "200504", "SORIND": "US,US,graph,Chart 13223" }, "geometry": { "type": "Point", "coordinates": [ -71.3609982, 41.4825581 ] } },
{ "type": "Feature", "properties": { "RCID": 462, "PRIM": 1, "GRUP": 2, "OBJL": 12, "RVER": 1, "AGEN": 550, "FIDN": 34497796, "FIDS": 7303, "LNAM": "0226020E65041C87", "SCAMIN": 29999, "SORDAT": "200504", "SORIND": "US,US,graph,Chart 13223" }, "geometry": { "type": "Point", "coordinates": [ -71.3622485, 41.5027425 ] } },
{ "type": "Feature", "properties": { "RCID": 463, "PRIM": 1, "GRUP": 2, "OBJL": 12, "RVER": 1, "AGEN": 550, "FIDN": 945661498, "FIDS": 7303, "LNAM": "0226385DA63A1C87", "SCAMIN": 29999, "SORDAT": "200504", "SORIND": "US,US,graph,Chart 13223" }, "geometry": { "type": "Point", "coordinates": [ -71.3626964, 41.502304 ] } },
{ "type": "Feature", "properties": { "RCID": 464, "PRIM": 1, "GRUP": 2, "OBJL": 12, "RVER": 1, "AGEN": 550, "FIDN": 694602346, "FIDS": 7303, "LNAM": "02262966CA6A1C87", "SCAMIN": 29999, "SORDAT": "200504", "SORIND": "US,US,graph,Chart 13223" }, "geometry": { "type": "Point", "coordinates": [ -71.3643396, 41.4885281 ] } },
{ "type": "Feature", "properties": { "RCID": 465, "PRIM": 1, "GRUP": 2, "OBJL": 12, "RVER": 1, "AGEN": 550, "FIDN": 85511130, "FIDS": 7303, "LNAM": "02260518CBDA1C87", "SCAMIN": 29999, "SORDAT": "200504", "SORIND": "US,US,graph,Chart 13223" }, "geometry": { "type": "Point", "coordinates": [ -71.3656139, 41.5168152 ] } },
{ "type": "Feature", "properties": { "RCID": 466, "PRIM": 1, "GRUP": 2, "OBJL": 12, "RVER": 1, "AGEN": 550, "FIDN": 613683967, "FIDS": 7303, "LNAM": "0226249412FF1C87", "SCAMIN": 29999, "SORDAT": "200504", "SORIND": "US,US,graph,Chart 13223" }, "geometry": { "type": "Point", "coordinates": [ -71.3761641, 41.5050861 ] } },
{ "type": "Feature", "properties": { "RCID": 467, "PRIM": 1, "GRUP": 2, "OBJL": 12, "RVER": 1, "AGEN": 550, "FIDN": 451738769, "FIDS": 7303, "LNAM": "02261AECFC911C87", "SCAMIN": 29999, "SORDAT": "200504", "SORIND": "US,US,graph,Chart 13223" }, "geometry": { "type": "Point", "coordinates": [ -71.3828231, 41.4969287 ] } },
{ "type": "Feature", "properties": { "RCID": 468, "PRIM": 1, "GRUP": 2, "OBJL": 12, "RVER": 1, "AGEN": 550, "FIDN": 651166666, "FIDS": 7303, "LNAM": "022626D003CA1C87", "SCAMIN": 29999, "SORDAT": "200504", "SORIND": "US,US,graph,Chart 13223" }, "geometry": { "type": "Point", "coordinates": [ -71.363324, 41.5221232 ] } },
{ "type": "Feature", "properties": { "RCID": 469, "PRIM": 1, "GRUP": 2, "OBJL": 12, "RVER": 1, "AGEN": 550, "FIDN": 151429816, "FIDS": 7303, "LNAM": "02260906A2B81C87", "SCAMIN": 29999, "SORDAT": "200504", "SORIND": "US,US,graph,Chart 13223" }, "geometry": { "type": "Point", "coordinates": [ -71.3635456, 41.5296203 ] } },
{ "type": "Feature", "properties": { "RCID": 470, "PRIM": 1, "GRUP": 2, "OBJL": 12, "RVER": 1, "AGEN": 550, "FIDN": 810451143, "FIDS": 7303, "LNAM": "0226304E80C71C87", "SCAMIN": 29999, "SORDAT": "200504", "SORIND": "US,US,graph,Chart 13223" }, "geometry": { "type": "Point", "coordinates": [ -71.36376, 41.5319296 ] } },
{ "type": "Feature", "properties": { "RCID": 471, "PRIM": 1, "GRUP": 2, "OBJL": 12, "RVER": 1, "AGEN": 550, "FIDN": 162042865, "FIDS": 7303, "LNAM": "022609A893F11C87", "SCAMIN": 29999, "SORDAT": "200504", "SORIND": "US,US,graph,Chart 13223" }, "geometry": { "type": "Point", "coordinates": [ -71.3642977, 41.5357902 ] } },
{ "type": "Feature", "properties": { "RCID": 472, "PRIM": 1, "GRUP": 2, "OBJL": 12, "RVER": 1, "AGEN": 550, "FIDN": 893498753, "FIDS": 7303, "LNAM": "02263541B5811C87", "SCAMIN": 29999, "SORDAT": "200504", "SORIND": "US,US,graph,Chart 13223" }, "geometry": { "type": "Point", "coordinates": [ -71.3643564, 41.4879931 ] } },
{ "type": "Feature", "properties": { "RCID": 473, "PRIM": 1, "GRUP": 2, "OBJL": 12, "RVER": 1, "AGEN": 550, "FIDN": 98932211, "FIDS": 7303, "LNAM": "022605E595F31C87", "SCAMIN": 29999, "SORDAT": "200504", "SORIND": "US,US,graph,Chart 13223" }, "geometry": { "type": "Point", "coordinates": [ -71.3660798, 41.4924012 ] } },
{ "type": "Feature", "properties": { "RCID": 474, "PRIM": 1, "GRUP": 2, "OBJL": 12, "RVER": 1, "AGEN": 550, "FIDN": 527058178, "FIDS": 7303, "LNAM": "02261F6A45021C87", "SCAMIN": 29999, "SORDAT": "200504", "SORIND": "US,US,graph,Chart 13223" }, "geometry": { "type": "Point", "coordinates": [ -71.367517, 41.4978597 ] } },
{ "type": "Feature", "properties": { "RCID": 475, "PRIM": 1, "GRUP": 2, "OBJL": 12, "RVER": 1, "AGEN": 550, "FIDN": 298626077, "FIDS": 7303, "LNAM": "022611CCAC1D1C87", "SCAMIN": 29999, "SORDAT": "200504", "SORIND": "US,US,graph,Chart 13223" }, "geometry": { "type": "Point", "coordinates": [ -71.3701315, 41.4783817 ] } },
{ "type": "Feature", "properties": { "RCID": 476, "PRIM": 1, "GRUP": 2, "OBJL": 12, "RVER": 1, "AGEN": 550, "FIDN": 422083135, "FIDS": 7303, "LNAM": "022619287A3F1C87", "SCAMIN": 29999, "SORDAT": "200504", "SORIND": "US,US,graph,Chart 13223" }, "geometry": { "type": "Point", "coordinates": [ -71.3755605, 41.5095479 ] } },
{ "type": "Feature", "properties": { "RCID": 477, "PRIM": 1, "GRUP": 2, "OBJL": 12, "RVER": 1, "AGEN": 550, "FIDN": 251361546, "FIDS": 7303, "LNAM": "02260EFB790A1C87", "SCAMIN": 29999, "SORDAT": "200504", "SORIND": "US,US,graph,Chart 13223" }, "geometry": { "type": "Point", "coordinates": [ -71.3801918, 41.4883669 ] } },
{ "type": "Feature", "properties": { "RCID": 478, "PRIM": 1, "GRUP": 2, "OBJL": 12, "RVER": 1, "AGEN": 550, "FIDN": 776208002, "FIDS": 7303, "LNAM": "02262E43FE821C87", "SCAMIN": 29999, "SORDAT": "200504", "SORIND": "US,US,graph,Chart 13223" }, "geometry": { "type": "Point", "coordinates": [ -71.3827956, 41.4973105 ] } },
{ "type": "Feature", "properties": { "RCID": 479, "PRIM": 1, "GRUP": 2, "OBJL": 12, "RVER": 1, "AGEN": 550, "FIDN": 237041172, "FIDS": 7303, "LNAM": "02260E20F6141C87", "SCAMIN": 29999, "SORDAT": "200504", "SORIND": "US,US,graph,Chart 13223" }, "geometry": { "type": "Point", "coordinates": [ -71.3834435, 41.4981875 ] } },
{ "type": "Feature", "properties": { "RCID": 480, "PRIM": 1, "GRUP": 2, "OBJL": 12, "RVER": 1, "AGEN": 550, "FIDN": 475779903, "FIDS": 7303, "LNAM": "02261C5BD33F1C87", "SCAMIN": 29999, "SORDAT": "200504", "SORIND": "US,US,graph,Chart 13223" }, "geometry": { "type": "Point", "coordinates": [ -71.3841393, 41.4953034 ] } },
{ "type": "Feature", "properties": { "RCID": 481, "PRIM": 1, "GRUP": 2, "OBJL": 12, "RVER": 1, "AGEN": 550, "FIDN": 25258679, "FIDS": 7303, "LNAM": "022601816AB71C87", "SCAMIN": 29999, "SORDAT": "200504", "SORIND": "US,US,graph,Chart 13223" }, "geometry": { "type": "Point", "coordinates": [ -71.3857047, 41.5450602 ] } },
{ "type": "Feature", "properties": { "RCID": 482, "PRIM": 1, "GRUP": 2, "OBJL": 12, "RVER": 1, "AGEN": 550, "FIDN": 462876335, "FIDS": 7303, "LNAM": "02261B96EEAF1C87", "SCAMIN": 29999, "SORDAT": "200504", "SORIND": "US,US,graph,Chart 13223" }, "geometry": { "type": "Point", "coordinates": [ -71.3609682, 41.5485574 ] } },
{ "type": "Feature", "properties": { "RCID": 483, "PRIM": 1, "GRUP": 2, "OBJL": 12, "RVER": 1, "AGEN": 550, "FIDN": 261244210, "FIDS": 7303, "LNAM": "02260F9245321C87", "SCAMIN": 29999, "SORDAT": "200504", "SORIND": "US,US,graph,Chart 13223" }, "geometry": { "type": "Point", "coordinates": [ -71.361373, 41.5029883 ] } },
{ "type": "Feature", "properties": { "RCID": 484, "PRIM": 1, "GRUP": 2, "OBJL": 12, "RVER": 1, "AGEN": 550, "FIDN": 486652600, "FIDS": 7303, "LNAM": "02261D01BAB81C87", "SCAMIN": 29999, "SORDAT": "200504", "SORIND": "US,US,graph,Chart 13223" }, "geometry": { "type": "Point", "coordinates": [ -71.3633336, 41.5222789 ] } },
{ "type": "Feature", "properties": { "RCID": 485, "PRIM": 1, "GRUP": 2, "OBJL": 12, "RVER": 1, "AGEN": 550, "FIDN": 291919781, "FIDS": 7303, "LNAM": "0226116657A51C87", "SCAMIN": 29999, "SORDAT": "200504", "SORIND": "US,US,graph,Chart 13223" }, "geometry": { "type": "Point", "coordinates": [ -71.3633587, 41.5224787 ] } },
{ "type": "Feature", "properties": { "RCID": 486, "PRIM": 1, "GRUP": 2, "OBJL": 12, "RVER": 1, "AGEN": 550, "FIDN": 629047737, "FIDS": 7303, "LNAM": "0226257E81B91C87", "SCAMIN": 29999, "SORDAT": "200504", "SORIND": "US,US,graph,Chart 13223" }, "geometry": { "type": "Point", "coordinates": [ -71.3643193, 41.4883029 ] } },
{ "type": "Feature", "properties": { "RCID": 487, "PRIM": 1, "GRUP": 2, "OBJL": 12, "RVER": 1, "AGEN": 550, "FIDN": 325791166, "FIDS": 7303, "LNAM": "0226136B2DBE1C87", "SCAMIN": 29999, "SORDAT": "200504", "SORIND": "US,US,graph,Chart 13223" }, "geometry": { "type": "Point", "coordinates": [ -71.3644726, 41.490014 ] } },
{ "type": "Feature", "properties": { "RCID": 488, "PRIM": 1, "GRUP": 2, "OBJL": 12, "RVER": 1, "AGEN": 550, "FIDN": 191194775, "FIDS": 7303, "LNAM": "02260B6566971C87", "SCAMIN": 29999, "SORDAT": "200504", "SORIND": "US,US,graph,Chart 13223" }, "geometry": { "type": "Point", "coordinates": [ -71.3655924, 41.5172671 ] } },
{ "type": "Feature", "properties": { "RCID": 489, "PRIM": 1, "GRUP": 2, "OBJL": 12, "RVER": 1, "AGEN": 550, "FIDN": 848232917, "FIDS": 7303, "LNAM": "0226328F01D51C87", "SCAMIN": 29999, "SORDAT": "200504", "SORIND": "US,US,graph,Chart 13223" }, "geometry": { "type": "Point", "coordinates": [ -71.3675805, 41.4976436 ] } },
{ "type": "Feature", "properties": { "RCID": 490, "PRIM": 1, "GRUP": 2, "OBJL": 12, "RVER": 1, "AGEN": 550, "FIDN": 295845005, "FIDS": 7303, "LNAM": "022611A23C8D1C87", "SCAMIN": 29999, "SORDAT": "200504", "SORIND": "US,US,graph,Chart 13223" }, "geometry": { "type": "Point", "coordinates": [ -71.3782229, 41.4842089 ] } },
{ "type": "Feature", "properties": { "RCID": 491, "PRIM": 1, "GRUP": 2, "OBJL": 12, "RVER": 1, "AGEN": 550, "FIDN": 353427308, "FIDS": 7303, "LNAM": "02261510DF6C1C87", "SCAMIN": 29999, "SORDAT": "200504", "SORIND": "US,US,graph,Chart 13223" }, "geometry": { "type": "Point", "coordinates": [ -71.3784013, 41.4916934 ] } },
{ "type": "Feature", "properties": { "RCID": 492, "PRIM": 1, "GRUP": 2, "OBJL": 12, "RVER": 1, "AGEN": 550, "FIDN": 513124757, "FIDS": 7303, "LNAM": "02261E95A9951C87", "SCAMIN": 29999, "SORDAT": "200504", "SORIND": "US,US,graph,Chart 13223" }, "geometry": { "type": "Point", "coordinates": [ -71.3819392, 41.5020546 ] } },
{ "type": "Feature", "properties": { "RCID": 493, "PRIM": 1, "GRUP": 2, "OBJL": 12, "RVER": 1, "AGEN": 550, "FIDN": 33635294, "FIDS": 7303, "LNAM": "022602013BDE1C87", "SCAMIN": 29999, "SORDAT": "200504", "SORIND": "US,US,graph,Chart 13223" }, "geometry": { "type": "Point", "coordinates": [ -71.3840196, 41.495018 ] } },
{ "type": "Feature", "properties": { "RCID": 494, "PRIM": 1, "GRUP": 2, "OBJL": 12, "RVER": 1, "AGEN": 550, "FIDN": 765154024, "FIDS": 7303, "LNAM": "02262D9B52E81C87", "SCAMIN": 29999, "SORDAT": "200504", "SORIND": "US,US,graph,Chart 13223" }, "geometry": { "type": "Point", "coordinates": [ -71.3637336, 41.4881597 ] } },
{ "type": "Feature", "properties": { "RCID": 495, "PRIM": 1, "GRUP": 2, "OBJL": 12, "RVER": 1, "AGEN": 550, "FIDN": 456063823, "FIDS": 7303, "LNAM": "02261B2EFB4F1C87", "SCAMIN": 29999, "SORDAT": "200504", "SORIND": "US,US,graph,Chart 13223" }, "geometry": { "type": "Point", "coordinates": [ -71.3643241, 41.5186335 ] } },
{ "type": "Feature", "properties": { "RCID": 496, "PRIM": 1, "GRUP": 2, "OBJL": 12, "RVER": 1, "AGEN": 550, "FIDN": 568550775, "FIDS": 7303, "LNAM": "022621E365771C87", "SCAMIN": 29999, "SORDAT": "200504", "SORIND": "US,US,graph,Chart 13223" }, "geometry": { "type": "Point", "coordinates": [ -71.3656043, 41.517033 ] } },
{ "type": "Feature", "properties": { "RCID": 497, "PRIM": 1, "GRUP": 2, "OBJL": 12, "RVER": 1, "AGEN": 550, "FIDN": 686466508, "FIDS": 7303, "LNAM": "022628EAA5CC1C87", "SCAMIN": 29999, "SORDAT": "200504", "SORIND": "US,US,graph,Chart 13223" }, "geometry": { "type": "Point", "coordinates": [ -71.3828231, 41.4975392 ] } },
{ "type": "Feature", "properties": { "RCID": 498, "PRIM": 1, "GRUP": 2, "OBJL": 12, "RVER": 1, "AGEN": 550, "FIDN": 723813001, "FIDS": 7303, "LNAM": "02262B2482891C87", "SCAMIN": 29999, "SORDAT": "200504", "SORIND": "US,US,graph,Chart 13223" }, "geometry": { "type": "Point", "coordinates": [ -71.3845873, 41.5447561 ] } },
{ "type": "Feature", "properties": { "RCID": 499, "PRIM": 1, "GRUP": 2, "OBJL": 12, "RVER": 1, "AGEN": 550, "FIDN": 907070885, "FIDS": 7303, "LNAM": "02263610CDA51C87", "SCAMIN": 29999, "SORDAT": "200504", "SORIND": "US,US,graph,Chart 13223" }, "geometry": { "type": "Point", "coordinates": [ -71.3847573, 41.5377772 ] } },
{ "type": "Feature", "properties": { "RCID": 500, "PRIM": 1, "GRUP": 2, "OBJL": 12, "RVER": 1, "AGEN": 550, "FIDN": 78311852, "FIDS": 7303, "LNAM": "022604AAF1AC1C87", "SCAMIN": 29999, "SORDAT": "200504", "SORIND": "US,US,graph,Chart 13223" }, "geometry": { "type": "Point", "coordinates": [ -71.3851442, 41.5376071 ] } },
{ "type": "Feature", "properties": { "RCID": 501, "PRIM": 1, "GRUP": 2, "OBJL": 12, "RVER": 1, "AGEN": 550, "FIDN": 233890708, "FIDS": 7303, "LNAM": "02260DF0E3941C87", "SCAMIN": 29999, "SORDAT": "200504", "SORIND": "US,US,graph,Chart 13223" }, "geometry": { "type": "Point", "coordinates": [ -71.36167, 41.5462541 ] } },
{ "type": "Feature", "properties": { "RCID": 502, "PRIM": 1, "GRUP": 2, "OBJL": 12, "RVER": 1, "AGEN": 550, "FIDN": 434754579, "FIDS": 7303, "LNAM": "022619E9D4131C87", "SCAMIN": 29999, "SORDAT": "200504", "SORIND": "US,US,graph,Chart 13223" }, "geometry": { "type": "Point", "coordinates": [ -71.3632785, 41.5216992 ] } },
{ "type": "Feature", "properties": { "RCID": 503, "PRIM": 1, "GRUP": 2, "OBJL": 12, "RVER": 1, "AGEN": 550, "FIDN": 443584796, "FIDS": 7303, "LNAM": "02261A70911C1C87", "SCAMIN": 29999, "SORDAT": "200504", "SORIND": "US,US,graph,Chart 13223" }, "geometry": { "type": "Point", "coordinates": [ -71.3654247, 41.4908794 ] } },
{ "type": "Feature", "properties": { "RCID": 504, "PRIM": 1, "GRUP": 2, "OBJL": 12, "RVER": 1, "AGEN": 550, "FIDN": 954778557, "FIDS": 7303, "LNAM": "022638E8C3BD1C87", "SCAMIN": 29999, "SORDAT": "200504", "SORIND": "US,US,graph,Chart 13223" }, "geometry": { "type": "Point", "coordinates": [ -71.3782864, 41.4918834 ] } },
{ "type": "Feature", "properties": { "RCID": 505, "PRIM": 1, "GRUP": 2, "OBJL": 12, "RVER": 1, "AGEN": 550, "FIDN": 304505447, "FIDS": 7303, "LNAM": "0226122662671C87", "SCAMIN": 29999, "SORDAT": "200504", "SORIND": "US,US,graph,Chart 13223" }, "geometry": { "type": "Point", "coordinates": [ -71.3590855, 41.5084126 ] } },
{ "type": "Feature", "properties": { "RCID": 506, "PRIM": 1, "GRUP": 2, "OBJL": 12, "RVER": 1, "AGEN": 550, "FIDN": 159817600, "FIDS": 7303, "LNAM": "022609869F801C87", "SCAMIN": 29999, "SORDAT": "200504", "SORIND": "US,US,graph,Chart 13223" }, "geometry": { "type": "Point", "coordinates": [ -71.3595957, 41.5054939 ] } },
{ "type": "Feature", "properties": { "RCID": 507, "PRIM": 1, "GRUP": 2, "OBJL": 12, "RVER": 1, "AGEN": 550, "FIDN": 108723502, "FIDS": 7303, "LNAM": "0226067AFD2E1C87", "SCAMIN": 29999, "SORDAT": "200504", "SORIND": "US,US,graph,Chart 13223" }, "geometry": { "type": "Point", "coordinates": [ -71.3608448, 41.5031729 ] } },
{ "type": "Feature", "properties": { "RCID": 508, "PRIM": 1, "GRUP": 2, "OBJL": 12, "RVER": 1, "AGEN": 550, "FIDN": 794121204, "FIDS": 7303, "LNAM": "02262F5553F41C87", "SCAMIN": 29999, "SORDAT": "200504", "SORIND": "US,US,graph,Chart 13223" }, "geometry": { "type": "Point", "coordinates": [ -71.3627815, 41.5229098 ] } },
{ "type": "Feature", "properties": { "RCID": 509, "PRIM": 1, "GRUP": 2, "OBJL": 12, "RVER": 1, "AGEN": 550, "FIDN": 928505434, "FIDS": 7303, "LNAM": "02263757DE5A1C87", "SCAMIN": 29999, "SORDAT": "200504", "SORIND": "US,US,graph,Chart 13223" }, "geometry": { "type": "Point", "coordinates": [ -71.3800829, 41.48794 ] } },
{ "type": "Feature", "properties": { "RCID": 510, "PRIM": 1, "GRUP": 2, "OBJL": 12, "RVER": 1, "AGEN": 550, "FIDN": 110594996, "FIDS": 7303, "LNAM": "022606978BB41C87", "SCAMIN": 29999, "SORDAT": "200504", "SORIND": "US,US,graph,Chart 13223" }, "geometry": { "type": "Point", "coordinates": [ -71.3830734, 41.4954772 ] } },
{ "type": "Feature", "properties": { "RCID": 511, "PRIM": 1, "GRUP": 2, "OBJL": 12, "RVER": 1, "AGEN": 550, "FIDN": 592878901, "FIDS": 7303, "LNAM": "022623569D351C87", "SCAMIN": 29999, "SORDAT": "200504", "SORIND": "US,US,graph,Chart 13223" }, "geometry": { "type": "Point", "coordinates": [ -71.3843142, 41.4974149 ] } },
{ "type": "Feature", "properties": { "RCID": 512, "PRIM": 1, "GRUP": 2, "OBJL": 12, "RVER": 1, "AGEN": 550, "FIDN": 824501266, "FIDS": 7303, "LNAM": "02263124E4121C87", "SCAMIN": 29999, "SORDAT": "200504", "SORIND": "US,US,graph,Chart 13223" }, "geometry": { "type": "Point", "coordinates": [ -71.3845549, 41.5443377 ] } }
]
}
