{
"type": "FeatureCollection",
"name": "CBLARE",
"crs": { "type": "name", "properties": { "name": "urn:ogc:def:crs:OGC:1.3:CRS84" } },
"features": [
{ "type": "Feature", "properties": { "RCID": 1449, "PRIM": 3, "GRUP": 2, "OBJL": 20, "RVER": 1, "AGEN": 550, "FIDN": 851841936, "FIDS": 8691, "LNAM": "022632C6139021F3", "RESTRN": [ "2", "6", "24" ], "SCAMIN": 59999, "SORDAT": "200504", "SORIND": "US,US,graph,Chart 13223" }, "geometry": { "type": "Polygon", "coordinates": [ [ [ -71.325, 41.5071366 ], [ -71.325, 41.5073654 ], [ -71.3250995, 41.5071669 ], [ -71.325, 41.5071366 ] ] ] } },
{ "type": "Feature", "properties": { "RCID": 1450, "PRIM": 3, "GRUP": 2, "OBJL": 20, "RVER": 1, "AGEN": 550, "FIDN": 788393270, "FIDS": 8691, "LNAM": "02262EFDED3621F3", "RESTRN": [ "2", "6", "24" ], "SCAMIN": 59999, "SORDAT": "200504", "SORIND": "US,US,graph,Chart 13223" }, "geometry": { "type": "Polygon", "coordinates": [ [ [ -71.3780325, 41.4825575 ], [ -71.3780219, 41.4817108 ], [ -71.3778687, 41.4812704 ], [ -71.3778762, 41.4812603 ], [ -71.3780542, 41.4810229 ], [ -71.3781359, 41.4809138 ], [ -71.3783328, 41.4803954 ], [ -71.3781142, 41.4802472 ], [ -71.3779408, 41.4801297 ], [ -71.3779157, 41.4801127 ], [ -71.3780483, 41.4796517 ], [ -71.3780623, 41.4796028 ], [ -71.3780796, 41.4795427 ], [ -71.3781491, 41.4793009 ], [ -71.378042, 41.4792536 ], [ -71.3776853, 41.4790962 ], [ -71.3776233, 41.4789949 ], [ -71.3775853, 41.4789329 ], [ -71.3775147, 41.4788177 ], [ -71.3771398, 41.4787345 ], [ -71.3771341, 41.4787155 ], [ -71.377104, 41.4786137 ], [ -71.3770511, 41.4784349 ], [ -71.376881, 41.4784764 ], [ -71.3768537, 41.4784831 ], [ -71.3767637, 41.478505 ], [ -71.3767632, 41.4785052 ], [ -71.3767628, 41.4785049 ], [ -71.3765529, 41.4783301 ], [ -71.3765536, 41.4783271 ], [ -71.3766136, 41.4780493 ], [ -71.3766068, 41.4779934 ], [ -71.3765878, 41.4778362 ], [ -71.3765599, 41.4776058 ], [ -71.3765397, 41.4774386 ], [ -71.3765212, 41.4772858 ], [ -71.3764919, 41.4770435 ], [ -71.3765845, 41.4769426 ], [ -71.3768129, 41.4768905 ], [ -71.3769134, 41.4768676 ], [ -71.3769782, 41.4766111 ], [ -71.377009, 41.4764892 ], [ -71.3771238, 41.4764321 ], [ -71.3772388, 41.4763748 ], [ -71.3772578, 41.4763654 ], [ -71.3772614, 41.4763415 ], [ -71.3772834, 41.4761956 ], [ -71.3770449, 41.4760928 ], [ -71.3768226, 41.4761308 ], [ -71.3766086, 41.4761675 ], [ -71.3765011, 41.4761859 ], [ -71.3764077, 41.4762019 ], [ -71.3762863, 41.4764012 ], [ -71.3761543, 41.476378 ], [ -71.3760521, 41.4762611 ], [ -71.3759833, 41.4761824 ], [ -71.3759529, 41.4760781 ], [ -71.3758735, 41.4758059 ], [ -71.3758585, 41.4757547 ], [ -71.3758465, 41.4757134 ], [ -71.3759242, 41.4754641 ], [ -71.3762695, 41.4751823 ], [ -71.3762923, 41.4751637 ], [ -71.3764751, 41.4750145 ], [ -71.3766094, 41.4750696 ], [ -71.376621, 41.4752092 ], [ -71.3767181, 41.4751733 ], [ -71.376742, 41.4751645 ], [ -71.3767846, 41.4751111 ], [ -71.3768665, 41.4750084 ], [ -71.3768654, 41.475 ], [ -71.3770016, 41.475 ], [ -71.3770443, 41.475 ], [ -71.3770566, 41.475 ], [ -71.3770982, 41.475 ], [ -71.3771127, 41.475 ], [ -71.3771376, 41.475 ], [ -71.3771853, 41.475 ], [ -71.3772512, 41.475 ], [ -71.3772824, 41.475 ], [ -71.3773125, 41.475 ], [ -71.3809099, 41.475 ], [ -71.3817593, 41.4780675 ], [ -71.3818117, 41.4782579 ], [ -71.3827016, 41.481494 ], [ -71.3828638, 41.4820838 ], [ -71.383964, 41.4820372 ], [ -71.384067, 41.4820328 ], [ -71.3842436, 41.4820254 ], [ -71.3842946, 41.4820233 ], [ -71.3845343, 41.4820134 ], [ -71.3845959, 41.4820108 ], [ -71.384742, 41.4820044 ], [ -71.3847665, 41.4820833 ], [ -71.3847139, 41.4821955 ], [ -71.3846714, 41.482286 ], [ -71.3846692, 41.4822907 ], [ -71.3846773, 41.4822969 ], [ -71.3847608, 41.4823612 ], [ -71.3848743, 41.4831937 ], [ -71.3853205, 41.4841495 ], [ -71.3853163, 41.4841902 ], [ -71.3852994, 41.4843555 ], [ -71.3852714, 41.484629 ], [ -71.3853269, 41.4849521 ], [ -71.3853605, 41.4851476 ], [ -71.3853737, 41.4852247 ], [ -71.3855186, 41.4854277 ], [ -71.3855848, 41.485478 ], [ -71.3856821, 41.4855519 ], [ -71.3858699, 41.4856946 ], [ -71.3859158, 41.4857295 ], [ -71.3860057, 41.4857978 ], [ -71.386055, 41.4858799 ], [ -71.3860681, 41.4859016 ], [ -71.3861716, 41.4860739 ], [ -71.3862511, 41.4862063 ], [ -71.3862933, 41.4862765 ], [ -71.3863913, 41.4864397 ], [ -71.3863668, 41.4869354 ], [ -71.3862201, 41.4874946 ], [ -71.3860412, 41.4877745 ], [ -71.3857809, 41.4879859 ], [ -71.38478, 41.4884696 ], [ -71.3843155, 41.4885866 ], [ -71.3836904, 41.4887441 ], [ -71.3825522, 41.4888038 ], [ -71.3825329, 41.4888048 ], [ -71.3814443, 41.4887113 ], [ -71.3810829, 41.4886258 ], [ -71.3808348, 41.4883972 ], [ -71.3807497, 41.4883189 ], [ -71.3806549, 41.4882314 ], [ -71.3806283, 41.4881974 ], [ -71.3805383, 41.4880818 ], [ -71.3801891, 41.4876338 ], [ -71.3801887, 41.4876315 ], [ -71.3801589, 41.487459 ], [ -71.3798983, 41.4872131 ], [ -71.3798653, 41.487182 ], [ -71.3797326, 41.4870568 ], [ -71.3797053, 41.4870311 ], [ -71.3796225, 41.4869529 ], [ -71.3795811, 41.4868847 ], [ -71.3795418, 41.4868201 ], [ -71.3795153, 41.4867765 ], [ -71.3794529, 41.4866737 ], [ -71.3794303, 41.4866364 ], [ -71.3793266, 41.4864658 ], [ -71.3791687, 41.4862057 ], [ -71.379115, 41.4861173 ], [ -71.3790857, 41.486069 ], [ -71.3790854, 41.4860686 ], [ -71.379085, 41.4860356 ], [ -71.3790845, 41.4859942 ], [ -71.3790795, 41.4856181 ], [ -71.3790789, 41.4855722 ], [ -71.3790788, 41.485563 ], [ -71.3790555, 41.4854863 ], [ -71.3790534, 41.4854795 ], [ -71.3790355, 41.4854208 ], [ -71.3790252, 41.4853867 ], [ -71.3789125, 41.4850168 ], [ -71.3789082, 41.4850025 ], [ -71.378909, 41.484962 ], [ -71.3789166, 41.484563 ], [ -71.3789037, 41.4845053 ], [ -71.378835, 41.4841985 ], [ -71.3788162, 41.4841145 ], [ -71.3787187, 41.4839378 ], [ -71.3785745, 41.4836767 ], [ -71.3785655, 41.4836603 ], [ -71.3785657, 41.4836515 ], [ -71.3785694, 41.483528 ], [ -71.3785721, 41.4834381 ], [ -71.3783406, 41.4831632 ], [ -71.3782191, 41.4829243 ], [ -71.3782126, 41.4829116 ], [ -71.378039, 41.4825703 ], [ -71.3780325, 41.4825575 ] ] ] } },
{ "type": "Feature", "properties": { "RCID": 1451, "PRIM": 3, "GRUP": 2, "OBJL": 20, "RVER": 1, "AGEN": 550, "FIDN": 429629053, "FIDS": 8691, "LNAM": "0226199B9E7D21F3", "RESTRN": [ "2", "6", "24" ], "SCAMIN": 59999, "SORDAT": "200504", "SORIND": "US,US,graph,Chart 13223" }, "geometry": { "type": "Polygon", "coordinates": [ [ [ -71.3970085, 41.4771085 ], [ -71.3968429, 41.4774506 ], [ -71.3965984, 41.4782764 ], [ -71.3967088, 41.4789949 ], [ -71.3965804, 41.479846 ], [ -71.3970206, 41.4808879 ], [ -71.3969552, 41.4816538 ], [ -71.3969879, 41.4819912 ], [ -71.3970599, 41.4820752 ], [ -71.3969116, 41.4822127 ], [ -71.3969021, 41.4825455 ], [ -71.3971518, 41.4833846 ], [ -71.3976501, 41.4841392 ], [ -71.3978293, 41.4844104 ], [ -71.3977578, 41.4846136 ], [ -71.3979272, 41.4848546 ], [ -71.3979335, 41.4848635 ], [ -71.3980549, 41.4850363 ], [ -71.3979998, 41.4852529 ], [ -71.3977412, 41.4854811 ], [ -71.3976217, 41.4855865 ], [ -71.3973851, 41.4862474 ], [ -71.3973726, 41.4864675 ], [ -71.3975042, 41.4867413 ], [ -71.3978125, 41.4871058 ], [ -71.3978613, 41.4872403 ], [ -71.397946, 41.4874735 ], [ -71.397952, 41.48749 ], [ -71.3979761, 41.4875223 ], [ -71.3980912, 41.4876767 ], [ -71.3981204, 41.4877157 ], [ -71.3989895, 41.488331 ], [ -71.4, 41.4888222 ], [ -71.4, 41.4881283 ], [ -71.4, 41.4880714 ], [ -71.4, 41.487841 ], [ -71.4, 41.4875324 ], [ -71.4, 41.4872279 ], [ -71.4, 41.4871526 ], [ -71.4, 41.4869433 ], [ -71.4, 41.4866626 ], [ -71.4, 41.4866538 ], [ -71.4, 41.486221 ], [ -71.4, 41.4861017 ], [ -71.4, 41.485275 ], [ -71.4, 41.4852595 ], [ -71.4, 41.485197 ], [ -71.4, 41.4846322 ], [ -71.4, 41.4805784 ], [ -71.4, 41.480414 ], [ -71.4, 41.480259 ], [ -71.4, 41.4800496 ], [ -71.4, 41.477379 ], [ -71.3998239, 41.4771099 ], [ -71.3987747, 41.4771099 ], [ -71.3979841, 41.4771099 ], [ -71.3978501, 41.4771099 ], [ -71.3977196, 41.4771099 ], [ -71.3975907, 41.4771099 ], [ -71.3974729, 41.4771099 ], [ -71.3971078, 41.4771099 ], [ -71.3970343, 41.4771089 ], [ -71.3970085, 41.4771085 ] ] ] } },
{ "type": "Feature", "properties": { "RCID": 1452, "PRIM": 3, "GRUP": 2, "OBJL": 20, "RVER": 1, "AGEN": 550, "FIDN": 430858642, "FIDS": 8691, "LNAM": "022619AE619221F3", "RESTRN": [ "2", "6", "24" ], "SCAMIN": 59999, "SORDAT": "200504", "SORIND": "US,US,graph,Chart 13223" }, "geometry": { "type": "Polygon", "coordinates": [ [ [ -71.4, 41.5072596 ], [ -71.3998359, 41.5071991 ], [ -71.3990425, 41.5069079 ], [ -71.3987417, 41.5068256 ], [ -71.3985242, 41.506766 ], [ -71.4, 41.506767 ], [ -71.4, 41.5070897 ], [ -71.4, 41.5071826 ], [ -71.4, 41.5072596 ] ] ] } },
{ "type": "Feature", "properties": { "RCID": 1453, "PRIM": 3, "GRUP": 2, "OBJL": 20, "RVER": 1, "AGEN": 550, "FIDN": 26412979, "FIDS": 8691, "LNAM": "0226019307B321F3", "RESTRN": [ "2", "6", "24" ], "SCAMIN": 59999, "SORDAT": "200504", "SORIND": "US,US,graph,Chart 13223" }, "geometry": { "type": "Polygon", "coordinates": [ [ [ -71.3427698, 41.5372012 ], [ -71.3419522, 41.5373634 ], [ -71.3410629, 41.5375361 ], [ -71.3382807, 41.5380724 ], [ -71.3375919, 41.5382044 ], [ -71.3342966, 41.5388362 ], [ -71.330226, 41.5396217 ], [ -71.3267501, 41.5402924 ], [ -71.3261214, 41.5404137 ], [ -71.3253484, 41.5405629 ], [ -71.325, 41.5406301 ], [ -71.325, 41.5333487 ], [ -71.325, 41.5328019 ], [ -71.325, 41.5327929 ], [ -71.3275761, 41.532726 ], [ -71.3288229, 41.5326937 ], [ -71.3294813, 41.5326766 ], [ -71.3330045, 41.5325852 ], [ -71.3334627, 41.5325733 ], [ -71.3343769, 41.5325496 ], [ -71.3353083, 41.5325254 ], [ -71.3365719, 41.5297517 ], [ -71.3352136, 41.5289624 ], [ -71.3344285, 41.5285061 ], [ -71.3337307, 41.5281006 ], [ -71.3321122, 41.5271601 ], [ -71.3290716, 41.5253932 ], [ -71.3283493, 41.5249735 ], [ -71.3264968, 41.5238969 ], [ -71.3263658, 41.5238207 ], [ -71.325935, 41.5235704 ], [ -71.3258162, 41.5235013 ], [ -71.325662, 41.5234118 ], [ -71.325626, 41.5233909 ], [ -71.3255623, 41.5233538 ], [ -71.3252301, 41.5231607 ], [ -71.3252185, 41.523154 ], [ -71.3251488, 41.5231135 ], [ -71.3250169, 41.5230368 ], [ -71.325, 41.523027 ], [ -71.325, 41.5226122 ], [ -71.325, 41.522524 ], [ -71.3253045, 41.5224245 ], [ -71.3253959, 41.5223983 ], [ -71.3256629, 41.5223373 ], [ -71.325912, 41.5222791 ], [ -71.3261389, 41.522207 ], [ -71.3262453, 41.5221754 ], [ -71.3263159, 41.52214 ], [ -71.3263799, 41.5221172 ], [ -71.3264316, 41.5220857 ], [ -71.326565, 41.5220211 ], [ -71.3266401, 41.5219766 ], [ -71.326798, 41.5218871 ], [ -71.3269723, 41.5217251 ], [ -71.3270228, 41.5216846 ], [ -71.3270666, 41.5216416 ], [ -71.3271911, 41.5215581 ], [ -71.3272732, 41.5214655 ], [ -71.3273072, 41.5214185 ], [ -71.3273478, 41.5211722 ], [ -71.3273924, 41.5210567 ], [ -71.3274457, 41.5209092 ], [ -71.3275201, 41.5207251 ], [ -71.3275701, 41.520557 ], [ -71.3276188, 41.5203212 ], [ -71.3277237, 41.519819 ], [ -71.3277594, 41.5196532 ], [ -71.3278805, 41.5193743 ], [ -71.3278279, 41.519213 ], [ -71.3278852, 41.5191137 ], [ -71.3280235, 41.5189905 ], [ -71.3282139, 41.5188779 ], [ -71.3285877, 41.5186471 ], [ -71.3287663, 41.5185471 ], [ -71.3290001, 41.5184443 ], [ -71.329135, 41.5183872 ], [ -71.329253, 41.5183471 ], [ -71.3293683, 41.5183169 ], [ -71.3296517, 41.5182015 ], [ -71.3297293, 41.5181765 ], [ -71.3298148, 41.518161 ], [ -71.3299167, 41.5181639 ], [ -71.3299969, 41.5181765 ], [ -71.3300413, 41.5181908 ], [ -71.3301046, 41.5182967 ], [ -71.3301347, 41.5183324 ], [ -71.3301692, 41.5183429 ], [ -71.3302113, 41.5183457 ], [ -71.3303176, 41.5183396 ], [ -71.3304296, 41.5183062 ], [ -71.3306211, 41.5181677 ], [ -71.3306915, 41.5180991 ], [ -71.3307291, 41.5180561 ], [ -71.3307592, 41.5180105 ], [ -71.330786, 41.5179601 ], [ -71.3307935, 41.5178915 ], [ -71.3307852, 41.5178207 ], [ -71.330726, 41.5176925 ], [ -71.330613, 41.5175121 ], [ -71.33057, 41.5174551 ], [ -71.3305086, 41.5173657 ], [ -71.330447, 41.5173723 ], [ -71.3304305, 41.5175103 ], [ -71.3304129, 41.5176045 ], [ -71.3303865, 41.5177128 ], [ -71.3302525, 41.5178137 ], [ -71.3301626, 41.517835 ], [ -71.3300623, 41.5178469 ], [ -71.3299651, 41.5178477 ], [ -71.3297496, 41.5178756 ], [ -71.329549, 41.5179084 ], [ -71.3294771, 41.5179283 ], [ -71.3293585, 41.517977 ], [ -71.3292253, 41.5180393 ], [ -71.3290809, 41.5180919 ], [ -71.3288845, 41.5181355 ], [ -71.3288132, 41.5181396 ], [ -71.3287429, 41.5181661 ], [ -71.3286208, 41.5182209 ], [ -71.3285276, 41.5182695 ], [ -71.3284209, 41.5183078 ], [ -71.3283306, 41.518315 ], [ -71.3282387, 41.5182829 ], [ -71.3281268, 41.5182305 ], [ -71.3279395, 41.5181281 ], [ -71.3277384, 41.5180106 ], [ -71.327579, 41.5179 ], [ -71.3274466, 41.5177891 ], [ -71.3271462, 41.5173445 ], [ -71.32617, 41.517682 ], [ -71.3260981, 41.5176687 ], [ -71.3257737, 41.5175613 ], [ -71.3254276, 41.5174347 ], [ -71.3252176, 41.5173347 ], [ -71.3250946, 41.5172804 ], [ -71.325, 41.5172355 ], [ -71.325, 41.517086 ], [ -71.325, 41.5135397 ], [ -71.3252958, 41.5137804 ], [ -71.3263936, 41.5143131 ], [ -71.3272289, 41.5144481 ], [ -71.3276968, 41.5142619 ], [ -71.3278026, 41.5142217 ], [ -71.3279352, 41.5141712 ], [ -71.3280697, 41.5141222 ], [ -71.328251, 41.5140921 ], [ -71.3284332, 41.5140885 ], [ -71.3286902, 41.5141073 ], [ -71.3288199, 41.5140821 ], [ -71.3290932, 41.513914 ], [ -71.3292651, 41.5138083 ], [ -71.3293856, 41.5137293 ], [ -71.3294821, 41.5136358 ], [ -71.3295322, 41.5135396 ], [ -71.329536, 41.5134425 ], [ -71.3295797, 41.5133703 ], [ -71.3295974, 41.5132527 ], [ -71.3296502, 41.513162 ], [ -71.3296597, 41.5130885 ], [ -71.3296516, 41.5129972 ], [ -71.3296528, 41.5128946 ], [ -71.329658, 41.5127701 ], [ -71.3297057, 41.5126721 ], [ -71.3297487, 41.5125138 ], [ -71.32977, 41.5124157 ], [ -71.3298581, 41.5122938 ], [ -71.3299499, 41.5121746 ], [ -71.3300552, 41.5120957 ], [ -71.3302161, 41.5119661 ], [ -71.330265, 41.5119029 ], [ -71.3302524, 41.5118226 ], [ -71.3302902, 41.5117211 ], [ -71.3302628, 41.5116375 ], [ -71.3302285, 41.5115649 ], [ -71.330245, 41.5114127 ], [ -71.3303806, 41.5112561 ], [ -71.3302767, 41.5110752 ], [ -71.3303224, 41.5108396 ], [ -71.3303455, 41.5107534 ], [ -71.3303846, 41.5105844 ], [ -71.3303898, 41.5103619 ], [ -71.3303814, 41.5100628 ], [ -71.3303859, 41.5097751 ], [ -71.3304782, 41.5096304 ], [ -71.3306295, 41.5095953 ], [ -71.3306886, 41.5092509 ], [ -71.3303713, 41.5093672 ], [ -71.3302716, 41.5092355 ], [ -71.3302955, 41.5090886 ], [ -71.3303246, 41.5088793 ], [ -71.3303499, 41.5087031 ], [ -71.3303725, 41.5085855 ], [ -71.3303893, 41.5085119 ], [ -71.3303884, 41.5084186 ], [ -71.3303941, 41.5083068 ], [ -71.3304031, 41.5082326 ], [ -71.3304231, 41.5081615 ], [ -71.3304688, 41.5080643 ], [ -71.3305875, 41.5078728 ], [ -71.3306313, 41.5077928 ], [ -71.3306481, 41.507762 ], [ -71.3306867, 41.5076777 ], [ -71.3306873, 41.5076764 ], [ -71.3307187, 41.5075593 ], [ -71.3307234, 41.5074848 ], [ -71.3307252, 41.5074555 ], [ -71.3307178, 41.5073716 ], [ -71.3306953, 41.5072995 ], [ -71.3306436, 41.5072121 ], [ -71.3306374, 41.5072051 ], [ -71.330572, 41.5071326 ], [ -71.3304919, 41.507061 ], [ -71.3304124, 41.5069782 ], [ -71.3303444, 41.5069319 ], [ -71.3303072, 41.5069067 ], [ -71.3302822, 41.506896 ], [ -71.329962, 41.5067596 ], [ -71.3298374, 41.5067582 ], [ -71.329731, 41.5067117 ], [ -71.3296133, 41.5066465 ], [ -71.3294991, 41.5065752 ], [ -71.3293064, 41.5064355 ], [ -71.3291236, 41.5063104 ], [ -71.3289584, 41.5061837 ], [ -71.3288379, 41.5060674 ], [ -71.3287111, 41.5059552 ], [ -71.3286326, 41.5058684 ], [ -71.3282814, 41.5054195 ], [ -71.328275, 41.5051436 ], [ -71.3283693, 41.5050161 ], [ -71.3283859, 41.5049352 ], [ -71.3283779, 41.5048475 ], [ -71.328336, 41.5047758 ], [ -71.3282879, 41.5047054 ], [ -71.328243, 41.5046557 ], [ -71.328197, 41.504605 ], [ -71.3281695, 41.5045513 ], [ -71.3280696, 41.504357 ], [ -71.3276629, 41.5042562 ], [ -71.3275749, 41.5042025 ], [ -71.3272027, 41.5041263 ], [ -71.3264185, 41.5039087 ], [ -71.3260888, 41.5038172 ], [ -71.3255314, 41.5032722 ], [ -71.3255306, 41.5032714 ], [ -71.325433, 41.5032973 ], [ -71.3252924, 41.5033347 ], [ -71.3256034, 41.5040692 ], [ -71.3256133, 41.5040926 ], [ -71.3257647, 41.5041744 ], [ -71.3260187, 41.5043117 ], [ -71.3260433, 41.5043241 ], [ -71.3261622, 41.504384 ], [ -71.3261665, 41.5043861 ], [ -71.3266078, 41.5046316 ], [ -71.3267307, 41.5046999 ], [ -71.3270718, 41.5048823 ], [ -71.3270777, 41.5048856 ], [ -71.3272448, 41.5049756 ], [ -71.3272607, 41.5049841 ], [ -71.3274243, 41.5050728 ], [ -71.3274553, 41.5051913 ], [ -71.327442, 41.5052196 ], [ -71.327408, 41.5052919 ], [ -71.3273757, 41.5053553 ], [ -71.3273368, 41.5054318 ], [ -71.3272857, 41.5055326 ], [ -71.3272401, 41.5056259 ], [ -71.3271977, 41.505712 ], [ -71.3271322, 41.5058412 ], [ -71.3271157, 41.5058372 ], [ -71.3269898, 41.5058067 ], [ -71.3269384, 41.5059063 ], [ -71.3269254, 41.5059315 ], [ -71.3270529, 41.5060076 ], [ -71.3269841, 41.5061511 ], [ -71.3268211, 41.5064651 ], [ -71.3266737, 41.5067769 ], [ -71.3259907, 41.5066371 ], [ -71.3259902, 41.506637 ], [ -71.3258558, 41.5066095 ], [ -71.3257946, 41.5065978 ], [ -71.3252911, 41.5065017 ], [ -71.3252811, 41.5064998 ], [ -71.325276, 41.5065116 ], [ -71.3252314, 41.5066145 ], [ -71.3252245, 41.5066303 ], [ -71.325, 41.5070773 ], [ -71.325, 41.5065638 ], [ -71.325, 41.5064448 ], [ -71.325, 41.5061614 ], [ -71.325, 41.5059483 ], [ -71.325, 41.5057465 ], [ -71.325, 41.5057324 ], [ -71.325, 41.5052746 ], [ -71.325, 41.5048139 ], [ -71.325, 41.504094 ], [ -71.325, 41.5028358 ], [ -71.325, 41.5027594 ], [ -71.325, 41.5025841 ], [ -71.325, 41.5023328 ], [ -71.325, 41.5015538 ], [ -71.325, 41.5006959 ], [ -71.325, 41.5005452 ], [ -71.325, 41.4997406 ], [ -71.325, 41.4995806 ], [ -71.325, 41.4966245 ], [ -71.325, 41.4913983 ], [ -71.325, 41.4913358 ], [ -71.325, 41.4913294 ], [ -71.325, 41.4913104 ], [ -71.325, 41.4912317 ], [ -71.325, 41.4910667 ], [ -71.325, 41.488146 ], [ -71.3250133, 41.4881411 ], [ -71.325, 41.4880773 ], [ -71.325, 41.4812385 ], [ -71.325, 41.4807553 ], [ -71.325, 41.4800042 ], [ -71.325, 41.4797801 ], [ -71.325, 41.4796246 ], [ -71.325, 41.4794286 ], [ -71.325, 41.4792795 ], [ -71.3263245, 41.4791718 ], [ -71.3273884, 41.4790853 ], [ -71.3341086, 41.478539 ], [ -71.3349476, 41.4784708 ], [ -71.3350755, 41.4784604 ], [ -71.3350958, 41.4784588 ], [ -71.3351629, 41.4784533 ], [ -71.3352676, 41.4784439 ], [ -71.3352712, 41.4784435 ], [ -71.3352837, 41.4785393 ], [ -71.3352911, 41.4786658 ], [ -71.3352957, 41.4787427 ], [ -71.3352065, 41.4788658 ], [ -71.3352072, 41.4788693 ], [ -71.3352144, 41.4789054 ], [ -71.3352911, 41.4792915 ], [ -71.3353129, 41.479401 ], [ -71.3353186, 41.4794297 ], [ -71.3354065, 41.4794461 ], [ -71.3354383, 41.4794521 ], [ -71.3355753, 41.4794653 ], [ -71.335707, 41.4795044 ], [ -71.335798, 41.47957 ], [ -71.3358589, 41.4796852 ], [ -71.3360194, 41.4801094 ], [ -71.3360906, 41.4802982 ], [ -71.3362121, 41.4803691 ], [ -71.3362147, 41.4803706 ], [ -71.336516, 41.4805401 ], [ -71.3365274, 41.4805465 ], [ -71.3365745, 41.4806328 ], [ -71.3366123, 41.480702 ], [ -71.336625, 41.4807489 ], [ -71.3366486, 41.4808364 ], [ -71.3366664, 41.4809025 ], [ -71.3366793, 41.4811407 ], [ -71.3366953, 41.4814591 ], [ -71.3368379, 41.4814532 ], [ -71.3368322, 41.4812178 ], [ -71.3368121, 41.4810719 ], [ -71.3367852, 41.4809168 ], [ -71.3368386, 41.4808489 ], [ -71.3370084, 41.4807907 ], [ -71.3371027, 41.4807586 ], [ -71.3375159, 41.4808072 ], [ -71.3376216, 41.4809186 ], [ -71.3375927, 41.4810712 ], [ -71.3374576, 41.4812745 ], [ -71.3373076, 41.481567 ], [ -71.3369091, 41.4815726 ], [ -71.3366983, 41.4815794 ], [ -71.3367009, 41.4816632 ], [ -71.3367047, 41.4817905 ], [ -71.3373517, 41.4817851 ], [ -71.337641, 41.4812584 ], [ -71.3376848, 41.4811885 ], [ -71.3377844, 41.4810821 ], [ -71.3378967, 41.4810134 ], [ -71.338058, 41.4809356 ], [ -71.3382063, 41.4808395 ], [ -71.3383076, 41.4807275 ], [ -71.3383519, 41.4806534 ], [ -71.3384704, 41.4804119 ], [ -71.3385335, 41.4802949 ], [ -71.3385822, 41.4801956 ], [ -71.3386219, 41.4800916 ], [ -71.3386533, 41.479956 ], [ -71.3386896, 41.4798248 ], [ -71.3388702, 41.4793668 ], [ -71.3389432, 41.4792016 ], [ -71.3392935, 41.4787696 ], [ -71.3394378, 41.4786401 ], [ -71.3395418, 41.4785522 ], [ -71.3396921, 41.4784001 ], [ -71.3397755, 41.4783443 ], [ -71.3400129, 41.4781961 ], [ -71.3401451, 41.4780431 ], [ -71.3403369, 41.4778661 ], [ -71.3404891, 41.477712 ], [ -71.3405843, 41.4776238 ], [ -71.3407481, 41.4774778 ], [ -71.3409057, 41.4773415 ], [ -71.3409793, 41.4772901 ], [ -71.3410907, 41.4772261 ], [ -71.3411689, 41.4771399 ], [ -71.3411962, 41.4770436 ], [ -71.3412034, 41.4768902 ], [ -71.3413135, 41.4765275 ], [ -71.3413411, 41.4764914 ], [ -71.3413604, 41.4764661 ], [ -71.3414992, 41.4763291 ], [ -71.3415849, 41.4762588 ], [ -71.3417796, 41.476175 ], [ -71.3420311, 41.4758221 ], [ -71.3420398, 41.4757063 ], [ -71.3423265, 41.4753656 ], [ -71.3426152, 41.475185 ], [ -71.3428907, 41.4751566 ], [ -71.3429003, 41.4751556 ], [ -71.3429614, 41.4750726 ], [ -71.3430148, 41.475 ], [ -71.3433012, 41.475 ], [ -71.3433141, 41.475 ], [ -71.3434375, 41.475 ], [ -71.343495, 41.475 ], [ -71.3437415, 41.475 ], [ -71.3437945, 41.475 ], [ -71.3438373, 41.475 ], [ -71.3439995, 41.475 ], [ -71.3442106, 41.475 ], [ -71.3443964, 41.475 ], [ -71.3444369, 41.475 ], [ -71.3448712, 41.475 ], [ -71.3448818, 41.475 ], [ -71.3449927, 41.475 ], [ -71.3452649, 41.475 ], [ -71.3452965, 41.475 ], [ -71.3467523, 41.475 ], [ -71.3503533, 41.475 ], [ -71.3535798, 41.475 ], [ -71.355155, 41.4757392 ], [ -71.355751, 41.4760286 ], [ -71.3574015, 41.475 ], [ -71.3643373, 41.475 ], [ -71.3648634, 41.475 ], [ -71.3653043, 41.475 ], [ -71.365305, 41.475 ], [ -71.3679581, 41.475 ], [ -71.368039, 41.475 ], [ -71.3683126, 41.475 ], [ -71.3688739, 41.475 ], [ -71.3689218, 41.475 ], [ -71.3708965, 41.475 ], [ -71.3709681, 41.475 ], [ -71.3710105, 41.475 ], [ -71.3714507, 41.475 ], [ -71.3714993, 41.475 ], [ -71.371524, 41.475 ], [ -71.3723292, 41.475 ], [ -71.3723482, 41.475 ], [ -71.3724073, 41.475 ], [ -71.3724832, 41.475 ], [ -71.372556, 41.475 ], [ -71.37257, 41.475 ], [ -71.3726688, 41.475 ], [ -71.3726813, 41.475 ], [ -71.3726909, 41.475 ], [ -71.3729296, 41.475 ], [ -71.3727722, 41.4752605 ], [ -71.3727724, 41.4756315 ], [ -71.3728014, 41.4757089 ], [ -71.3728093, 41.4757299 ], [ -71.3728596, 41.4758642 ], [ -71.3729001, 41.4759725 ], [ -71.3729957, 41.4760345 ], [ -71.3731039, 41.4761047 ], [ -71.3730633, 41.4761346 ], [ -71.3729213, 41.4762392 ], [ -71.3729992, 41.4762839 ], [ -71.3730882, 41.4765131 ], [ -71.3731106, 41.4765709 ], [ -71.3730976, 41.4766009 ], [ -71.3730631, 41.4766803 ], [ -71.3729275, 41.4767977 ], [ -71.3728746, 41.4768436 ], [ -71.3726981, 41.4768203 ], [ -71.3726562, 41.4768148 ], [ -71.3724476, 41.4769033 ], [ -71.3722075, 41.4773768 ], [ -71.3722, 41.4773916 ], [ -71.3722809, 41.4774886 ], [ -71.3723463, 41.477567 ], [ -71.3718647, 41.47775 ], [ -71.3716867, 41.4777043 ], [ -71.3716611, 41.4776977 ], [ -71.371659, 41.4777198 ], [ -71.3716397, 41.4779242 ], [ -71.3714195, 41.477887 ], [ -71.3711132, 41.4780037 ], [ -71.3709924, 41.4779205 ], [ -71.3709555, 41.4780736 ], [ -71.370846, 41.4781307 ], [ -71.370813, 41.4780909 ], [ -71.3706618, 41.4779094 ], [ -71.370652, 41.4779272 ], [ -71.370576, 41.4780667 ], [ -71.3703654, 41.4779566 ], [ -71.3701453, 41.4780128 ], [ -71.3696099, 41.4778739 ], [ -71.3695573, 41.4778817 ], [ -71.3693555, 41.4779117 ], [ -71.3692421, 41.4779285 ], [ -71.3691547, 41.4777808 ], [ -71.3691372, 41.4777512 ], [ -71.368978, 41.4777892 ], [ -71.3689163, 41.4778039 ], [ -71.3686911, 41.4777064 ], [ -71.3686123, 41.4778585 ], [ -71.3684758, 41.4779447 ], [ -71.368438, 41.4779686 ], [ -71.3682571, 41.4779306 ], [ -71.3681078, 41.4777903 ], [ -71.3679386, 41.4777815 ], [ -71.3677837, 41.4778649 ], [ -71.3674754, 41.4777165 ], [ -71.3674721, 41.477715 ], [ -71.3674472, 41.4777112 ], [ -71.3671135, 41.4776609 ], [ -71.3670884, 41.4776179 ], [ -71.3670435, 41.4775408 ], [ -71.3670681, 41.4774315 ], [ -71.3670433, 41.4774308 ], [ -71.3667603, 41.477422 ], [ -71.3669018, 41.4772448 ], [ -71.3665172, 41.4772961 ], [ -71.3664151, 41.4775421 ], [ -71.3663626, 41.477545 ], [ -71.3662941, 41.4775489 ], [ -71.3662289, 41.4775526 ], [ -71.3662359, 41.4773787 ], [ -71.3661576, 41.4772083 ], [ -71.3661004, 41.4770837 ], [ -71.3660926, 41.4770666 ], [ -71.3660764, 41.4770314 ], [ -71.3660429, 41.4769585 ], [ -71.3659976, 41.4769945 ], [ -71.365853, 41.4771094 ], [ -71.365837, 41.4768997 ], [ -71.365836, 41.4768859 ], [ -71.3658228, 41.476892 ], [ -71.3655651, 41.4770117 ], [ -71.365273, 41.4770411 ], [ -71.3651366, 41.476944 ], [ -71.3649903, 41.4768398 ], [ -71.3645189, 41.4767025 ], [ -71.3643131, 41.4767836 ], [ -71.3642014, 41.4770097 ], [ -71.3641983, 41.4770088 ], [ -71.3641119, 41.4769823 ], [ -71.3640891, 41.4769753 ], [ -71.3641032, 41.4768748 ], [ -71.3640382, 41.4767993 ], [ -71.3634819, 41.4771347 ], [ -71.3634306, 41.4772437 ], [ -71.3633825, 41.477346 ], [ -71.3633788, 41.477354 ], [ -71.3633856, 41.4773564 ], [ -71.3638288, 41.4775151 ], [ -71.3638538, 41.4777117 ], [ -71.3633804, 41.4780087 ], [ -71.3633613, 41.478096 ], [ -71.3625226, 41.478484 ], [ -71.3624898, 41.4785615 ], [ -71.362577, 41.4786366 ], [ -71.362561, 41.4788073 ], [ -71.3626317, 41.4789194 ], [ -71.362564, 41.4790143 ], [ -71.3624305, 41.4790071 ], [ -71.3623351, 41.4791928 ], [ -71.3619119, 41.4791614 ], [ -71.3616833, 41.4792958 ], [ -71.3618125, 41.4794167 ], [ -71.3617777, 41.4795181 ], [ -71.3615199, 41.4796045 ], [ -71.3610858, 41.4794735 ], [ -71.3608958, 41.4792039 ], [ -71.3610622, 41.4790878 ], [ -71.3610882, 41.4790697 ], [ -71.3611605, 41.4790193 ], [ -71.361185, 41.4789433 ], [ -71.3612037, 41.478885 ], [ -71.3612088, 41.4788692 ], [ -71.3614839, 41.4786639 ], [ -71.3614694, 41.4785014 ], [ -71.3614786, 41.4784729 ], [ -71.3614944, 41.4784237 ], [ -71.3616145, 41.4780504 ], [ -71.3615592, 41.4779087 ], [ -71.3615506, 41.4778868 ], [ -71.3615116, 41.4778878 ], [ -71.3612124, 41.4778952 ], [ -71.3614264, 41.4777046 ], [ -71.3613857, 41.4776188 ], [ -71.3613686, 41.4775827 ], [ -71.3613267, 41.4775801 ], [ -71.3611978, 41.4775721 ], [ -71.36109, 41.4775655 ], [ -71.3607122, 41.4777537 ], [ -71.3604913, 41.4783962 ], [ -71.3602855, 41.4785903 ], [ -71.3603694, 41.4787134 ], [ -71.3603332, 41.4788356 ], [ -71.3598594, 41.4788931 ], [ -71.3597041, 41.4790655 ], [ -71.359457, 41.4791594 ], [ -71.3591605, 41.4791768 ], [ -71.3589044, 41.4789912 ], [ -71.3587358, 41.4789896 ], [ -71.3586244, 41.4788502 ], [ -71.358844, 41.4784854 ], [ -71.3593679, 41.478111 ], [ -71.359457, 41.4780473 ], [ -71.3595014, 41.4780156 ], [ -71.3595008, 41.4778581 ], [ -71.3592869, 41.4777606 ], [ -71.3593752, 41.4773905 ], [ -71.3592491, 41.4772407 ], [ -71.3591443, 41.4771163 ], [ -71.3589745, 41.4771571 ], [ -71.3589146, 41.4774069 ], [ -71.3585976, 41.4771822 ], [ -71.3585083, 41.4771189 ], [ -71.3582372, 41.477145 ], [ -71.3582474, 41.4773222 ], [ -71.3580257, 41.4774512 ], [ -71.3579055, 41.4774364 ], [ -71.3577344, 41.4774154 ], [ -71.3577749, 41.4774825 ], [ -71.3578669, 41.4776348 ], [ -71.3577296, 41.4777596 ], [ -71.3575393, 41.4782919 ], [ -71.3572955, 41.4783029 ], [ -71.3570841, 41.4782715 ], [ -71.3569871, 41.4786034 ], [ -71.3569158, 41.4788365 ], [ -71.3568776, 41.4789614 ], [ -71.3569756, 41.4789639 ], [ -71.3570792, 41.4789665 ], [ -71.3570716, 41.4788355 ], [ -71.3571825, 41.4788382 ], [ -71.3574683, 41.4788454 ], [ -71.3574781, 41.4788456 ], [ -71.3576968, 41.4788503 ], [ -71.3577329, 41.4788617 ], [ -71.3577456, 41.4788657 ], [ -71.3578095, 41.4788857 ], [ -71.3578544, 41.4789735 ], [ -71.3578614, 41.4789873 ], [ -71.3578425, 41.4790642 ], [ -71.3578191, 41.4791592 ], [ -71.3577281, 41.4795282 ], [ -71.3577204, 41.4795594 ], [ -71.3576137, 41.4796781 ], [ -71.3574087, 41.4797594 ], [ -71.3571547, 41.4797621 ], [ -71.3570758, 41.4797629 ], [ -71.3568561, 41.4794977 ], [ -71.3567343, 41.4794532 ], [ -71.3565806, 41.4795709 ], [ -71.3565215, 41.4796162 ], [ -71.3564246, 41.4796903 ], [ -71.356407, 41.4794888 ], [ -71.3562326, 41.4794972 ], [ -71.3562112, 41.4794 ], [ -71.3553081, 41.4796604 ], [ -71.3549929, 41.4798669 ], [ -71.3548503, 41.4800592 ], [ -71.3548565, 41.4800708 ], [ -71.3548897, 41.4801334 ], [ -71.3548037, 41.4802608 ], [ -71.3547304, 41.4803694 ], [ -71.3548423, 41.4804914 ], [ -71.3547919, 41.4806207 ], [ -71.3549349, 41.4807282 ], [ -71.3550819, 41.4806581 ], [ -71.3555165, 41.4807084 ], [ -71.3556403, 41.4808348 ], [ -71.3558707, 41.4810701 ], [ -71.3559494, 41.4812874 ], [ -71.3564264, 41.4812757 ], [ -71.3567335, 41.4811197 ], [ -71.3569929, 41.480988 ], [ -71.3572242, 41.4810166 ], [ -71.357844, 41.481252 ], [ -71.3575472, 41.48195 ], [ -71.3571336, 41.4820964 ], [ -71.3565546, 41.4823015 ], [ -71.3563, 41.4823917 ], [ -71.35537, 41.4821546 ], [ -71.3551192, 41.4820907 ], [ -71.3549282, 41.482042 ], [ -71.3548967, 41.482034 ], [ -71.354741, 41.4819943 ], [ -71.3545894, 41.4819556 ], [ -71.3545835, 41.4819541 ], [ -71.3544919, 41.4819339 ], [ -71.3544448, 41.4819235 ], [ -71.3543083, 41.4818934 ], [ -71.3543069, 41.4818931 ], [ -71.3542643, 41.4818846 ], [ -71.3542196, 41.4818722 ], [ -71.3541948, 41.4818635 ], [ -71.3541855, 41.4818603 ], [ -71.353526, 41.4816862 ], [ -71.3533716, 41.4816455 ], [ -71.3533361, 41.4816361 ], [ -71.3530123, 41.4816382 ], [ -71.3521797, 41.4816436 ], [ -71.3521476, 41.4816438 ], [ -71.3520126, 41.4816439 ], [ -71.351916, 41.481644 ], [ -71.3517128, 41.4816442 ], [ -71.3514278, 41.4816444 ], [ -71.3511113, 41.4816571 ], [ -71.350241, 41.4816922 ], [ -71.3484772, 41.4817632 ], [ -71.3473762, 41.4818075 ], [ -71.3435315, 41.4819609 ], [ -71.3432745, 41.4819714 ], [ -71.341063, 41.482062 ], [ -71.3405726, 41.4820821 ], [ -71.3398223, 41.4821128 ], [ -71.3395792, 41.4822044 ], [ -71.3386306, 41.482775 ], [ -71.3380905, 41.4831173 ], [ -71.3377803, 41.4831999 ], [ -71.3374494, 41.4831793 ], [ -71.3369248, 41.4831379 ], [ -71.3364168, 41.4831503 ], [ -71.3363343, 41.4831031 ], [ -71.3360194, 41.4828083 ], [ -71.3356, 41.4824639 ], [ -71.3355389, 41.4824958 ], [ -71.3331567, 41.4834167 ], [ -71.3329167, 41.4835095 ], [ -71.3327777, 41.4835632 ], [ -71.3328579, 41.4914926 ], [ -71.3374522, 41.4932107 ], [ -71.337622, 41.4932741 ], [ -71.3393982, 41.4939375 ], [ -71.339475, 41.4939662 ], [ -71.3396291, 41.4940234 ], [ -71.3396759, 41.4940409 ], [ -71.341549, 41.4947406 ], [ -71.3417409, 41.4948123 ], [ -71.3420941, 41.4949442 ], [ -71.3422939, 41.4950189 ], [ -71.3423295, 41.4950322 ], [ -71.3423429, 41.4950372 ], [ -71.3423851, 41.495053 ], [ -71.3426584, 41.4951557 ], [ -71.3426306, 41.495227 ], [ -71.3426089, 41.4952828 ], [ -71.3425767, 41.4953657 ], [ -71.3424973, 41.4953576 ], [ -71.3424017, 41.495369 ], [ -71.3422455, 41.4953876 ], [ -71.341771, 41.4954441 ], [ -71.3417592, 41.4954455 ], [ -71.3415546, 41.4954016 ], [ -71.3410305, 41.4952892 ], [ -71.3408108, 41.4951459 ], [ -71.34059, 41.4952599 ], [ -71.3398429, 41.4952889 ], [ -71.3391861, 41.4953144 ], [ -71.3391018, 41.4953176 ], [ -71.339081, 41.4953347 ], [ -71.3389717, 41.4954246 ], [ -71.3391947, 41.4957129 ], [ -71.3392201, 41.4959497 ], [ -71.3392423, 41.4961566 ], [ -71.3392232, 41.4962253 ], [ -71.339163, 41.496442 ], [ -71.3391501, 41.4964883 ], [ -71.3390821, 41.4966376 ], [ -71.3389879, 41.4968448 ], [ -71.3380408, 41.4989247 ], [ -71.3379537, 41.499116 ], [ -71.3378666, 41.4993073 ], [ -71.3377561, 41.4995501 ], [ -71.3376834, 41.4997098 ], [ -71.3375155, 41.5000784 ], [ -71.336952, 41.501316 ], [ -71.3365572, 41.5021831 ], [ -71.3365551, 41.5021877 ], [ -71.3364909, 41.5023288 ], [ -71.3364899, 41.502331 ], [ -71.3351478, 41.5052787 ], [ -71.335058, 41.5054759 ], [ -71.335691, 41.5071848 ], [ -71.3361153, 41.5083303 ], [ -71.336543, 41.509485 ], [ -71.3372425, 41.5113734 ], [ -71.3375103, 41.5120963 ], [ -71.3389966, 41.5161089 ], [ -71.33903, 41.5161991 ], [ -71.3391277, 41.5164629 ], [ -71.3406749, 41.5206397 ], [ -71.3419377, 41.5240486 ], [ -71.342528, 41.5256502 ], [ -71.3429658, 41.5268378 ], [ -71.3430439, 41.5270497 ], [ -71.3432319, 41.5275425 ], [ -71.3432389, 41.5275615 ], [ -71.3434517, 41.528136 ], [ -71.3434595, 41.5281569 ], [ -71.3435203, 41.5283211 ], [ -71.3435444, 41.5283861 ], [ -71.3436187, 41.5285868 ], [ -71.3436264, 41.5286075 ], [ -71.3438352, 41.5291713 ], [ -71.3438648, 41.5292511 ], [ -71.3432868, 41.5293323 ], [ -71.3430826, 41.5294043 ], [ -71.3430368, 41.5294297 ], [ -71.3429911, 41.5294839 ], [ -71.3430064, 41.5296481 ], [ -71.3430034, 41.5299881 ], [ -71.3430062, 41.5300932 ], [ -71.3429925, 41.5302787 ], [ -71.342972, 41.5303311 ], [ -71.3429332, 41.5303721 ], [ -71.3428568, 41.5304131 ], [ -71.3427834, 41.5304423 ], [ -71.3427322, 41.5304537 ], [ -71.342717, 41.5304786 ], [ -71.3427099, 41.5304902 ], [ -71.342707, 41.5305145 ], [ -71.342704, 41.5305388 ], [ -71.3427152, 41.5305707 ], [ -71.3427285, 41.530589 ], [ -71.3427495, 41.53062 ], [ -71.342772, 41.530648 ], [ -71.3428027, 41.5307061 ], [ -71.3428464, 41.5307718 ], [ -71.3428781, 41.5308528 ], [ -71.3428876, 41.5309646 ], [ -71.3428876, 41.5310812 ], [ -71.3428726, 41.5311439 ], [ -71.3428394, 41.5312825 ], [ -71.3428203, 41.5313437 ], [ -71.3427815, 41.5314685 ], [ -71.3427246, 41.5316277 ], [ -71.3427404, 41.5317536 ], [ -71.3427758, 41.5320118 ], [ -71.3427571, 41.5321201 ], [ -71.3427032, 41.5323629 ], [ -71.3426968, 41.5325181 ], [ -71.3427608, 41.5325954 ], [ -71.342854, 41.5326696 ], [ -71.3428502, 41.5327567 ], [ -71.3428132, 41.5328225 ], [ -71.3428329, 41.5331334 ], [ -71.3428066, 41.5332987 ], [ -71.3428006, 41.5334675 ], [ -71.3428709, 41.5339558 ], [ -71.3429364, 41.5341585 ], [ -71.3430117, 41.534262 ], [ -71.3431369, 41.5343856 ], [ -71.3432262, 41.5345056 ], [ -71.3432996, 41.534634 ], [ -71.3433306, 41.5347386 ], [ -71.3433863, 41.5350816 ], [ -71.3434483, 41.5351539 ], [ -71.3434814, 41.535216 ], [ -71.3434719, 41.5352427 ], [ -71.3434298, 41.5352898 ], [ -71.3433982, 41.5353245 ], [ -71.3433942, 41.535382 ], [ -71.343418, 41.5354514 ], [ -71.3434536, 41.5355456 ], [ -71.3434694, 41.5355952 ], [ -71.3434615, 41.5356467 ], [ -71.3434192, 41.5357375 ], [ -71.3433971, 41.535772 ], [ -71.3433879, 41.5357895 ], [ -71.3433709, 41.5358217 ], [ -71.3433744, 41.5359006 ], [ -71.3433793, 41.5359105 ], [ -71.3433849, 41.5359218 ], [ -71.3434212, 41.5359948 ], [ -71.3434285, 41.5360096 ], [ -71.3435301, 41.5361534 ], [ -71.3435532, 41.5361871 ], [ -71.3435961, 41.5362496 ], [ -71.3437198, 41.536499 ], [ -71.3437715, 41.5366527 ], [ -71.3438111, 41.5368331 ], [ -71.3438414, 41.5368867 ], [ -71.343885, 41.5369313 ], [ -71.3439985, 41.5370136 ], [ -71.3440579, 41.5370443 ], [ -71.344057, 41.5370734 ], [ -71.34458, 41.5377574 ], [ -71.3445832, 41.5377616 ], [ -71.344647, 41.537845 ], [ -71.3447483, 41.5379774 ], [ -71.3448545, 41.5379302 ], [ -71.3449035, 41.537987 ], [ -71.3450169, 41.5379428 ], [ -71.3453702, 41.5378052 ], [ -71.3454476, 41.5379165 ], [ -71.3454844, 41.5379695 ], [ -71.3455421, 41.5380599 ], [ -71.3456026, 41.5381548 ], [ -71.3456308, 41.5382455 ], [ -71.3456643, 41.5384944 ], [ -71.3456651, 41.5385005 ], [ -71.3456675, 41.5385292 ], [ -71.3457301, 41.5392891 ], [ -71.3454978, 41.5393071 ], [ -71.3453417, 41.5393192 ], [ -71.3453475, 41.5393599 ], [ -71.3453479, 41.5393629 ], [ -71.3454416, 41.539355 ], [ -71.3454635, 41.5393549 ], [ -71.3455464, 41.5393544 ], [ -71.3456177, 41.5394625 ], [ -71.3456306, 41.539482 ], [ -71.3456426, 41.5395001 ], [ -71.3456433, 41.5395105 ], [ -71.3456533, 41.5396645 ], [ -71.3456603, 41.5397722 ], [ -71.3456735, 41.5398317 ], [ -71.3460113, 41.5398049 ], [ -71.3460112, 41.5398019 ], [ -71.3460041, 41.5396527 ], [ -71.3459975, 41.5395119 ], [ -71.3459905, 41.5393644 ], [ -71.3459874, 41.539299 ], [ -71.3459817, 41.5392386 ], [ -71.3459373, 41.5387717 ], [ -71.3459066, 41.5385111 ], [ -71.34588, 41.5382849 ], [ -71.3458764, 41.5382663 ], [ -71.3458557, 41.5381603 ], [ -71.3458405, 41.5381264 ], [ -71.3458035, 41.5380591 ], [ -71.3457703, 41.538002 ], [ -71.3457434, 41.5379413 ], [ -71.3457404, 41.5379363 ], [ -71.3456452, 41.5377795 ], [ -71.3454945, 41.5375702 ], [ -71.3456047, 41.5373304 ], [ -71.3456939, 41.5370908 ], [ -71.3457637, 41.5369192 ], [ -71.3458122, 41.5367997 ], [ -71.3458721, 41.5366438 ], [ -71.3459569, 41.5366727 ], [ -71.3459648, 41.5367672 ], [ -71.3459621, 41.5368273 ], [ -71.3459603, 41.5368665 ], [ -71.3459902, 41.5377296 ], [ -71.3460018, 41.5380647 ], [ -71.3460023, 41.5380784 ], [ -71.3460394, 41.5391466 ], [ -71.3460352, 41.5392649 ], [ -71.346027, 41.5394979 ], [ -71.3460251, 41.5395532 ], [ -71.3468581, 41.5397554 ], [ -71.3473496, 41.5398747 ], [ -71.3470095, 41.5414485 ], [ -71.3469957, 41.5417403 ], [ -71.3469867, 41.5419317 ], [ -71.3474563, 41.55 ], [ -71.3468388, 41.55 ], [ -71.3453638, 41.55 ], [ -71.3451627, 41.5464917 ], [ -71.3426141, 41.546157 ], [ -71.3427698, 41.5372012 ] ], [ [ -71.3331813, 41.5026415 ], [ -71.3333204, 41.5025337 ], [ -71.3332558, 41.5024772 ], [ -71.3332002, 41.5024285 ], [ -71.3331346, 41.5024368 ], [ -71.3331153, 41.5024392 ], [ -71.3330938, 41.502442 ], [ -71.3330332, 41.5024496 ], [ -71.3330192, 41.502456 ], [ -71.3328936, 41.5025128 ], [ -71.3331813, 41.5026415 ] ], [ [ -71.3357752, 41.5020209 ], [ -71.3357697, 41.5020219 ], [ -71.3357645, 41.5020236 ], [ -71.3357598, 41.5020261 ], [ -71.3357559, 41.5020293 ], [ -71.3357529, 41.5020329 ], [ -71.3357188, 41.5021439 ], [ -71.3357194, 41.5021469 ], [ -71.3357212, 41.5021512 ], [ -71.3357241, 41.5021551 ], [ -71.3357242, 41.5021551 ], [ -71.3357279, 41.5021585 ], [ -71.3357326, 41.5021612 ], [ -71.3357379, 41.5021633 ], [ -71.3357436, 41.5021645 ], [ -71.3357473, 41.5021648 ], [ -71.3357532, 41.5021646 ], [ -71.335759, 41.5021635 ], [ -71.3357599, 41.5021632 ], [ -71.3357644, 41.5021617 ], [ -71.3357692, 41.502159 ], [ -71.3357732, 41.5021557 ], [ -71.3357763, 41.5021519 ], [ -71.3357846, 41.5021296 ], [ -71.3358078, 41.5020449 ], [ -71.335808, 41.5020423 ], [ -71.3358073, 41.502038 ], [ -71.3358056, 41.5020339 ], [ -71.3358028, 41.5020302 ], [ -71.3357992, 41.5020269 ], [ -71.3357947, 41.5020242 ], [ -71.3357896, 41.5020223 ], [ -71.3357865, 41.5020215 ], [ -71.3357809, 41.5020208 ], [ -71.3357752, 41.5020209 ] ], [ [ -71.3349104, 41.5019746 ], [ -71.3349141, 41.5019749 ], [ -71.33492, 41.5019747 ], [ -71.3349242, 41.501974 ], [ -71.3349258, 41.5019737 ], [ -71.3349312, 41.5019718 ], [ -71.3349359, 41.5019691 ], [ -71.33494, 41.5019659 ], [ -71.334943, 41.501962 ], [ -71.3349514, 41.5019398 ], [ -71.3349746, 41.501855 ], [ -71.3349748, 41.5018524 ], [ -71.3349741, 41.5018481 ], [ -71.3349724, 41.501844 ], [ -71.3349696, 41.5018403 ], [ -71.334966, 41.501837 ], [ -71.3349615, 41.5018344 ], [ -71.3349564, 41.5018324 ], [ -71.3349533, 41.5018316 ], [ -71.3349477, 41.5018309 ], [ -71.334942, 41.501831 ], [ -71.3349364, 41.501832 ], [ -71.3349312, 41.5018338 ], [ -71.3349266, 41.5018362 ], [ -71.3349227, 41.5018394 ], [ -71.3349197, 41.501843 ], [ -71.3348856, 41.5019541 ], [ -71.3348861, 41.501957 ], [ -71.334888, 41.5019613 ], [ -71.3348909, 41.5019652 ], [ -71.3348928, 41.5019668 ], [ -71.3348947, 41.5019686 ], [ -71.3348994, 41.5019713 ], [ -71.3349047, 41.5019734 ], [ -71.3349104, 41.5019746 ] ], [ [ -71.3374584, 41.4990624 ], [ -71.3374689, 41.4990662 ], [ -71.3375098, 41.4990697 ], [ -71.3375487, 41.4990597 ], [ -71.3375744, 41.4990347 ], [ -71.3375801, 41.4989876 ], [ -71.3375649, 41.4989476 ], [ -71.3375088, 41.4989047 ], [ -71.3374699, 41.4989004 ], [ -71.3374347, 41.4989068 ], [ -71.3374321, 41.4989079 ], [ -71.3374043, 41.4989197 ], [ -71.3373824, 41.498959 ], [ -71.3373767, 41.4989933 ], [ -71.3373986, 41.499029 ], [ -71.3374281, 41.4990514 ], [ -71.3374584, 41.4990624 ] ], [ [ -71.3278092, 41.4828433 ], [ -71.3276115, 41.4828519 ], [ -71.327291, 41.4828604 ], [ -71.3270449, 41.4828718 ], [ -71.326922, 41.4828921 ], [ -71.3269584, 41.4830166 ], [ -71.3269791, 41.4831982 ], [ -71.3271409, 41.4834498 ], [ -71.327151, 41.4838052 ], [ -71.3271561, 41.4840656 ], [ -71.327157, 41.4844383 ], [ -71.3271603, 41.4847062 ], [ -71.3271628, 41.4849226 ], [ -71.3271628, 41.4852434 ], [ -71.3271484, 41.4854191 ], [ -71.3271291, 41.485534 ], [ -71.3270789, 41.4859032 ], [ -71.327035, 41.4862162 ], [ -71.3270111, 41.4863958 ], [ -71.3269534, 41.486455 ], [ -71.326918, 41.4865881 ], [ -71.3268167, 41.4867136 ], [ -71.3267361, 41.486818 ], [ -71.3266453, 41.486921 ], [ -71.3265098, 41.4870769 ], [ -71.3263499, 41.4872635 ], [ -71.3261459, 41.4874991 ], [ -71.3260266, 41.4875945 ], [ -71.3258972, 41.4875841 ], [ -71.3258882, 41.4875834 ], [ -71.3256818, 41.4875685 ], [ -71.3255181, 41.4875623 ], [ -71.325518, 41.4875623 ], [ -71.3254094, 41.4875582 ], [ -71.3253862, 41.4875574 ], [ -71.3253376, 41.4877007 ], [ -71.3253301, 41.487892 ], [ -71.3253244, 41.4880388 ], [ -71.325505, 41.4880389 ], [ -71.3255486, 41.4880389 ], [ -71.3255486, 41.4879972 ], [ -71.3255487, 41.4878546 ], [ -71.3255718, 41.4878553 ], [ -71.3257779, 41.4878617 ], [ -71.3257763, 41.4877559 ], [ -71.3259589, 41.4877685 ], [ -71.3261606, 41.4878011 ], [ -71.3262775, 41.4878198 ], [ -71.3262779, 41.4881581 ], [ -71.3263882, 41.4882999 ], [ -71.3265711, 41.488558 ], [ -71.3267396, 41.488777 ], [ -71.3267618, 41.4890693 ], [ -71.3268036, 41.4896564 ], [ -71.3268465, 41.4901577 ], [ -71.3269264, 41.4903744 ], [ -71.3269391, 41.4904745 ], [ -71.3269564, 41.4906099 ], [ -71.3269146, 41.4906635 ], [ -71.3267954, 41.490816 ], [ -71.3267461, 41.4908843 ], [ -71.3267414, 41.4912017 ], [ -71.3267411, 41.4912169 ], [ -71.3267398, 41.4913054 ], [ -71.3267398, 41.4913062 ], [ -71.3267387, 41.49138 ], [ -71.3267387, 41.4913819 ], [ -71.3267461, 41.4915858 ], [ -71.3267489, 41.4918035 ], [ -71.326749, 41.4918167 ], [ -71.326871, 41.4918087 ], [ -71.326898, 41.491807 ], [ -71.3268981, 41.4918229 ], [ -71.3268522, 41.4918226 ], [ -71.3266258, 41.4918212 ], [ -71.3265884, 41.4918261 ], [ -71.3265104, 41.4918356 ], [ -71.3265057, 41.4918362 ], [ -71.326504, 41.4918287 ], [ -71.326498, 41.4918295 ], [ -71.3262889, 41.4918576 ], [ -71.3262641, 41.4918609 ], [ -71.3260474, 41.49189 ], [ -71.3260296, 41.491815 ], [ -71.3260283, 41.4918115 ], [ -71.3260218, 41.4918089 ], [ -71.3260153, 41.4918101 ], [ -71.3260112, 41.4918143 ], [ -71.3260117, 41.4918175 ], [ -71.3260295, 41.4918925 ], [ -71.3259257, 41.4919063 ], [ -71.3259064, 41.4918253 ], [ -71.3258593, 41.4918316 ], [ -71.3258944, 41.4919797 ], [ -71.3260003, 41.4924255 ], [ -71.3260068, 41.492453 ], [ -71.3262585, 41.4925215 ], [ -71.3263164, 41.4925372 ], [ -71.3263304, 41.492541 ], [ -71.3263467, 41.4925072 ], [ -71.3263164, 41.4924989 ], [ -71.3262575, 41.4924829 ], [ -71.3260495, 41.4924264 ], [ -71.326041, 41.4923912 ], [ -71.326026, 41.4923295 ], [ -71.3260484, 41.4923246 ], [ -71.3261221, 41.4923294 ], [ -71.3262024, 41.4923345 ], [ -71.3262059, 41.4923347 ], [ -71.3262096, 41.4923334 ], [ -71.3262131, 41.4923305 ], [ -71.3262133, 41.4923268 ], [ -71.3262121, 41.492324 ], [ -71.3262077, 41.4923213 ], [ -71.3262038, 41.4923211 ], [ -71.3261352, 41.4923166 ], [ -71.3260213, 41.4923093 ], [ -71.3259956, 41.4922011 ], [ -71.3260179, 41.4921962 ], [ -71.3261728, 41.4922061 ], [ -71.3261763, 41.4922061 ], [ -71.3261802, 41.4922044 ], [ -71.3261825, 41.4922016 ], [ -71.3261829, 41.492198 ], [ -71.3261802, 41.4921942 ], [ -71.3261762, 41.4921928 ], [ -71.3261698, 41.4921924 ], [ -71.3259908, 41.4921809 ], [ -71.3259652, 41.4920726 ], [ -71.3259875, 41.4920677 ], [ -71.3261402, 41.4920775 ], [ -71.3261452, 41.4920778 ], [ -71.3261499, 41.492076 ], [ -71.3261524, 41.4920725 ], [ -71.3261519, 41.4920677 ], [ -71.3261473, 41.4920645 ], [ -71.3261394, 41.4920639 ], [ -71.3261276, 41.4920632 ], [ -71.3259604, 41.4920524 ], [ -71.3259446, 41.4919862 ], [ -71.325932, 41.4919329 ], [ -71.3262887, 41.4918852 ], [ -71.32629, 41.491885 ], [ -71.3263339, 41.4918792 ], [ -71.3263466, 41.4919325 ], [ -71.3264856, 41.4919139 ], [ -71.3264955, 41.4919125 ], [ -71.326523, 41.4919089 ], [ -71.3265091, 41.4918506 ], [ -71.3265915, 41.4918396 ], [ -71.3266274, 41.491835 ], [ -71.3268337, 41.4918362 ], [ -71.3269164, 41.4918368 ], [ -71.3269163, 41.4918109 ], [ -71.3269163, 41.4918058 ], [ -71.3269605, 41.4918029 ], [ -71.3269631, 41.4919881 ], [ -71.3270783, 41.4919806 ], [ -71.3270956, 41.4921654 ], [ -71.3270907, 41.4924398 ], [ -71.3270063, 41.4925199 ], [ -71.3269432, 41.4926679 ], [ -71.3269223, 41.4928487 ], [ -71.3269241, 41.4929345 ], [ -71.3269243, 41.4929431 ], [ -71.3269333, 41.4930821 ], [ -71.3269416, 41.4931651 ], [ -71.326958, 41.4932423 ], [ -71.3269702, 41.4933804 ], [ -71.3271534, 41.4933755 ], [ -71.3271459, 41.493243 ], [ -71.3272588, 41.4932225 ], [ -71.3273561, 41.4931964 ], [ -71.3275165, 41.4931375 ], [ -71.3276674, 41.4930501 ], [ -71.3277448, 41.4929798 ], [ -71.3278638, 41.4928466 ], [ -71.328131, 41.4925597 ], [ -71.3282285, 41.4924197 ], [ -71.328285, 41.4923151 ], [ -71.3283823, 41.4920764 ], [ -71.3284889, 41.4917996 ], [ -71.3285166, 41.4917274 ], [ -71.3285703, 41.4915873 ], [ -71.3285639, 41.4915528 ], [ -71.3285544, 41.4915027 ], [ -71.3285082, 41.4912297 ], [ -71.3284712, 41.4909915 ], [ -71.3284401, 41.4908266 ], [ -71.32841, 41.490629 ], [ -71.3283731, 41.4904089 ], [ -71.3283278, 41.4901307 ], [ -71.3283049, 41.4899878 ], [ -71.3283012, 41.4899644 ], [ -71.328282, 41.489845 ], [ -71.3282467, 41.4896402 ], [ -71.3282198, 41.4894739 ], [ -71.3282041, 41.4893773 ], [ -71.3281768, 41.4892418 ], [ -71.3282458, 41.4890584 ], [ -71.3282977, 41.4889076 ], [ -71.3283406, 41.4887313 ], [ -71.3284032, 41.4883466 ], [ -71.3284575, 41.4880193 ], [ -71.3285101, 41.4877048 ], [ -71.3285329, 41.4876155 ], [ -71.3285654, 41.4874056 ], [ -71.3285897, 41.4872709 ], [ -71.3286056, 41.4871336 ], [ -71.3285986, 41.4869362 ], [ -71.3285886, 41.4866703 ], [ -71.3285754, 41.4864658 ], [ -71.3285758, 41.4862925 ], [ -71.328564, 41.486014 ], [ -71.3285539, 41.4857204 ], [ -71.3285504, 41.4856008 ], [ -71.3285246, 41.4854034 ], [ -71.3285198, 41.48527 ], [ -71.3285067, 41.4850951 ], [ -71.3284998, 41.4849736 ], [ -71.3284654, 41.4847582 ], [ -71.328421, 41.4845287 ], [ -71.3283917, 41.4843828 ], [ -71.3283682, 41.4842852 ], [ -71.3283426, 41.4841988 ], [ -71.3282946, 41.4840435 ], [ -71.3282523, 41.4839132 ], [ -71.3282215, 41.4838276 ], [ -71.3281717, 41.4837039 ], [ -71.3281173, 41.4836053 ], [ -71.32805, 41.4835 ], [ -71.3279791, 41.4833968 ], [ -71.3279327, 41.4833308 ], [ -71.32789, 41.4832163 ], [ -71.327861, 41.4831009 ], [ -71.3278305, 41.4829648 ], [ -71.3278092, 41.4828433 ] ], [ [ -71.3548084, 41.4787427 ], [ -71.3545226, 41.4789737 ], [ -71.3544622, 41.4790225 ], [ -71.3544244, 41.4791425 ], [ -71.3545689, 41.4791706 ], [ -71.3548154, 41.4792185 ], [ -71.35489, 41.4789769 ], [ -71.3548961, 41.4789571 ], [ -71.354943, 41.4788984 ], [ -71.3550518, 41.4787622 ], [ -71.3550596, 41.4787525 ], [ -71.3550562, 41.4787505 ], [ -71.3549704, 41.4787023 ], [ -71.3548084, 41.4787427 ] ], [ [ -71.3614328, 41.4768605 ], [ -71.3616245, 41.4768522 ], [ -71.3617681, 41.4767595 ], [ -71.3614802, 41.4770517 ], [ -71.3614936, 41.4771973 ], [ -71.3611814, 41.4772924 ], [ -71.3610809, 41.4772415 ], [ -71.361097, 41.4771567 ], [ -71.3613566, 41.4770212 ], [ -71.3614328, 41.4768605 ] ] ] } },
{ "type": "Feature", "properties": { "RCID": 1454, "PRIM": 3, "GRUP": 2, "OBJL": 20, "RVER": 1, "AGEN": 550, "FIDN": 592862930, "FIDS": 8691, "LNAM": "022623565ED221F3", "RESTRN": [ "2", "6", "24" ], "SCAMIN": 59999, "SORDAT": "200504", "SORIND": "US,US,graph,Chart 13223" }, "geometry": { "type": "Polygon", "coordinates": [ [ [ -71.3845052, 41.4955651 ], [ -71.3843647, 41.4950793 ], [ -71.3843527, 41.4947491 ], [ -71.3840928, 41.4943023 ], [ -71.3841148, 41.4941232 ], [ -71.38418, 41.494043 ], [ -71.3843435, 41.4938415 ], [ -71.3842032, 41.4936683 ], [ -71.3843326, 41.4934032 ], [ -71.3843216, 41.4932602 ], [ -71.3840815, 41.4928744 ], [ -71.3837065, 41.4927425 ], [ -71.3831544, 41.4926705 ], [ -71.3823441, 41.492861 ], [ -71.3816211, 41.4926442 ], [ -71.3812798, 41.4926652 ], [ -71.3807319, 41.4924309 ], [ -71.3810197, 41.4923809 ], [ -71.3811268, 41.4924436 ], [ -71.3812432, 41.4924227 ], [ -71.3811056, 41.4922007 ], [ -71.3809258, 41.4920886 ], [ -71.3806993, 41.4915801 ], [ -71.380969, 41.4904516 ], [ -71.3811584, 41.490022 ], [ -71.3811612, 41.4900156 ], [ -71.3813028, 41.4896942 ], [ -71.3816526, 41.4895194 ], [ -71.3821844, 41.4893706 ], [ -71.382623, 41.4894186 ], [ -71.3841041, 41.4893131 ], [ -71.3852486, 41.4889255 ], [ -71.3859796, 41.4888386 ], [ -71.3863372, 41.4894185 ], [ -71.3866565, 41.4895478 ], [ -71.3867378, 41.4895951 ], [ -71.3866733, 41.4899064 ], [ -71.3865112, 41.4899234 ], [ -71.3864384, 41.490107 ], [ -71.3863424, 41.4901525 ], [ -71.3865172, 41.4904806 ], [ -71.3863495, 41.4906418 ], [ -71.3863971, 41.4912523 ], [ -71.386342, 41.4914223 ], [ -71.3865099, 41.4918652 ], [ -71.3866565, 41.4919656 ], [ -71.3876439, 41.4920311 ], [ -71.3879533, 41.4922399 ], [ -71.3882181, 41.4925946 ], [ -71.388355, 41.492778 ], [ -71.388743, 41.4928974 ], [ -71.3890639, 41.4928889 ], [ -71.3891479, 41.4928866 ], [ -71.3892253, 41.4928846 ], [ -71.3897755, 41.4927501 ], [ -71.3900044, 41.4926942 ], [ -71.3903528, 41.4923565 ], [ -71.3903814, 41.4923287 ], [ -71.3903911, 41.4923194 ], [ -71.3906921, 41.4920277 ], [ -71.3906965, 41.4920257 ], [ -71.3907195, 41.4920158 ], [ -71.3909657, 41.4919093 ], [ -71.3910859, 41.4918573 ], [ -71.3934656, 41.4917584 ], [ -71.3944633, 41.4918371 ], [ -71.3945983, 41.4918776 ], [ -71.3946115, 41.4919903 ], [ -71.3947307, 41.4920443 ], [ -71.39491, 41.4920157 ], [ -71.3948827, 41.4919259 ], [ -71.3950752, 41.49201 ], [ -71.395096, 41.4920842 ], [ -71.3953663, 41.4921599 ], [ -71.3958639, 41.4918738 ], [ -71.3957986, 41.491735 ], [ -71.3956316, 41.491691 ], [ -71.3954725, 41.4913711 ], [ -71.3953538, 41.491412 ], [ -71.3952076, 41.4916863 ], [ -71.3953181, 41.4918309 ], [ -71.3951757, 41.4918 ], [ -71.3946032, 41.4916831 ], [ -71.3943838, 41.491557 ], [ -71.3944558, 41.4913515 ], [ -71.3942271, 41.4913053 ], [ -71.3942816, 41.4911001 ], [ -71.3945072, 41.4911443 ], [ -71.3943795, 41.4909607 ], [ -71.3944634, 41.4909169 ], [ -71.3945062, 41.4907187 ], [ -71.3947653, 41.4906268 ], [ -71.394774, 41.4905204 ], [ -71.3949854, 41.4905202 ], [ -71.3952817, 41.4903815 ], [ -71.3953989, 41.4901037 ], [ -71.3960041, 41.4899379 ], [ -71.3959664, 41.4897783 ], [ -71.3963534, 41.4895667 ], [ -71.3968841, 41.4890193 ], [ -71.3968163, 41.4889082 ], [ -71.3965485, 41.4888666 ], [ -71.3965529, 41.4888387 ], [ -71.3966044, 41.4885152 ], [ -71.3965287, 41.4884473 ], [ -71.3970303, 41.4881472 ], [ -71.3973016, 41.4881654 ], [ -71.3974024, 41.4882232 ], [ -71.3974229, 41.4883285 ], [ -71.3974339, 41.4883854 ], [ -71.3976166, 41.4884198 ], [ -71.3980129, 41.488718 ], [ -71.398045, 41.4888107 ], [ -71.3973659, 41.4893899 ], [ -71.3972002, 41.4896472 ], [ -71.3969081, 41.4898424 ], [ -71.3969244, 41.4901126 ], [ -71.3968279, 41.4903445 ], [ -71.3965892, 41.4905195 ], [ -71.3962622, 41.4905478 ], [ -71.3961815, 41.4912079 ], [ -71.3960991, 41.4913054 ], [ -71.3961367, 41.4917188 ], [ -71.3961036, 41.4917108 ], [ -71.3960178, 41.4916902 ], [ -71.3959727, 41.4917629 ], [ -71.396005, 41.4918165 ], [ -71.3961968, 41.4921349 ], [ -71.3967282, 41.4925641 ], [ -71.3967309, 41.4925696 ], [ -71.3968507, 41.4928132 ], [ -71.3968158, 41.4932627 ], [ -71.396697, 41.493491 ], [ -71.3966631, 41.4935561 ], [ -71.3966108, 41.4936565 ], [ -71.3965937, 41.4937237 ], [ -71.3965728, 41.4938059 ], [ -71.3965474, 41.4939058 ], [ -71.3964607, 41.4942467 ], [ -71.3964799, 41.4943582 ], [ -71.3965242, 41.4944483 ], [ -71.3964549, 41.4946548 ], [ -71.396322, 41.4946321 ], [ -71.3962018, 41.4946115 ], [ -71.3961868, 41.49467 ], [ -71.3961733, 41.4947227 ], [ -71.396225, 41.4947316 ], [ -71.3965306, 41.4947839 ], [ -71.3965337, 41.4947745 ], [ -71.3966347, 41.494467 ], [ -71.3967397, 41.494385 ], [ -71.396781, 41.4942803 ], [ -71.3968114, 41.4942052 ], [ -71.3968604, 41.4940448 ], [ -71.3970101, 41.4936204 ], [ -71.3972779, 41.4932932 ], [ -71.3975423, 41.4932166 ], [ -71.3979218, 41.4932219 ], [ -71.3983318, 41.4932276 ], [ -71.3984553, 41.4932293 ], [ -71.3996585, 41.4924995 ], [ -71.3997697, 41.4922515 ], [ -71.3999782, 41.4920242 ], [ -71.4, 41.491844 ], [ -71.4, 41.4929076 ], [ -71.4, 41.4929752 ], [ -71.4, 41.4929976 ], [ -71.4, 41.493049 ], [ -71.4, 41.4935977 ], [ -71.4, 41.4940298 ], [ -71.4, 41.4941289 ], [ -71.4, 41.4941511 ], [ -71.4, 41.4947806 ], [ -71.4, 41.4951619 ], [ -71.4, 41.4952305 ], [ -71.4, 41.4958024 ], [ -71.4, 41.4958681 ], [ -71.4, 41.4967381 ], [ -71.4, 41.4968599 ], [ -71.4, 41.4993433 ], [ -71.4, 41.4995889 ], [ -71.4, 41.4998694 ], [ -71.4, 41.5000842 ], [ -71.4, 41.500173 ], [ -71.4, 41.5001764 ], [ -71.4, 41.5001853 ], [ -71.4, 41.5005925 ], [ -71.3998548, 41.5008681 ], [ -71.3995212, 41.5012265 ], [ -71.3994251, 41.5012674 ], [ -71.3992569, 41.5013388 ], [ -71.3987676, 41.5015468 ], [ -71.3985544, 41.5017047 ], [ -71.3983962, 41.5018683 ], [ -71.3980139, 41.5022635 ], [ -71.397987, 41.5023142 ], [ -71.3979507, 41.5023824 ], [ -71.3979261, 41.5024934 ], [ -71.3973983, 41.5027918 ], [ -71.396935, 41.5033445 ], [ -71.3966798, 41.5034561 ], [ -71.3963388, 41.503451 ], [ -71.3962521, 41.5033416 ], [ -71.3961704, 41.5033818 ], [ -71.3960801, 41.5034263 ], [ -71.3961415, 41.5035054 ], [ -71.3961403, 41.5035129 ], [ -71.3961152, 41.503667 ], [ -71.3961101, 41.5036984 ], [ -71.3957938, 41.5036789 ], [ -71.3955626, 41.5036726 ], [ -71.3955606, 41.5035875 ], [ -71.3955526, 41.5032833 ], [ -71.3955402, 41.5027208 ], [ -71.3955238, 41.5020277 ], [ -71.3955178, 41.5017725 ], [ -71.3954914, 41.5006538 ], [ -71.3954484, 41.4988353 ], [ -71.3953695, 41.4954924 ], [ -71.395363, 41.4952181 ], [ -71.3953554, 41.4948937 ], [ -71.3941225, 41.4949697 ], [ -71.3930668, 41.4950347 ], [ -71.3885251, 41.4953146 ], [ -71.3863733, 41.4954471 ], [ -71.3862393, 41.4954554 ], [ -71.3859222, 41.4954749 ], [ -71.3847132, 41.4955494 ], [ -71.3845052, 41.4955651 ] ] ] } }
]
}
