{
"type": "FeatureCollection",
"name": "CBLOHD",
"crs": { "type": "name", "properties": { "name": "urn:ogc:def:crs:OGC:1.3:CRS84" } },
"features": [
{ "type": "Feature", "properties": { "RCID": 436, "PRIM": 2, "GRUP": 2, "OBJL": 21, "RVER": 1, "AGEN": 550, "FIDN": 32929167, "FIDS": 8691, "LNAM": "022601F6758F21F3", "CATCBL": 1, "SCAMIN": 29999, "SORDAT": "20140818", "SORIND": "US,US,graph,GC-11187" }, "geometry": { "type": "LineString", "coordinates": [ [ -71.3746639, 41.5072038 ], [ -71.3746494, 41.506819 ] ] } }
]
}
