{
"type": "FeatureCollection",
"name": "FOGSIG",
"crs": { "type": "name", "properties": { "name": "urn:ogc:def:crs:OGC:1.3:CRS84" } },
"features": [
{ "type": "Feature", "properties": { "RCID": 46, "PRIM": 1, "GRUP": 2, "OBJL": 58, "RVER": 1, "AGEN": 550, "FIDN": 19031498, "FIDS": 64375, "LNAM": "0226012265CAFB77", "CATFOG": 9, "SCAMIN": 59999, "SORDAT": "200504", "SORIND": "US,US,graph,Chart 13223" }, "geometry": { "type": "Point", "coordinates": [ -71.3539643, 41.4773333 ] } },
{ "type": "Feature", "properties": { "RCID": 47, "PRIM": 1, "GRUP": 2, "OBJL": 58, "RVER": 1, "AGEN": 550, "FIDN": 363451401, "FIDS": 8691, "LNAM": "022615A9D40921F3", "CATFOG": 10, "SIGGEN": 1, "SIGGRP": "(2)", "SIGPER": 20.0, "SIGSEQ": "01.0+(01.0)+01.0+(17.0)", "SCAMIN": 59999, "SORDAT": "20120518", "SORIND": "US,US,reprt,USCG Light List Vol 1,17911" }, "geometry": { "type": "Point", "coordinates": [ -71.3513889, 41.5055556 ] } },
{ "type": "Feature", "properties": { "RCID": 48, "PRIM": 1, "GRUP": 2, "OBJL": 58, "RVER": 1, "AGEN": 550, "FIDN": 19031520, "FIDS": 64375, "LNAM": "0226012265E0FB77", "CATFOG": 7, "SCAMIN": 59999, "SORDAT": "20070925", "SORIND": "US,US,reprt,1stCGD,LNM 39/07" }, "geometry": { "type": "Point", "coordinates": [ -71.3268706, 41.4816942 ] } },
{ "type": "Feature", "properties": { "RCID": 49, "PRIM": 1, "GRUP": 2, "OBJL": 58, "RVER": 1, "AGEN": 550, "FIDN": 19031499, "FIDS": 64375, "LNAM": "0226012265CBFB77", "CATFOG": 7, "SCAMIN": 59999, "SORDAT": "200504", "SORIND": "US,US,graph,Chart 13223" }, "geometry": { "type": "Point", "coordinates": [ -71.3342186, 41.51663 ] } },
{ "type": "Feature", "properties": { "RCID": 50, "PRIM": 1, "GRUP": 2, "OBJL": 58, "RVER": 1, "AGEN": 550, "FIDN": 19031525, "FIDS": 64375, "LNAM": "0226012265E5FB77", "CATFOG": 9, "SCAMIN": 59999, "SORDAT": "200504", "SORIND": "US,US,graph,Chart 13223" }, "geometry": { "type": "Point", "coordinates": [ -71.3364401, 41.4927182 ] } },
{ "type": "Feature", "properties": { "RCID": 51, "PRIM": 1, "GRUP": 2, "OBJL": 58, "RVER": 1, "AGEN": 550, "FIDN": 19031484, "FIDS": 64375, "LNAM": "0226012265BCFB77", "CATFOG": 7, "SCAMIN": 59999, "SORDAT": "200504", "SORIND": "US,US,graph,Chart 13223" }, "geometry": { "type": "Point", "coordinates": [ -71.3446609, 41.4945731 ] } },
{ "type": "Feature", "properties": { "RCID": 52, "PRIM": 1, "GRUP": 2, "OBJL": 58, "RVER": 1, "AGEN": 550, "FIDN": 20416728, "FIDS": 64375, "LNAM": "0226013788D8FB77", "CATFOG": 7, "SCAMIN": 59999, "SORDAT": "20141209", "SORIND": "US,US,reprt,1stCGD,LNM 49/14" }, "geometry": { "type": "Point", "coordinates": [ -71.3471667, 41.5112667 ] } },
{ "type": "Feature", "properties": { "RCID": 53, "PRIM": 1, "GRUP": 2, "OBJL": 58, "RVER": 1, "AGEN": 550, "FIDN": 19031485, "FIDS": 64375, "LNAM": "0226012265BDFB77", "CATFOG": 7, "SCAMIN": 59999, "SORDAT": "200504", "SORIND": "US,US,graph,Chart 13223" }, "geometry": { "type": "Point", "coordinates": [ -71.3506132, 41.4835046 ] } },
{ "type": "Feature", "properties": { "RCID": 54, "PRIM": 1, "GRUP": 2, "OBJL": 58, "RVER": 1, "AGEN": 550, "FIDN": 19031482, "FIDS": 64375, "LNAM": "0226012265BAFB77", "CATFOG": 10, "SIGGRP": "(1)", "SIGPER": 15.0, "SIGSEQ": "02.0+(13.0)", "INFORM": "MRASS", "SCAMIN": 59999, "SORDAT": "20181023", "SORIND": "US,US,reprt,1stCGD,LNM 43/18" }, "geometry": { "type": "Point", "coordinates": [ -71.3367736, 41.4817411 ] } }
]
}
