{
"type": "FeatureCollection",
"name": "LAKARE",
"crs": { "type": "name", "properties": { "name": "urn:ogc:def:crs:OGC:1.3:CRS84" } },
"features": [
{ "type": "Feature", "properties": { "RCID": 1265, "PRIM": 3, "GRUP": 2, "OBJL": 69, "RVER": 1, "AGEN": 550, "FIDN": 696254704, "FIDS": 8691, "LNAM": "0226298000F021F3", "OBJNAM": "Jamestown Reservoir", "SCAMIN": 29999, "SORDAT": "200602", "SORIND": "US,US,graph,Chart 13223" }, "geometry": { "type": "Polygon", "coordinates": [ [ [ -71.3710049, 41.5335672 ], [ -71.3709764, 41.533503 ], [ -71.3710998, 41.5332678 ], [ -71.3709954, 41.5328544 ], [ -71.3708531, 41.5319562 ], [ -71.3708436, 41.5314429 ], [ -71.3711282, 41.5307229 ], [ -71.37128, 41.529782 ], [ -71.3714033, 41.5294825 ], [ -71.3734809, 41.5296109 ], [ -71.3743348, 41.5296322 ], [ -71.3746194, 41.5296893 ], [ -71.3745719, 41.5302097 ], [ -71.3744676, 41.530452 ], [ -71.3742873, 41.5307657 ], [ -71.3739268, 41.5316853 ], [ -71.3736612, 41.532056 ], [ -71.3732248, 41.5324409 ], [ -71.3728643, 41.5325692 ], [ -71.3724943, 41.5326904 ], [ -71.3719061, 41.5328116 ], [ -71.371631, 41.5330112 ], [ -71.3714698, 41.5332108 ], [ -71.3713559, 41.533332 ], [ -71.3712136, 41.5334674 ], [ -71.3710049, 41.5335672 ] ] ] } }
]
}
