{
"type": "FeatureCollection",
"name": "LNDELV",
"crs": { "type": "name", "properties": { "name": "urn:ogc:def:crs:OGC:1.3:CRS84" } },
"features": [
{ "type": "Feature", "properties": { "RCID": 1431, "PRIM": 1, "GRUP": 2, "OBJL": 72, "RVER": 1, "AGEN": 550, "FIDN": 99570472, "FIDS": 7303, "LNAM": "022605EF53281C87", "ELEVAT": 0.9, "SCAMIN": 29999, "SORDAT": "201306", "SORIND": "US,US,graph,Chart 13223" }, "geometry": { "type": "Point", "coordinates": [ -71.3891937, 41.4931945 ] } },
{ "type": "Feature", "properties": { "RCID": 1432, "PRIM": 1, "GRUP": 2, "OBJL": 72, "RVER": 1, "AGEN": 550, "FIDN": 513249161, "FIDS": 7303, "LNAM": "02261E978F891C87", "ELEVAT": 1.8, "SCAMIN": 29999, "SORDAT": "200504", "SORIND": "US,US,graph,Chart 13223" }, "geometry": { "type": "Point", "coordinates": [ -71.3533319, 41.4834389 ] } },
{ "type": "Feature", "properties": { "RCID": 1433, "PRIM": 1, "GRUP": 2, "OBJL": 72, "RVER": 1, "AGEN": 550, "FIDN": 388145155, "FIDS": 7303, "LNAM": "02261722A0031C87", "ELEVAT": 0.9, "SCAMIN": 29999, "SORDAT": "200504", "SORIND": "US,US,graph,Chart 13223" }, "geometry": { "type": "Point", "coordinates": [ -71.3311331, 41.5178312 ] } },
{ "type": "Feature", "properties": { "RCID": 1434, "PRIM": 1, "GRUP": 2, "OBJL": 72, "RVER": 1, "AGEN": 550, "FIDN": 78038850, "FIDS": 7303, "LNAM": "022604A6C7421C87", "ELEVAT": 3.7, "SCAMIN": 29999, "SORDAT": "200504", "SORIND": "US,US,graph,Chart 13223" }, "geometry": { "type": "Point", "coordinates": [ -71.3579441, 41.4836343 ] } },
{ "type": "Feature", "properties": { "RCID": 1435, "PRIM": 1, "GRUP": 2, "OBJL": 72, "RVER": 1, "AGEN": 550, "FIDN": 282236816, "FIDS": 7303, "LNAM": "022610D297901C87", "ELEVAT": 0.9, "SCAMIN": 29999, "SORDAT": "200504", "SORIND": "US,US,graph,Chart 13223" }, "geometry": { "type": "Point", "coordinates": [ -71.3612197, 41.5227595 ] } },
{ "type": "Feature", "properties": { "RCID": 1436, "PRIM": 1, "GRUP": 2, "OBJL": 72, "RVER": 1, "AGEN": 550, "FIDN": 568126093, "FIDS": 7303, "LNAM": "022621DCEA8D1C87", "ELEVAT": 0.6, "SCAMIN": 29999, "SORDAT": "200504", "SORIND": "US,US,graph,Chart 13223" }, "geometry": { "type": "Point", "coordinates": [ -71.3624309, 41.5339772 ] } },
{ "type": "Feature", "properties": { "RCID": 1437, "PRIM": 1, "GRUP": 2, "OBJL": 72, "RVER": 1, "AGEN": 550, "FIDN": 544641114, "FIDS": 7303, "LNAM": "02262076905A1C87", "ELEVAT": 0.9, "SCAMIN": 29999, "SORDAT": "200504", "SORIND": "US,US,graph,Chart 13223" }, "geometry": { "type": "Point", "coordinates": [ -71.3623577, 41.5335837 ] } },
{ "type": "Feature", "properties": { "RCID": 1438, "PRIM": 1, "GRUP": 2, "OBJL": 72, "RVER": 1, "AGEN": 550, "FIDN": 378109666, "FIDS": 7303, "LNAM": "022616897EE21C87", "ELEVAT": 0.6, "SCAMIN": 29999, "SORDAT": "200504", "SORIND": "US,US,graph,Chart 13223" }, "geometry": { "type": "Point", "coordinates": [ -71.3374785, 41.4990015 ] } },
{ "type": "Feature", "properties": { "RCID": 1439, "PRIM": 1, "GRUP": 2, "OBJL": 72, "RVER": 1, "AGEN": 550, "FIDN": 598815222, "FIDS": 7303, "LNAM": "022623B131F61C87", "ELEVAT": 3.7, "SCAMIN": 29999, "SORDAT": "200504", "SORIND": "US,US,graph,Chart 13223" }, "geometry": { "type": "Point", "coordinates": [ -71.3579489, 41.4853707 ] } },
{ "type": "Feature", "properties": { "RCID": 1440, "PRIM": 1, "GRUP": 2, "OBJL": 72, "RVER": 1, "AGEN": 550, "FIDN": 518035738, "FIDS": 7303, "LNAM": "02261EE0991A1C87", "ELEVAT": 5.5, "SCAMIN": 29999, "SORDAT": "200504", "SORIND": "US,US,graph,Chart 13223" }, "geometry": { "type": "Point", "coordinates": [ -71.3531271, 41.4820645 ] } },
{ "type": "Feature", "properties": { "RCID": 1441, "PRIM": 1, "GRUP": 2, "OBJL": 72, "RVER": 1, "AGEN": 550, "FIDN": 313291622, "FIDS": 7303, "LNAM": "022612AC73661C87", "ELEVAT": 0.9, "SCAMIN": 29999, "SORDAT": "200504", "SORIND": "US,US,graph,Chart 13223" }, "geometry": { "type": "Point", "coordinates": [ -71.3844987, 41.477344 ] } },
{ "type": "Feature", "properties": { "RCID": 1442, "PRIM": 1, "GRUP": 2, "OBJL": 72, "RVER": 1, "AGEN": 550, "FIDN": 434734391, "FIDS": 7303, "LNAM": "022619E985371C87", "ELEVAT": 1.2, "SCAMIN": 29999, "SORDAT": "200504", "SORIND": "US,US,graph,Chart 13223" }, "geometry": { "type": "Point", "coordinates": [ -71.3619886, 41.532493 ] } },
{ "type": "Feature", "properties": { "RCID": 1443, "PRIM": 1, "GRUP": 2, "OBJL": 72, "RVER": 1, "AGEN": 550, "FIDN": 174689804, "FIDS": 7303, "LNAM": "02260A698E0C1C87", "ELEVAT": 0.6, "SCAMIN": 29999, "SORDAT": "200504", "SORIND": "US,US,graph,Chart 13223" }, "geometry": { "type": "Point", "coordinates": [ -71.3610736, 41.5285008 ] } },
{ "type": "Feature", "properties": { "RCID": 1444, "PRIM": 1, "GRUP": 2, "OBJL": 72, "RVER": 1, "AGEN": 550, "FIDN": 402652329, "FIDS": 7303, "LNAM": "022617FFFCA91C87", "ELEVAT": 0.6, "SCAMIN": 29999, "SORDAT": "200504", "SORIND": "US,US,graph,Chart 13223" }, "geometry": { "type": "Point", "coordinates": [ -71.3331837, 41.5025471 ] } },
{ "type": "Feature", "properties": { "RCID": 1445, "PRIM": 1, "GRUP": 2, "OBJL": 72, "RVER": 1, "AGEN": 550, "FIDN": 102170699, "FIDS": 7303, "LNAM": "02260617004B1C87", "ELEVAT": 1.5, "SCAMIN": 29999, "SORDAT": "200504", "SORIND": "US,US,graph,Chart 13223" }, "geometry": { "type": "Point", "coordinates": [ -71.3776265, 41.4765794 ] } }
]
}
