{
"type": "FeatureCollection",
"name": "M_COVR",
"crs": { "type": "name", "properties": { "name": "urn:ogc:def:crs:OGC:1.3:CRS84" } },
"features": [
{ "type": "Feature", "properties": { "RCID": 2366, "PRIM": 3, "GRUP": 2, "OBJL": 302, "RVER": 1, "AGEN": 550, "FIDN": -1631001421, "FIDS": 12241, "LNAM": "02269EC8E4B32FD1", "CATCOV": 1 }, "geometry": { "type": "Polygon", "coordinates": [ [ [ -71.3993825, 41.475 ], [ -71.4, 41.475 ], [ -71.4, 41.476039 ], [ -71.4, 41.4771627 ], [ -71.4, 41.477379 ], [ -71.4, 41.4800496 ], [ -71.4, 41.480259 ], [ -71.4, 41.480414 ], [ -71.4, 41.4805784 ], [ -71.4, 41.4846322 ], [ -71.4, 41.485197 ], [ -71.4, 41.4852595 ], [ -71.4, 41.485275 ], [ -71.4, 41.4861017 ], [ -71.4, 41.486221 ], [ -71.4, 41.4866538 ], [ -71.4, 41.4866626 ], [ -71.4, 41.4869433 ], [ -71.4, 41.4871526 ], [ -71.4, 41.4872279 ], [ -71.4, 41.4875324 ], [ -71.4, 41.487841 ], [ -71.4, 41.4880714 ], [ -71.4, 41.4881283 ], [ -71.4, 41.4888222 ], [ -71.4, 41.4889885 ], [ -71.4, 41.4894336 ], [ -71.4, 41.4900277 ], [ -71.4, 41.4902403 ], [ -71.4, 41.4915926 ], [ -71.4, 41.491844 ], [ -71.4, 41.4929076 ], [ -71.4, 41.4929752 ], [ -71.4, 41.4929976 ], [ -71.4, 41.493049 ], [ -71.4, 41.4935977 ], [ -71.4, 41.4940298 ], [ -71.4, 41.4941289 ], [ -71.4, 41.4941511 ], [ -71.4, 41.4947806 ], [ -71.4, 41.4951619 ], [ -71.4, 41.4952305 ], [ -71.4, 41.4958024 ], [ -71.4, 41.4958681 ], [ -71.4, 41.4967381 ], [ -71.4, 41.4968599 ], [ -71.4, 41.4993433 ], [ -71.4, 41.4995889 ], [ -71.4, 41.4998694 ], [ -71.4, 41.5000842 ], [ -71.4, 41.500173 ], [ -71.4, 41.5001764 ], [ -71.4, 41.5001853 ], [ -71.4, 41.5005925 ], [ -71.4, 41.506767 ], [ -71.4, 41.5070897 ], [ -71.4, 41.5071826 ], [ -71.4, 41.5072596 ], [ -71.4, 41.5072655 ], [ -71.4, 41.5073258 ], [ -71.4, 41.507584 ], [ -71.4, 41.5078395 ], [ -71.4, 41.5078911 ], [ -71.4, 41.5079657 ], [ -71.4, 41.5080125 ], [ -71.4, 41.5082887 ], [ -71.4, 41.5096901 ], [ -71.4, 41.5098531 ], [ -71.4, 41.5099679 ], [ -71.4, 41.5116499 ], [ -71.4, 41.5123319 ], [ -71.4, 41.5124692 ], [ -71.4, 41.513873 ], [ -71.4, 41.5151805 ], [ -71.4, 41.515277 ], [ -71.4, 41.516768 ], [ -71.4, 41.5239211 ], [ -71.4, 41.5240498 ], [ -71.4, 41.5241277 ], [ -71.4, 41.5245937 ], [ -71.4, 41.5252408 ], [ -71.4, 41.5252828 ], [ -71.4, 41.5252968 ], [ -71.4, 41.5260246 ], [ -71.4, 41.5263351 ], [ -71.4, 41.5270925 ], [ -71.4, 41.5275925 ], [ -71.4, 41.5276991 ], [ -71.4, 41.5277826 ], [ -71.4, 41.5279707 ], [ -71.4, 41.5281124 ], [ -71.4, 41.5328014 ], [ -71.4, 41.5330649 ], [ -71.4, 41.5353982 ], [ -71.4, 41.5355025 ], [ -71.4, 41.5356388 ], [ -71.4, 41.537439 ], [ -71.4, 41.5401282 ], [ -71.4, 41.5411419 ], [ -71.4, 41.5428782 ], [ -71.4, 41.5434778 ], [ -71.4, 41.5443037 ], [ -71.4, 41.549852 ], [ -71.4, 41.55 ], [ -71.3999643, 41.55 ], [ -71.3999478, 41.55 ], [ -71.3977531, 41.55 ], [ -71.3972651, 41.55 ], [ -71.3966202, 41.55 ], [ -71.3955113, 41.55 ], [ -71.3953523, 41.55 ], [ -71.3948799, 41.55 ], [ -71.3947973, 41.55 ], [ -71.3941124, 41.55 ], [ -71.3936034, 41.55 ], [ -71.3933623, 41.55 ], [ -71.392656, 41.55 ], [ -71.3915466, 41.55 ], [ -71.3915044, 41.55 ], [ -71.391407, 41.55 ], [ -71.3906584, 41.55 ], [ -71.3882548, 41.55 ], [ -71.3876221, 41.55 ], [ -71.3874667, 41.55 ], [ -71.3871625, 41.55 ], [ -71.3868502, 41.55 ], [ -71.3865435, 41.55 ], [ -71.3865348, 41.55 ], [ -71.3864288, 41.55 ], [ -71.3856677, 41.55 ], [ -71.3854047, 41.55 ], [ -71.359987, 41.55 ], [ -71.3598316, 41.55 ], [ -71.3592482, 41.55 ], [ -71.3591785, 41.55 ], [ -71.3590858, 41.55 ], [ -71.3590617, 41.55 ], [ -71.3590225, 41.55 ], [ -71.358873, 41.55 ], [ -71.3588181, 41.55 ], [ -71.3584587, 41.55 ], [ -71.3583652, 41.55 ], [ -71.3582376, 41.55 ], [ -71.3577585, 41.55 ], [ -71.3577223, 41.55 ], [ -71.3571627, 41.55 ], [ -71.3569978, 41.55 ], [ -71.3564117, 41.55 ], [ -71.3552577, 41.55 ], [ -71.3549942, 41.55 ], [ -71.3537382, 41.55 ], [ -71.3511514, 41.55 ], [ -71.3474563, 41.55 ], [ -71.3468388, 41.55 ], [ -71.3453638, 41.55 ], [ -71.3358549, 41.55 ], [ -71.3341493, 41.55 ], [ -71.3322868, 41.55 ], [ -71.3304242, 41.55 ], [ -71.3300945, 41.55 ], [ -71.3254601, 41.55 ], [ -71.325, 41.55 ], [ -71.325, 41.543724 ], [ -71.325, 41.5429961 ], [ -71.325, 41.5425444 ], [ -71.325, 41.5418711 ], [ -71.325, 41.5417272 ], [ -71.325, 41.5415441 ], [ -71.325, 41.5411861 ], [ -71.325, 41.5409838 ], [ -71.325, 41.5409096 ], [ -71.325, 41.5408841 ], [ -71.325, 41.5406301 ], [ -71.325, 41.5333487 ], [ -71.325, 41.5328019 ], [ -71.325, 41.5327929 ], [ -71.325, 41.5325618 ], [ -71.325, 41.5322316 ], [ -71.325, 41.5322304 ], [ -71.325, 41.532101 ], [ -71.325, 41.5320139 ], [ -71.325, 41.5302501 ], [ -71.325, 41.5277573 ], [ -71.325, 41.5244768 ], [ -71.325, 41.5243151 ], [ -71.325, 41.5237562 ], [ -71.325, 41.5236679 ], [ -71.325, 41.5235379 ], [ -71.325, 41.5234485 ], [ -71.325, 41.5232413 ], [ -71.325, 41.523131 ], [ -71.325, 41.5230331 ], [ -71.325, 41.523027 ], [ -71.325, 41.5226122 ], [ -71.325, 41.522524 ], [ -71.325, 41.5219592 ], [ -71.325, 41.5172355 ], [ -71.325, 41.517086 ], [ -71.325, 41.5135397 ], [ -71.325, 41.5073654 ], [ -71.325, 41.5071366 ], [ -71.325, 41.5070773 ], [ -71.325, 41.5065638 ], [ -71.325, 41.5064448 ], [ -71.325, 41.5061614 ], [ -71.325, 41.5059483 ], [ -71.325, 41.5057465 ], [ -71.325, 41.5057324 ], [ -71.325, 41.5052746 ], [ -71.325, 41.5048139 ], [ -71.325, 41.504094 ], [ -71.325, 41.5028358 ], [ -71.325, 41.5027594 ], [ -71.325, 41.5025841 ], [ -71.325, 41.5023328 ], [ -71.325, 41.5015538 ], [ -71.325, 41.5006959 ], [ -71.325, 41.5005452 ], [ -71.325, 41.4997406 ], [ -71.325, 41.4995806 ], [ -71.325, 41.4966245 ], [ -71.325, 41.4913983 ], [ -71.325, 41.4913358 ], [ -71.325, 41.4913294 ], [ -71.325, 41.4913104 ], [ -71.325, 41.4912317 ], [ -71.325, 41.4910667 ], [ -71.325, 41.488146 ], [ -71.325, 41.4880773 ], [ -71.325, 41.4812385 ], [ -71.325, 41.4807553 ], [ -71.325, 41.4800042 ], [ -71.325, 41.4797801 ], [ -71.325, 41.4796246 ], [ -71.325, 41.4794286 ], [ -71.325, 41.4792795 ], [ -71.325, 41.479249 ], [ -71.325, 41.4787801 ], [ -71.325, 41.4783564 ], [ -71.325, 41.477681 ], [ -71.325, 41.4776387 ], [ -71.325, 41.4775103 ], [ -71.325, 41.4774418 ], [ -71.325, 41.4772394 ], [ -71.325, 41.4770455 ], [ -71.325, 41.476739 ], [ -71.325, 41.476585 ], [ -71.325, 41.4762707 ], [ -71.325, 41.4762467 ], [ -71.325, 41.4752252 ], [ -71.325, 41.475 ], [ -71.3253681, 41.475 ], [ -71.3266189, 41.475 ], [ -71.3266249, 41.475 ], [ -71.3268824, 41.475 ], [ -71.3270717, 41.475 ], [ -71.3272436, 41.475 ], [ -71.3277626, 41.475 ], [ -71.3280597, 41.475 ], [ -71.3299057, 41.475 ], [ -71.3299921, 41.475 ], [ -71.3309524, 41.475 ], [ -71.3311142, 41.475 ], [ -71.3325491, 41.475 ], [ -71.3326361, 41.475 ], [ -71.334816, 41.475 ], [ -71.3349194, 41.475 ], [ -71.3355807, 41.475 ], [ -71.3355813, 41.475 ], [ -71.3355982, 41.475 ], [ -71.3356419, 41.475 ], [ -71.3364967, 41.475 ], [ -71.3428827, 41.475 ], [ -71.3430148, 41.475 ], [ -71.3433012, 41.475 ], [ -71.3433141, 41.475 ], [ -71.3434375, 41.475 ], [ -71.343495, 41.475 ], [ -71.3437415, 41.475 ], [ -71.3437945, 41.475 ], [ -71.3438373, 41.475 ], [ -71.3439995, 41.475 ], [ -71.3442106, 41.475 ], [ -71.3443964, 41.475 ], [ -71.3444369, 41.475 ], [ -71.3448712, 41.475 ], [ -71.3448818, 41.475 ], [ -71.3449927, 41.475 ], [ -71.3452649, 41.475 ], [ -71.3452965, 41.475 ], [ -71.3467523, 41.475 ], [ -71.3503533, 41.475 ], [ -71.3535798, 41.475 ], [ -71.3563217, 41.475 ], [ -71.3574015, 41.475 ], [ -71.3643373, 41.475 ], [ -71.3648634, 41.475 ], [ -71.3653043, 41.475 ], [ -71.365305, 41.475 ], [ -71.3679581, 41.475 ], [ -71.368039, 41.475 ], [ -71.3683126, 41.475 ], [ -71.3688739, 41.475 ], [ -71.3689218, 41.475 ], [ -71.3708965, 41.475 ], [ -71.3709681, 41.475 ], [ -71.3710105, 41.475 ], [ -71.3714507, 41.475 ], [ -71.3714993, 41.475 ], [ -71.371524, 41.475 ], [ -71.3723292, 41.475 ], [ -71.3723482, 41.475 ], [ -71.3724073, 41.475 ], [ -71.3724832, 41.475 ], [ -71.372556, 41.475 ], [ -71.37257, 41.475 ], [ -71.3726688, 41.475 ], [ -71.3726813, 41.475 ], [ -71.3726909, 41.475 ], [ -71.3729296, 41.475 ], [ -71.3730294, 41.475 ], [ -71.3733721, 41.475 ], [ -71.3738559, 41.475 ], [ -71.3763266, 41.475 ], [ -71.3768654, 41.475 ], [ -71.3770016, 41.475 ], [ -71.3770443, 41.475 ], [ -71.3770566, 41.475 ], [ -71.3770982, 41.475 ], [ -71.3771127, 41.475 ], [ -71.3771376, 41.475 ], [ -71.3771853, 41.475 ], [ -71.3772512, 41.475 ], [ -71.3772824, 41.475 ], [ -71.3773125, 41.475 ], [ -71.3809099, 41.475 ], [ -71.3812153, 41.475 ], [ -71.3812329, 41.475 ], [ -71.3813764, 41.475 ], [ -71.3821517, 41.475 ], [ -71.3821933, 41.475 ], [ -71.3822237, 41.475 ], [ -71.3823003, 41.475 ], [ -71.3823612, 41.475 ], [ -71.3825443, 41.475 ], [ -71.3827129, 41.475 ], [ -71.3828854, 41.475 ], [ -71.3829202, 41.475 ], [ -71.3832338, 41.475 ], [ -71.3835252, 41.475 ], [ -71.3972281, 41.475 ], [ -71.3973368, 41.475 ], [ -71.3978877, 41.475 ], [ -71.3979445, 41.475 ], [ -71.3980029, 41.475 ], [ -71.39814, 41.475 ], [ -71.3983438, 41.475 ], [ -71.3983767, 41.475 ], [ -71.3984465, 41.475 ], [ -71.3985342, 41.475 ], [ -71.3989723, 41.475 ], [ -71.3991875, 41.475 ], [ -71.3992555, 41.475 ], [ -71.3993825, 41.475 ] ] ] } }
]
}
