{
"type": "FeatureCollection",
"name": "NEWOBJ",
"crs": { "type": "name", "properties": { "name": "urn:ogc:def:crs:OGC:1.3:CRS84" } },
"features": [
{ "type": "Feature", "properties": { "RCID": 2549, "PRIM": 1, "GRUP": 2, "OBJL": 163, "RVER": 1, "AGEN": 550, "FIDN": 207178110, "FIDS": 2005, "LNAM": "02260C59497E07D5", "CLSDEF": "A Virtual object used to mark an area or feature referred to in nautical documents", "CLSNAM": "Virtual AtoN, Special Purpose", "OBJNAM": "Newort-Pell Bridge VAIS SW, MMSI 993672526 (21)", "INFORM": "Virtual AtoN, Special Purpose; A Virtual object used to mark an area or feature referred to in nautical documents", "SCAMIN": 89999, "SYMINS": "SY(BRTHNO01);SY(BOYSPP11);TX('V-AIS',3,2,2,'15110',2,0,CHMGD,11)", "SORDAT": "20200114", "SORIND": "US,US,reprt,1stCGD,LNM 02/20" }, "geometry": { "type": "Point", "coordinates": [ -71.3515017, 41.5055303 ] } },
{ "type": "Feature", "properties": { "RCID": 2550, "PRIM": 1, "GRUP": 2, "OBJL": 163, "RVER": 1, "AGEN": 550, "FIDN": 303524724, "FIDS": 2005, "LNAM": "022612176B7407D5", "CLSDEF": "A Virtual object used to mark an area or feature referred to in nautical documents", "CLSNAM": "Virtual AtoN, Special Purpose", "OBJNAM": "Newort-Pell Bridge VAIS NW, MMSI 993672564 (21)", "INFORM": "Virtual AtoN, Special Purpose; A Virtual object used to mark an area or feature referred to in nautical documents", "SCAMIN": 89999, "SYMINS": "SY(BRTHNO01);SY(BOYSPP11);TX('V-AIS',3,2,2,'15110',2,0,CHMGD,11)", "SORDAT": "20200114", "SORIND": "US,US,reprt,1stCGD,LNM 02/20" }, "geometry": { "type": "Point", "coordinates": [ -71.3513844, 41.5057397 ] } },
{ "type": "Feature", "properties": { "RCID": 2551, "PRIM": 1, "GRUP": 2, "OBJL": 163, "RVER": 1, "AGEN": 550, "FIDN": 591428048, "FIDS": 2005, "LNAM": "0226234079D007D5", "CLSDEF": "A Virtual object used to mark an area or feature referred to in nautical documents", "CLSNAM": "Virtual AtoN, Special Purpose", "OBJNAM": "Newort-Pell Bridge VAIS SE, MMSI 993672525 (21)", "INFORM": "Virtual AtoN, Special Purpose; A Virtual object used to mark an area or feature referred to in nautical documents", "SCAMIN": 89999, "SYMINS": "SY(BRTHNO01);SY(BOYSPP11);TX('V-AIS',3,2,2,'15110',2,0,CHMGD,11)", "SORDAT": "20200114", "SORIND": "US,US,reprt,1stCGD,LNM 02/20" }, "geometry": { "type": "Point", "coordinates": [ -71.3460025, 41.5042406 ] } },
{ "type": "Feature", "properties": { "RCID": 2552, "PRIM": 1, "GRUP": 2, "OBJL": 163, "RVER": 1, "AGEN": 550, "FIDN": 909191233, "FIDS": 2005, "LNAM": "02263631284107D5", "CLSDEF": "A Virtual object used to mark an area or feature referred to in nautical documents", "CLSNAM": "Virtual AtoN, Special Purpose", "OBJNAM": "Newort-Pell Bridge VAIS NE, MMSI 993672534 (21)", "INFORM": "Virtual AtoN, Special Purpose; A Virtual object used to mark an area or feature referred to in nautical documents", "SCAMIN": 89999, "SYMINS": "SY(BRTHNO01);SY(BOYSPP11);TX('V-AIS',3,2,2,'15110',2,0,CHMGD,11)", "SORDAT": "20200114", "SORIND": "US,US,reprt,1stCGD,LNM 02/20" }, "geometry": { "type": "Point", "coordinates": [ -71.3458903, 41.5044878 ] } }
]
}
