{
"type": "FeatureCollection",
"name": "PYLONS",
"crs": { "type": "name", "properties": { "name": "urn:ogc:def:crs:OGC:1.3:CRS84" } },
"features": [
{ "type": "Feature", "properties": { "RCID": 426, "PRIM": 3, "GRUP": 2, "OBJL": 98, "RVER": 1, "AGEN": 550, "FIDN": 132483821, "FIDS": 8691, "LNAM": "022607E58AED21F3", "CATPYL": 5, "SCAMIN": 29999, "SORDAT": "20140818", "SORIND": "US,US,graph,GC-11187" }, "geometry": { "type": "Polygon", "coordinates": [ [ [ -71.3558934, 41.5065405 ], [ -71.3558456, 41.5065051 ], [ -71.355791, 41.5065173 ], [ -71.3556185, 41.5065648 ], [ -71.3557313, 41.5066625 ], [ -71.3557758, 41.5066992 ], [ -71.3558421, 41.5066876 ], [ -71.3558934, 41.5065405 ] ] ] } },
{ "type": "Feature", "properties": { "RCID": 427, "PRIM": 3, "GRUP": 2, "OBJL": 98, "RVER": 1, "AGEN": 550, "FIDN": 691511956, "FIDS": 8691, "LNAM": "02262937A29421F3", "CATPYL": 5, "SCAMIN": 29999, "SORDAT": "20140818", "SORIND": "US,US,graph,GC-11187" }, "geometry": { "type": "Polygon", "coordinates": [ [ [ -71.3414222, 41.5034401 ], [ -71.3414802, 41.5032958 ], [ -71.3414885, 41.5032753 ], [ -71.3414969, 41.5032542 ], [ -71.3411027, 41.5031646 ], [ -71.3410855, 41.5032075 ], [ -71.3410278, 41.5033509 ], [ -71.341004, 41.5034102 ], [ -71.3413982, 41.5034998 ], [ -71.3414222, 41.5034401 ] ] ] } },
{ "type": "Feature", "properties": { "RCID": 428, "PRIM": 3, "GRUP": 2, "OBJL": 98, "RVER": 1, "AGEN": 550, "FIDN": 860439426, "FIDS": 8691, "LNAM": "02263349438221F3", "CATPYL": 5, "SCAMIN": 29999, "SORDAT": "20140818", "SORIND": "US,US,graph,GC-11187" }, "geometry": { "type": "Polygon", "coordinates": [ [ [ -71.3415785, 41.5034938 ], [ -71.3415716, 41.5034857 ], [ -71.3415669, 41.5034767 ], [ -71.3415659, 41.5034723 ], [ -71.3415647, 41.5034672 ], [ -71.341565, 41.5034576 ], [ -71.3415677, 41.5034481 ], [ -71.3415729, 41.5034393 ], [ -71.3415802, 41.5034314 ], [ -71.3415895, 41.5034247 ], [ -71.3416003, 41.5034196 ], [ -71.3416024, 41.5034188 ], [ -71.3415972, 41.5034135 ], [ -71.3415935, 41.5034076 ], [ -71.3415913, 41.5034013 ], [ -71.3415908, 41.5033962 ], [ -71.3415917, 41.5033897 ], [ -71.3415942, 41.5033834 ], [ -71.3415983, 41.5033777 ], [ -71.3416009, 41.503375 ], [ -71.3416012, 41.5033638 ], [ -71.3416043, 41.5033528 ], [ -71.3416103, 41.5033425 ], [ -71.3416188, 41.5033332 ], [ -71.3416261, 41.503328 ], [ -71.3416296, 41.5033254 ], [ -71.3416422, 41.5033193 ], [ -71.3416561, 41.5033152 ], [ -71.3416615, 41.5033142 ], [ -71.3416764, 41.503313 ], [ -71.3416914, 41.503314 ], [ -71.3417057, 41.5033171 ], [ -71.341719, 41.5033224 ], [ -71.3417306, 41.5033294 ], [ -71.3417402, 41.5033381 ], [ -71.3417467, 41.5033467 ], [ -71.3417554, 41.5033478 ], [ -71.3417636, 41.5033501 ], [ -71.3417711, 41.5033536 ], [ -71.3417776, 41.5033581 ], [ -71.3417817, 41.5033623 ], [ -71.341782, 41.5033626 ], [ -71.3417859, 41.5033686 ], [ -71.3417882, 41.503375 ], [ -71.3417888, 41.5033816 ], [ -71.3417877, 41.503388 ], [ -71.3418004, 41.5033916 ], [ -71.3418119, 41.503397 ], [ -71.3418218, 41.503404 ], [ -71.3418298, 41.5034124 ], [ -71.3418353, 41.5034217 ], [ -71.3418384, 41.5034317 ], [ -71.3418388, 41.5034419 ], [ -71.3418366, 41.503452 ], [ -71.3418331, 41.5034594 ], [ -71.3418264, 41.5034684 ], [ -71.3418175, 41.5034761 ], [ -71.3418068, 41.5034824 ], [ -71.3417946, 41.503487 ], [ -71.3417815, 41.5034898 ], [ -71.341768, 41.5034905 ], [ -71.3417545, 41.5034893 ], [ -71.3417415, 41.5034861 ], [ -71.3417316, 41.5034821 ], [ -71.34173, 41.5034862 ], [ -71.3417274, 41.5034901 ], [ -71.3417239, 41.5034935 ], [ -71.3417195, 41.5034963 ], [ -71.3417144, 41.5034985 ], [ -71.3417119, 41.5034992 ], [ -71.3417062, 41.5035002 ], [ -71.3417005, 41.5035003 ], [ -71.3416948, 41.5034996 ], [ -71.3416894, 41.503498 ], [ -71.3416845, 41.5034957 ], [ -71.3416815, 41.5034936 ], [ -71.3416769, 41.5034972 ], [ -71.3416726, 41.5035006 ], [ -71.3416621, 41.5035062 ], [ -71.3416504, 41.5035101 ], [ -71.3416379, 41.5035122 ], [ -71.3416251, 41.5035124 ], [ -71.3416125, 41.5035108 ], [ -71.3416005, 41.5035073 ], [ -71.3415897, 41.5035021 ], [ -71.3415804, 41.5034955 ], [ -71.3415785, 41.5034938 ] ] ] } },
{ "type": "Feature", "properties": { "RCID": 429, "PRIM": 3, "GRUP": 2, "OBJL": 98, "RVER": 1, "AGEN": 550, "FIDN": 402830694, "FIDS": 8691, "LNAM": "02261802B56621F3", "CATPYL": 5, "SCAMIN": 29999, "SORDAT": "20140818", "SORIND": "US,US,graph,GC-11187" }, "geometry": { "type": "Polygon", "coordinates": [ [ [ -71.3389422, 41.5028859 ], [ -71.3389459, 41.5028863 ], [ -71.3389518, 41.5028861 ], [ -71.3389576, 41.502885 ], [ -71.3389629, 41.5028831 ], [ -71.3389636, 41.5028827 ], [ -71.3389677, 41.5028805 ], [ -71.3389717, 41.5028772 ], [ -71.3389748, 41.5028734 ], [ -71.3389832, 41.5028511 ], [ -71.3390009, 41.5027865 ], [ -71.3390064, 41.5027663 ], [ -71.3390065, 41.5027637 ], [ -71.3390059, 41.5027595 ], [ -71.3390042, 41.5027554 ], [ -71.3390014, 41.5027516 ], [ -71.3389977, 41.5027484 ], [ -71.3389933, 41.5027457 ], [ -71.3389882, 41.5027437 ], [ -71.3389851, 41.502743 ], [ -71.3389795, 41.5027423 ], [ -71.3389738, 41.5027424 ], [ -71.3389682, 41.5027434 ], [ -71.338963, 41.5027451 ], [ -71.3389584, 41.5027476 ], [ -71.3389545, 41.5027507 ], [ -71.3389514, 41.5027543 ], [ -71.3389369, 41.5028016 ], [ -71.3389173, 41.5028654 ], [ -71.3389179, 41.5028684 ], [ -71.3389198, 41.5028726 ], [ -71.3389199, 41.5028728 ], [ -71.3389226, 41.5028765 ], [ -71.3389265, 41.5028799 ], [ -71.3389312, 41.5028827 ], [ -71.3389364, 41.5028847 ], [ -71.3389422, 41.5028859 ] ] ] } },
{ "type": "Feature", "properties": { "RCID": 430, "PRIM": 3, "GRUP": 2, "OBJL": 98, "RVER": 1, "AGEN": 550, "FIDN": 823878420, "FIDS": 8691, "LNAM": "0226311B631421F3", "CATPYL": 5, "SCAMIN": 29999, "SORDAT": "20140818", "SORIND": "US,US,graph,GC-11187" }, "geometry": { "type": "Polygon", "coordinates": [ [ [ -71.3366042, 41.5022079 ], [ -71.3365987, 41.5022088 ], [ -71.3365935, 41.5022106 ], [ -71.3365889, 41.5022131 ], [ -71.336585, 41.5022162 ], [ -71.3365819, 41.5022198 ], [ -71.3365478, 41.5023309 ], [ -71.3365484, 41.5023338 ], [ -71.3365502, 41.5023381 ], [ -71.3365531, 41.502342 ], [ -71.3365543, 41.502343 ], [ -71.336557, 41.5023454 ], [ -71.3365616, 41.5023482 ], [ -71.3365669, 41.5023502 ], [ -71.3365726, 41.5023514 ], [ -71.3365763, 41.5023517 ], [ -71.3365823, 41.5023515 ], [ -71.3365879, 41.5023505 ], [ -71.336588, 41.5023505 ], [ -71.3365934, 41.5023486 ], [ -71.3365982, 41.502346 ], [ -71.3366022, 41.5023427 ], [ -71.3366053, 41.5023388 ], [ -71.3366137, 41.5023166 ], [ -71.3366369, 41.5022318 ], [ -71.336637, 41.5022292 ], [ -71.3366364, 41.5022249 ], [ -71.3366346, 41.5022209 ], [ -71.3366319, 41.5022171 ], [ -71.3366282, 41.5022138 ], [ -71.3366237, 41.5022112 ], [ -71.3366187, 41.5022092 ], [ -71.3366156, 41.5022084 ], [ -71.3366099, 41.5022077 ], [ -71.3366042, 41.5022079 ] ] ] } },
{ "type": "Feature", "properties": { "RCID": 431, "PRIM": 3, "GRUP": 2, "OBJL": 98, "RVER": 1, "AGEN": 550, "FIDN": 73798936, "FIDS": 8691, "LNAM": "02260466151821F3", "CATPYL": 5, "SCAMIN": 29999, "SORDAT": "20140818", "SORIND": "US,US,graph,GC-11187" }, "geometry": { "type": "Polygon", "coordinates": [ [ [ -71.3400325, 41.503129 ], [ -71.3400362, 41.5031294 ], [ -71.3400421, 41.5031292 ], [ -71.3400465, 41.5031284 ], [ -71.3400479, 41.5031281 ], [ -71.3400532, 41.5031262 ], [ -71.340058, 41.5031236 ], [ -71.3400621, 41.5031203 ], [ -71.3400651, 41.5031165 ], [ -71.3400735, 41.5030942 ], [ -71.3400967, 41.5030094 ], [ -71.3400969, 41.5030068 ], [ -71.3400962, 41.5030026 ], [ -71.3400945, 41.5029985 ], [ -71.3400917, 41.5029948 ], [ -71.3400896, 41.5029929 ], [ -71.340088, 41.5029915 ], [ -71.3400836, 41.5029888 ], [ -71.3400785, 41.5029869 ], [ -71.3400754, 41.5029861 ], [ -71.3400698, 41.5029854 ], [ -71.3400641, 41.5029855 ], [ -71.3400585, 41.5029865 ], [ -71.3400533, 41.5029882 ], [ -71.3400487, 41.5029907 ], [ -71.3400476, 41.5029916 ], [ -71.3400448, 41.5029938 ], [ -71.3400418, 41.5029975 ], [ -71.3400076, 41.5031085 ], [ -71.3400082, 41.5031115 ], [ -71.3400101, 41.5031157 ], [ -71.340013, 41.5031196 ], [ -71.3400147, 41.5031212 ], [ -71.3400168, 41.503123 ], [ -71.3400215, 41.5031258 ], [ -71.3400268, 41.5031278 ], [ -71.3400325, 41.503129 ] ] ] } },
{ "type": "Feature", "properties": { "RCID": 432, "PRIM": 3, "GRUP": 2, "OBJL": 98, "RVER": 1, "AGEN": 550, "FIDN": 868586477, "FIDS": 8691, "LNAM": "022633C593ED21F3", "CATPYL": 5, "SCAMIN": 29999, "SORDAT": "20140818", "SORIND": "US,US,graph,GC-11187" }, "geometry": { "type": "Polygon", "coordinates": [ [ [ -71.3376621, 41.5025959 ], [ -71.3376658, 41.5025962 ], [ -71.3376717, 41.502596 ], [ -71.3376775, 41.502595 ], [ -71.3376784, 41.5025946 ], [ -71.3376829, 41.5025931 ], [ -71.3376876, 41.5025904 ], [ -71.3376917, 41.5025872 ], [ -71.3376947, 41.5025833 ], [ -71.3377031, 41.5025611 ], [ -71.3377263, 41.5024763 ], [ -71.3377265, 41.5024737 ], [ -71.3377258, 41.5024694 ], [ -71.3377241, 41.5024654 ], [ -71.3377213, 41.5024616 ], [ -71.3377176, 41.5024583 ], [ -71.3377132, 41.5024557 ], [ -71.3377081, 41.5024537 ], [ -71.337705, 41.5024529 ], [ -71.3376994, 41.5024522 ], [ -71.3376937, 41.5024524 ], [ -71.3376881, 41.5024533 ], [ -71.3376829, 41.5024551 ], [ -71.3376783, 41.5024576 ], [ -71.3376744, 41.5024607 ], [ -71.3376714, 41.5024643 ], [ -71.3376372, 41.5025754 ], [ -71.3376378, 41.5025783 ], [ -71.3376397, 41.5025826 ], [ -71.3376426, 41.5025865 ], [ -71.3376428, 41.5025867 ], [ -71.3376464, 41.5025899 ], [ -71.3376511, 41.5025926 ], [ -71.3376564, 41.5025947 ], [ -71.3376621, 41.5025959 ] ] ] } },
{ "type": "Feature", "properties": { "RCID": 433, "PRIM": 3, "GRUP": 2, "OBJL": 98, "RVER": 1, "AGEN": 550, "FIDN": 409150716, "FIDS": 8691, "LNAM": "0226186324FC21F3", "CATPYL": 5, "SCAMIN": 29999, "SORDAT": "20140818", "SORIND": "US,US,graph,GC-11187" }, "geometry": { "type": "Polygon", "coordinates": [ [ [ -71.3349104, 41.5019746 ], [ -71.3349141, 41.5019749 ], [ -71.33492, 41.5019747 ], [ -71.3349242, 41.501974 ], [ -71.3349258, 41.5019737 ], [ -71.3349312, 41.5019718 ], [ -71.3349359, 41.5019691 ], [ -71.33494, 41.5019659 ], [ -71.334943, 41.501962 ], [ -71.3349514, 41.5019398 ], [ -71.3349746, 41.501855 ], [ -71.3349748, 41.5018524 ], [ -71.3349741, 41.5018481 ], [ -71.3349724, 41.501844 ], [ -71.3349696, 41.5018403 ], [ -71.334966, 41.501837 ], [ -71.3349615, 41.5018344 ], [ -71.3349564, 41.5018324 ], [ -71.3349533, 41.5018316 ], [ -71.3349477, 41.5018309 ], [ -71.334942, 41.501831 ], [ -71.3349364, 41.501832 ], [ -71.3349312, 41.5018338 ], [ -71.3349266, 41.5018362 ], [ -71.3349227, 41.5018394 ], [ -71.3349197, 41.501843 ], [ -71.3348856, 41.5019541 ], [ -71.3348861, 41.501957 ], [ -71.334888, 41.5019613 ], [ -71.3348909, 41.5019652 ], [ -71.3348928, 41.5019668 ], [ -71.3348947, 41.5019686 ], [ -71.3348994, 41.5019713 ], [ -71.3349047, 41.5019734 ], [ -71.3349104, 41.5019746 ] ] ] } },
{ "type": "Feature", "properties": { "RCID": 434, "PRIM": 3, "GRUP": 2, "OBJL": 98, "RVER": 1, "AGEN": 550, "FIDN": 863507929, "FIDS": 8691, "LNAM": "0226337815D921F3", "CATPYL": 4, "SCAMIN": 29999, "SORDAT": "20140818", "SORIND": "US,US,graph,GC-11187" }, "geometry": { "type": "Polygon", "coordinates": [ [ [ -71.3559981, 41.5066964 ], [ -71.355991, 41.5067141 ], [ -71.3559883, 41.5067207 ], [ -71.355968, 41.5067714 ], [ -71.3559647, 41.5067794 ], [ -71.3559858, 41.5067841 ], [ -71.3561144, 41.5068133 ], [ -71.356359, 41.5068689 ], [ -71.356382, 41.5068097 ], [ -71.356386, 41.5067993 ], [ -71.356432, 41.5066808 ], [ -71.3564387, 41.5066638 ], [ -71.3564597, 41.5066096 ], [ -71.3563647, 41.5065873 ], [ -71.3560793, 41.5065203 ], [ -71.3560697, 41.5065181 ], [ -71.3560468, 41.5065752 ], [ -71.356042, 41.5065872 ], [ -71.3559981, 41.5066964 ] ] ] } },
{ "type": "Feature", "properties": { "RCID": 435, "PRIM": 3, "GRUP": 2, "OBJL": 98, "RVER": 1, "AGEN": 550, "FIDN": 857860579, "FIDS": 8691, "LNAM": "02263321E9E321F3", "CATPYL": 5, "SCAMIN": 29999, "SORDAT": "20140818", "SORIND": "US,US,graph,GC-11187" }, "geometry": { "type": "Polygon", "coordinates": [ [ [ -71.3357752, 41.5020209 ], [ -71.3357697, 41.5020219 ], [ -71.3357645, 41.5020236 ], [ -71.3357598, 41.5020261 ], [ -71.3357559, 41.5020293 ], [ -71.3357529, 41.5020329 ], [ -71.3357188, 41.5021439 ], [ -71.3357194, 41.5021469 ], [ -71.3357212, 41.5021512 ], [ -71.3357241, 41.5021551 ], [ -71.3357242, 41.5021551 ], [ -71.3357279, 41.5021585 ], [ -71.3357326, 41.5021612 ], [ -71.3357379, 41.5021633 ], [ -71.3357436, 41.5021645 ], [ -71.3357473, 41.5021648 ], [ -71.3357532, 41.5021646 ], [ -71.335759, 41.5021635 ], [ -71.3357599, 41.5021632 ], [ -71.3357644, 41.5021617 ], [ -71.3357692, 41.502159 ], [ -71.3357732, 41.5021557 ], [ -71.3357763, 41.5021519 ], [ -71.3357846, 41.5021296 ], [ -71.3358078, 41.5020449 ], [ -71.335808, 41.5020423 ], [ -71.3358073, 41.502038 ], [ -71.3358056, 41.5020339 ], [ -71.3358028, 41.5020302 ], [ -71.3357992, 41.5020269 ], [ -71.3357947, 41.5020242 ], [ -71.3357896, 41.5020223 ], [ -71.3357865, 41.5020215 ], [ -71.3357809, 41.5020208 ], [ -71.3357752, 41.5020209 ] ] ] } },
{ "type": "Feature", "properties": { "RCID": 520, "PRIM": 1, "GRUP": 2, "OBJL": 98, "RVER": 1, "AGEN": 550, "FIDN": 489223171, "FIDS": 7303, "LNAM": "02261D28F4031C87", "CATPYL": 4, "SORDAT": "20160323", "SORIND": "US,US,reprt,L-197-2016" }, "geometry": { "type": "Point", "coordinates": [ -71.3515351, 41.5056424 ] } },
{ "type": "Feature", "properties": { "RCID": 521, "PRIM": 1, "GRUP": 2, "OBJL": 98, "RVER": 1, "AGEN": 550, "FIDN": 631682850, "FIDS": 7303, "LNAM": "022625A6B7221C87", "CATPYL": 4, "SORDAT": "20160323", "SORIND": "US,US,reprt,L-197-2016" }, "geometry": { "type": "Point", "coordinates": [ -71.3459358, 41.5043828 ] } }
]
}
