{
"type": "FeatureCollection",
"name": "SBDARE",
"crs": { "type": "name", "properties": { "name": "urn:ogc:def:crs:OGC:1.3:CRS84" } },
"features": [
{ "type": "Feature", "properties": { "RCID": 2405, "PRIM": 3, "GRUP": 2, "OBJL": 121, "RVER": 1, "AGEN": 550, "FIDN": 19262309, "FIDS": 8691, "LNAM": "02260125EB6521F3", "NATSUR": [ "9" ], "WATLEV": 4, "SCAMIN": 29999, "SORDAT": "20140818", "SORIND": "US,US,graph,GC-11187" }, "geometry": { "type": "Polygon", "coordinates": [ [ [ -71.3410305, 41.4952892 ], [ -71.3408108, 41.4951459 ], [ -71.34059, 41.4952599 ], [ -71.3398429, 41.4952889 ], [ -71.3397267, 41.494984 ], [ -71.3400154, 41.4949218 ], [ -71.3401456, 41.494719 ], [ -71.3403542, 41.4946636 ], [ -71.3408797, 41.4949769 ], [ -71.3410305, 41.4952892 ] ] ] } },
{ "type": "Feature", "properties": { "RCID": 2406, "PRIM": 3, "GRUP": 2, "OBJL": 121, "RVER": 1, "AGEN": 550, "FIDN": 114617236, "FIDS": 8691, "LNAM": "022606D4EB9421F3", "NATSUR": [ "9" ], "WATLEV": 4, "SCAMIN": 29999, "SORDAT": "20140818", "SORIND": "US,US,graph,GC-11187" }, "geometry": { "type": "Polygon", "coordinates": [ [ [ -71.3258432, 41.502884 ], [ -71.3258404, 41.5028733 ], [ -71.3258286, 41.5028501 ], [ -71.3258176, 41.5028286 ], [ -71.3258093, 41.5027917 ], [ -71.3257872, 41.5027683 ], [ -71.3257539, 41.5027239 ], [ -71.3257243, 41.5026847 ], [ -71.3256984, 41.5026507 ], [ -71.3256836, 41.5026402 ], [ -71.3256658, 41.5026275 ], [ -71.3256371, 41.5026149 ], [ -71.3256154, 41.5025994 ], [ -71.3256061, 41.5025996 ], [ -71.3255802, 41.5026001 ], [ -71.3255622, 41.5026283 ], [ -71.3255658, 41.5026402 ], [ -71.3255666, 41.5026429 ], [ -71.3255715, 41.5027056 ], [ -71.3255816, 41.5027409 ], [ -71.3256132, 41.5027938 ], [ -71.3256337, 41.5028138 ], [ -71.3256356, 41.5028178 ], [ -71.325646, 41.5028393 ], [ -71.3256489, 41.5028453 ], [ -71.3256649, 41.502898 ], [ -71.3256699, 41.5029404 ], [ -71.3256678, 41.5029775 ], [ -71.3256726, 41.5029907 ], [ -71.3256756, 41.5029986 ], [ -71.3257215, 41.5030003 ], [ -71.3257487, 41.5029907 ], [ -71.3257772, 41.5029806 ], [ -71.325826, 41.5029637 ], [ -71.3258502, 41.50295 ], [ -71.3258527, 41.5029208 ], [ -71.3258492, 41.5029072 ], [ -71.3258432, 41.502884 ] ] ] } },
{ "type": "Feature", "properties": { "RCID": 2407, "PRIM": 3, "GRUP": 2, "OBJL": 121, "RVER": 1, "AGEN": 550, "FIDN": 957251750, "FIDS": 8691, "LNAM": "0226390E80A621F3", "NATSUR": [ "9" ], "WATLEV": 4, "SCAMIN": 29999, "SORDAT": "20050620", "SORIND": "US,US,graph,GC-10585" }, "geometry": { "type": "Polygon", "coordinates": [ [ [ -71.3270228, 41.5216846 ], [ -71.3269723, 41.5217251 ], [ -71.326798, 41.5218871 ], [ -71.3266401, 41.5219766 ], [ -71.326565, 41.5220211 ], [ -71.3264316, 41.5220857 ], [ -71.3263799, 41.5221172 ], [ -71.3263159, 41.52214 ], [ -71.3263377, 41.5222106 ], [ -71.3263532, 41.5222548 ], [ -71.3263492, 41.5222766 ], [ -71.3266247, 41.5222895 ], [ -71.3267255, 41.5222946 ], [ -71.3269279, 41.5222754 ], [ -71.3269745, 41.522271 ], [ -71.3270166, 41.5222496 ], [ -71.3270606, 41.5221746 ], [ -71.3271055, 41.5220451 ], [ -71.3271663, 41.5218682 ], [ -71.3272309, 41.5217782 ], [ -71.3272008, 41.5217449 ], [ -71.3271124, 41.5217 ], [ -71.3270228, 41.5216846 ] ] ] } },
{ "type": "Feature", "properties": { "RCID": 2408, "PRIM": 3, "GRUP": 2, "OBJL": 121, "RVER": 1, "AGEN": 550, "FIDN": 644335933, "FIDS": 8691, "LNAM": "02262667C93D21F3", "NATSUR": [ "9" ], "WATLEV": 4, "SCAMIN": 29999, "SORDAT": "20140818", "SORIND": "US,US,graph,GC-11187" }, "geometry": { "type": "Polygon", "coordinates": [ [ [ -71.3585043, 41.5096912 ], [ -71.3582179, 41.5092294 ], [ -71.3581084, 41.5093843 ], [ -71.3583053, 41.5097951 ], [ -71.3583538, 41.5100315 ], [ -71.3585386, 41.5101592 ], [ -71.3591854, 41.5103563 ], [ -71.3590594, 41.5101661 ], [ -71.3586183, 41.5098749 ], [ -71.3585043, 41.5096912 ] ] ] } },
{ "type": "Feature", "properties": { "RCID": 2409, "PRIM": 3, "GRUP": 2, "OBJL": 121, "RVER": 1, "AGEN": 550, "FIDN": 424729187, "FIDS": 8691, "LNAM": "02261950DA6321F3", "NATSUR": [ "9" ], "WATLEV": 4, "SCAMIN": 29999, "SORDAT": "20140818", "SORIND": "US,US,graph,GC-11187" }, "geometry": { "type": "Polygon", "coordinates": [ [ [ -71.3392423, 41.4961566 ], [ -71.3392201, 41.4959497 ], [ -71.3389693, 41.4962402 ], [ -71.339163, 41.496442 ], [ -71.3392276, 41.4966485 ], [ -71.3394531, 41.4966653 ], [ -71.3396854, 41.4967954 ], [ -71.3398957, 41.4967112 ], [ -71.3398073, 41.4966732 ], [ -71.3393915, 41.4963678 ], [ -71.3392423, 41.4961566 ] ] ] } },
{ "type": "Feature", "properties": { "RCID": 2410, "PRIM": 3, "GRUP": 2, "OBJL": 121, "RVER": 1, "AGEN": 550, "FIDN": 444555643, "FIDS": 8691, "LNAM": "02261A7F617B21F3", "NATSUR": [ "9" ], "WATLEV": 4, "SCAMIN": 29999, "SORDAT": "20140818", "SORIND": "US,US,graph,GC-11187" }, "geometry": { "type": "Polygon", "coordinates": [ [ [ -71.377451, 41.4766013 ], [ -71.3774605, 41.4766394 ], [ -71.3774783, 41.476691 ], [ -71.377481, 41.4766986 ], [ -71.3775051, 41.4767677 ], [ -71.3775206, 41.4768598 ], [ -71.3775226, 41.4769034 ], [ -71.37753, 41.4769148 ], [ -71.3775536, 41.4769193 ], [ -71.3775661, 41.4769108 ], [ -71.3776056, 41.4768612 ], [ -71.3776174, 41.4767752 ], [ -71.3776283, 41.4766952 ], [ -71.3776532, 41.476661 ], [ -71.3776669, 41.4766271 ], [ -71.377673, 41.4765905 ], [ -71.3776759, 41.476568 ], [ -71.3776749, 41.47654 ], [ -71.3776667, 41.4765205 ], [ -71.3776471, 41.4764957 ], [ -71.3776243, 41.4764821 ], [ -71.3775831, 41.4764774 ], [ -71.3775577, 41.4764975 ], [ -71.3774691, 41.476564 ], [ -71.3774637, 41.4765681 ], [ -71.377451, 41.4766013 ] ] ] } },
{ "type": "Feature", "properties": { "RCID": 2411, "PRIM": 3, "GRUP": 2, "OBJL": 121, "RVER": 1, "AGEN": 550, "FIDN": 83173058, "FIDS": 8691, "LNAM": "022604F51EC221F3", "NATSUR": [ "9" ], "WATLEV": 4, "SCAMIN": 29999, "SORDAT": "20140818", "SORIND": "US,US,graph,GC-11187" }, "geometry": { "type": "Polygon", "coordinates": [ [ [ -71.3413445, 41.4984688 ], [ -71.3412452, 41.4985519 ], [ -71.3411444, 41.4985986 ], [ -71.3409733, 41.4985519 ], [ -71.3407353, 41.4984573 ], [ -71.3407487, 41.4983839 ], [ -71.3408546, 41.4982822 ], [ -71.3409643, 41.4981821 ], [ -71.3409978, 41.4980948 ], [ -71.3407605, 41.4981574 ], [ -71.3405148, 41.498383 ], [ -71.3404695, 41.4985149 ], [ -71.3405501, 41.4986163 ], [ -71.3411079, 41.4988293 ], [ -71.3412173, 41.4989786 ], [ -71.3411925, 41.499299 ], [ -71.3410632, 41.4993827 ], [ -71.3410517, 41.4993746 ], [ -71.3410499, 41.4993724 ], [ -71.3410398, 41.4993598 ], [ -71.3410032, 41.4992995 ], [ -71.3409837, 41.49928 ], [ -71.3409735, 41.499277 ], [ -71.3409654, 41.4992787 ], [ -71.3409552, 41.4992856 ], [ -71.3409466, 41.4992955 ], [ -71.3409317, 41.4993287 ], [ -71.3409229, 41.4993724 ], [ -71.3409215, 41.4993793 ], [ -71.3409114, 41.4995429 ], [ -71.3409092, 41.4996387 ], [ -71.340903, 41.4996758 ], [ -71.3408919, 41.4997078 ], [ -71.3408715, 41.4997426 ], [ -71.3408373, 41.4997846 ], [ -71.340803, 41.4998185 ], [ -71.3407244, 41.499888 ], [ -71.3407203, 41.4998917 ], [ -71.3407012, 41.4999086 ], [ -71.3406574, 41.4999545 ], [ -71.3406215, 41.499998 ], [ -71.3405958, 41.5000358 ], [ -71.3405801, 41.5000684 ], [ -71.3405799, 41.5000692 ], [ -71.3405722, 41.5001009 ], [ -71.3405722, 41.5001012 ], [ -71.3409184, 41.5006623 ], [ -71.3412187, 41.5004832 ], [ -71.3414158, 41.4999893 ], [ -71.3417171, 41.4996251 ], [ -71.3416704, 41.4994283 ], [ -71.3417375, 41.4991557 ], [ -71.3414994, 41.498826 ], [ -71.3414567, 41.4986395 ], [ -71.3414598, 41.4986292 ], [ -71.3414884, 41.4985834 ], [ -71.3415249, 41.4985249 ], [ -71.3415098, 41.4984612 ], [ -71.3415042, 41.4984378 ], [ -71.3415006, 41.4984226 ], [ -71.3414903, 41.4983793 ], [ -71.3414592, 41.4982482 ], [ -71.3413445, 41.4984688 ] ] ] } },
{ "type": "Feature", "properties": { "RCID": 2412, "PRIM": 3, "GRUP": 2, "OBJL": 121, "RVER": 1, "AGEN": 550, "FIDN": 712879929, "FIDS": 8691, "LNAM": "02262A7DAF3921F3", "NATSUR": [ "9" ], "WATLEV": 4, "SCAMIN": 29999, "SORDAT": "20140818", "SORIND": "US,US,graph,GC-11187" }, "geometry": { "type": "Polygon", "coordinates": [ [ [ -71.3604288, 41.5027908 ], [ -71.3601143, 41.502956 ], [ -71.3598829, 41.5031432 ], [ -71.3594928, 41.5035891 ], [ -71.3594321, 41.5037874 ], [ -71.3594295, 41.5037836 ], [ -71.3593171, 41.5036195 ], [ -71.359317, 41.5035418 ], [ -71.3593169, 41.5035179 ], [ -71.3593253, 41.5034536 ], [ -71.3593543, 41.5033852 ], [ -71.3593612, 41.5033857 ], [ -71.3593692, 41.5033829 ], [ -71.3593823, 41.5033719 ], [ -71.3594117, 41.503317 ], [ -71.3594578, 41.5032681 ], [ -71.3594745, 41.5032468 ], [ -71.3595069, 41.5031813 ], [ -71.3595295, 41.5031476 ], [ -71.3595444, 41.5031139 ], [ -71.3595678, 41.5030773 ], [ -71.3595943, 41.5030024 ], [ -71.3596137, 41.5029921 ], [ -71.3596395, 41.5029777 ], [ -71.3596453, 41.5029739 ], [ -71.3597908, 41.5028797 ], [ -71.359892, 41.5028289 ], [ -71.3599427, 41.5028005 ], [ -71.35997, 41.5027883 ], [ -71.360007, 41.5027757 ], [ -71.36005, 41.5027644 ], [ -71.3601568, 41.5027433 ], [ -71.3602348, 41.5027255 ], [ -71.3604288, 41.5027908 ] ] ] } },
{ "type": "Feature", "properties": { "RCID": 2413, "PRIM": 3, "GRUP": 2, "OBJL": 121, "RVER": 1, "AGEN": 550, "FIDN": 265935353, "FIDS": 8691, "LNAM": "02260FD9D9F921F3", "NATSUR": [ "9" ], "WATLEV": 4, "SCAMIN": 29999, "SORDAT": "20140818", "SORIND": "US,US,graph,GC-11187" }, "geometry": { "type": "Polygon", "coordinates": [ [ [ -71.3693873, 41.4776056 ], [ -71.3693107, 41.4774474 ], [ -71.3695273, 41.4775579 ], [ -71.3695146, 41.4776198 ], [ -71.3693873, 41.4776056 ] ] ] } },
{ "type": "Feature", "properties": { "RCID": 2414, "PRIM": 3, "GRUP": 2, "OBJL": 121, "RVER": 1, "AGEN": 550, "FIDN": 95641326, "FIDS": 8691, "LNAM": "022605B35EEE21F3", "NATSUR": [ "9" ], "WATLEV": 4, "SCAMIN": 29999, "SORDAT": "20140818", "SORIND": "US,US,graph,GC-11187" }, "geometry": { "type": "Polygon", "coordinates": [ [ [ -71.3797739, 41.4865862 ], [ -71.3797714, 41.4865842 ], [ -71.3797596, 41.4865824 ], [ -71.3796819, 41.4865923 ], [ -71.3796516, 41.4865926 ], [ -71.3796242, 41.4865871 ], [ -71.3796116, 41.4865803 ], [ -71.3796025, 41.4865754 ], [ -71.3795952, 41.4865668 ], [ -71.3795888, 41.4865593 ], [ -71.37958, 41.486534 ], [ -71.3795796, 41.4865328 ], [ -71.3795753, 41.4865205 ], [ -71.3795548, 41.486493 ], [ -71.3795473, 41.4864768 ], [ -71.3795445, 41.4864642 ], [ -71.3795427, 41.486456 ], [ -71.3795431, 41.4864536 ], [ -71.3795502, 41.4864141 ], [ -71.3795478, 41.48639 ], [ -71.3795379, 41.4863663 ], [ -71.3795298, 41.4863469 ], [ -71.3794992, 41.4863006 ], [ -71.3794656, 41.4862707 ], [ -71.3794519, 41.4862626 ], [ -71.379417, 41.486242 ], [ -71.3794105, 41.4862404 ], [ -71.3794045, 41.486239 ], [ -71.379395, 41.4862367 ], [ -71.3793575, 41.4862378 ], [ -71.3793431, 41.4862363 ], [ -71.379322, 41.4862294 ], [ -71.3792965, 41.4862162 ], [ -71.3792686, 41.4862139 ], [ -71.3792082, 41.4862089 ], [ -71.3791687, 41.4862057 ], [ -71.3793266, 41.4864658 ], [ -71.3794303, 41.4866364 ], [ -71.3794529, 41.4866737 ], [ -71.3795153, 41.4867765 ], [ -71.3795418, 41.4868201 ], [ -71.3795811, 41.4868847 ], [ -71.3796225, 41.4869529 ], [ -71.3797053, 41.4870311 ], [ -71.3797326, 41.4870568 ], [ -71.3798653, 41.487182 ], [ -71.3798983, 41.4872131 ], [ -71.3801589, 41.487459 ], [ -71.3801887, 41.4876315 ], [ -71.3801891, 41.4876338 ], [ -71.3805383, 41.4880818 ], [ -71.3806283, 41.4881974 ], [ -71.3807316, 41.4880869 ], [ -71.3807596, 41.4879655 ], [ -71.3805078, 41.4877837 ], [ -71.3804941, 41.4876214 ], [ -71.3803736, 41.487536 ], [ -71.3803996, 41.4873671 ], [ -71.3797356, 41.4869496 ], [ -71.3796846, 41.486768 ], [ -71.3797739, 41.4865862 ] ] ] } },
{ "type": "Feature", "properties": { "RCID": 2415, "PRIM": 3, "GRUP": 2, "OBJL": 121, "RVER": 1, "AGEN": 550, "FIDN": 35962807, "FIDS": 8691, "LNAM": "02260224BFB721F3", "NATSUR": [ "9" ], "WATLEV": 4, "SCAMIN": 29999, "SORDAT": "20140818", "SORIND": "US,US,graph,GC-11187" }, "geometry": { "type": "Polygon", "coordinates": [ [ [ -71.3532944, 41.4822324 ], [ -71.3529234, 41.4821328 ], [ -71.3528949, 41.4822693 ], [ -71.3527261, 41.4823257 ], [ -71.3526721, 41.4823848 ], [ -71.352596, 41.4824681 ], [ -71.3525346, 41.4825352 ], [ -71.3525732, 41.4827653 ], [ -71.3527194, 41.4827547 ], [ -71.3530006, 41.4825779 ], [ -71.3530702, 41.4823624 ], [ -71.3530918, 41.4822955 ], [ -71.3532944, 41.4822324 ] ] ] } },
{ "type": "Feature", "properties": { "RCID": 2416, "PRIM": 1, "GRUP": 2, "OBJL": 121, "RVER": 1, "AGEN": 550, "FIDN": 39777199, "FIDS": 7303, "LNAM": "0226025EF3AF1C87", "NATSUR": [ "4", "17" ], "SCAMIN": 29999, "SORDAT": "20040729", "SORIND": "US,US,graph,H-11310" }, "geometry": { "type": "Point", "coordinates": [ -71.3972916, 41.5351874 ] } },
{ "type": "Feature", "properties": { "RCID": 2417, "PRIM": 1, "GRUP": 2, "OBJL": 121, "RVER": 1, "AGEN": 550, "FIDN": 975838408, "FIDS": 7303, "LNAM": "02263A2A1CC81C87", "NATSUR": [ "9" ], "SCAMIN": 29999, "SORDAT": "200504", "SORIND": "US,US,graph,Chart 13223" }, "geometry": { "type": "Point", "coordinates": [ -71.3389636, 41.4910018 ] } },
{ "type": "Feature", "properties": { "RCID": 2418, "PRIM": 1, "GRUP": 2, "OBJL": 121, "RVER": 1, "AGEN": 550, "FIDN": 806477974, "FIDS": 7303, "LNAM": "02263011E0961C87", "NATSUR": [ "9" ], "SCAMIN": 29999, "SORDAT": "201306", "SORIND": "US,US,graph,Chart 13223" }, "geometry": { "type": "Point", "coordinates": [ -71.3391639, 41.5014705 ] } },
{ "type": "Feature", "properties": { "RCID": 2419, "PRIM": 1, "GRUP": 2, "OBJL": 121, "RVER": 1, "AGEN": 550, "FIDN": 460191763, "FIDS": 7303, "LNAM": "02261B6DF8131C87", "NATQUA": [ "5" ], "SCAMIN": 29999, "SORDAT": "200504", "SORIND": "US,US,graph,Chart 13223" }, "geometry": { "type": "Point", "coordinates": [ -71.3405187, 41.5422679 ] } },
{ "type": "Feature", "properties": { "RCID": 2420, "PRIM": 1, "GRUP": 2, "OBJL": 121, "RVER": 1, "AGEN": 550, "FIDN": 597730592, "FIDS": 7303, "LNAM": "022623A0A5201C87", "NATSUR": [ "1" ], "SCAMIN": 29999, "SORDAT": "200504", "SORIND": "US,US,graph,Chart 13223" }, "geometry": { "type": "Point", "coordinates": [ -71.3408859, 41.5300757 ] } },
{ "type": "Feature", "properties": { "RCID": 2421, "PRIM": 1, "GRUP": 2, "OBJL": 121, "RVER": 1, "AGEN": 550, "FIDN": 789054254, "FIDS": 7303, "LNAM": "02262F08032E1C87", "NATSUR": [ "1", "7" ], "SCAMIN": 29999, "SORDAT": "200504", "SORIND": "US,US,graph,chart 13223" }, "geometry": { "type": "Point", "coordinates": [ -71.3470944, 41.5203945 ] } },
{ "type": "Feature", "properties": { "RCID": 2422, "PRIM": 1, "GRUP": 2, "OBJL": 121, "RVER": 1, "AGEN": 550, "FIDN": 210537526, "FIDS": 7303, "LNAM": "02260C8C8C361C87", "NATQUA": [ "10" ], "SCAMIN": 29999, "SORDAT": "200504", "SORIND": "US,US,graph,Chart 13223" }, "geometry": { "type": "Point", "coordinates": [ -71.3557308, 41.4838775 ] } },
{ "type": "Feature", "properties": { "RCID": 2423, "PRIM": 1, "GRUP": 2, "OBJL": 121, "RVER": 1, "AGEN": 550, "FIDN": 847243925, "FIDS": 7303, "LNAM": "0226327FEA951C87", "NATSUR": [ "9" ], "SCAMIN": 29999, "SORDAT": "201306", "SORIND": "US,US,graph,Chart 13223" }, "geometry": { "type": "Point", "coordinates": [ -71.3801892, 41.4818939 ] } },
{ "type": "Feature", "properties": { "RCID": 2424, "PRIM": 1, "GRUP": 2, "OBJL": 121, "RVER": 1, "AGEN": 550, "FIDN": 621312992, "FIDS": 7303, "LNAM": "022625087BE01C87", "NATQUA": [ "10" ], "SCAMIN": 29999, "SORDAT": "200504", "SORIND": "US,US,graph,Chart 13223" }, "geometry": { "type": "Point", "coordinates": [ -71.3823802, 41.4875615 ] } },
{ "type": "Feature", "properties": { "RCID": 2425, "PRIM": 1, "GRUP": 2, "OBJL": 121, "RVER": 1, "AGEN": 550, "FIDN": 900761665, "FIDS": 7303, "LNAM": "022635B088411C87", "NATSUR": [ "1" ], "SCAMIN": 29999, "SORDAT": "200504", "SORIND": "US,US,graph,Chart 13223" }, "geometry": { "type": "Point", "coordinates": [ -71.3882545, 41.5010138 ] } },
{ "type": "Feature", "properties": { "RCID": 2426, "PRIM": 1, "GRUP": 2, "OBJL": 121, "RVER": 1, "AGEN": 550, "FIDN": 733829047, "FIDS": 7303, "LNAM": "02262BBD57B71C87", "NATSUR": [ "1", "17" ], "SCAMIN": 29999, "SORDAT": "201306", "SORIND": "US,US,graph,Chart 13223" }, "geometry": { "type": "Point", "coordinates": [ -71.3250929, 41.4802086 ] } },
{ "type": "Feature", "properties": { "RCID": 2427, "PRIM": 1, "GRUP": 2, "OBJL": 121, "RVER": 1, "AGEN": 550, "FIDN": 85583107, "FIDS": 7303, "LNAM": "02260519E5031C87", "NATSUR": [ "9" ], "SCAMIN": 29999, "SORDAT": "200504", "SORIND": "US,US,graph,Chart 13223" }, "geometry": { "type": "Point", "coordinates": [ -71.3283631, 41.4989447 ] } },
{ "type": "Feature", "properties": { "RCID": 2428, "PRIM": 1, "GRUP": 2, "OBJL": 121, "RVER": 1, "AGEN": 550, "FIDN": 797661322, "FIDS": 7303, "LNAM": "02262F8B588A1C87", "NATSUR": [ "9" ], "SCAMIN": 29999, "SORDAT": "201306", "SORIND": "US,US,graph,Chart 13223" }, "geometry": { "type": "Point", "coordinates": [ -71.3355717, 41.5003229 ] } },
{ "type": "Feature", "properties": { "RCID": 2429, "PRIM": 1, "GRUP": 2, "OBJL": 121, "RVER": 1, "AGEN": 550, "FIDN": 769381994, "FIDS": 7303, "LNAM": "02262DDBD66A1C87", "NATSUR": [ "9" ], "SCAMIN": 29999, "SORDAT": "200504", "SORIND": "US,US,graph,Chart 13223" }, "geometry": { "type": "Point", "coordinates": [ -71.3391304, 41.4985991 ] } },
{ "type": "Feature", "properties": { "RCID": 2430, "PRIM": 1, "GRUP": 2, "OBJL": 121, "RVER": 1, "AGEN": 550, "FIDN": 974161443, "FIDS": 7303, "LNAM": "02263A1086231C87", "NATSUR": [ "17", "7" ], "SCAMIN": 29999, "SORDAT": "200504", "SORIND": "US,US,graph,chart 13223" }, "geometry": { "type": "Point", "coordinates": [ -71.3465278, 41.5246887 ] } },
{ "type": "Feature", "properties": { "RCID": 2431, "PRIM": 1, "GRUP": 2, "OBJL": 121, "RVER": 1, "AGEN": 550, "FIDN": 682267302, "FIDS": 7303, "LNAM": "022628AA92A61C87", "NATQUA": [ "10" ], "SCAMIN": 29999, "SORDAT": "200504", "SORIND": "US,US,graph,Chart 13223" }, "geometry": { "type": "Point", "coordinates": [ -71.3474742, 41.532826 ] } },
{ "type": "Feature", "properties": { "RCID": 2432, "PRIM": 1, "GRUP": 2, "OBJL": 121, "RVER": 1, "AGEN": 550, "FIDN": 838685224, "FIDS": 7303, "LNAM": "022631FD52281C87", "NATSUR": [ "7" ], "SCAMIN": 29999, "SORDAT": "200504", "SORIND": "US,US,graph,Chart 13223" }, "geometry": { "type": "Point", "coordinates": [ -71.3515115, 41.4869341 ] } },
{ "type": "Feature", "properties": { "RCID": 2433, "PRIM": 1, "GRUP": 2, "OBJL": 121, "RVER": 1, "AGEN": 550, "FIDN": 737256866, "FIDS": 7303, "LNAM": "02262BF1A5A21C87", "NATSUR": [ "1", "17" ], "SCAMIN": 29999, "SORDAT": "200504", "SORIND": "US,US,graph,chart 13223" }, "geometry": { "type": "Point", "coordinates": [ -71.3564203, 41.5379478 ] } },
{ "type": "Feature", "properties": { "RCID": 2434, "PRIM": 1, "GRUP": 2, "OBJL": 121, "RVER": 1, "AGEN": 550, "FIDN": 493406484, "FIDS": 7303, "LNAM": "02261D68C9141C87", "NATSUR": [ "17" ], "SCAMIN": 29999, "SORDAT": "200504", "SORIND": "US,US,graph,Chart 13223" }, "geometry": { "type": "Point", "coordinates": [ -71.3571117, 41.5113997 ] } },
{ "type": "Feature", "properties": { "RCID": 2435, "PRIM": 1, "GRUP": 2, "OBJL": 121, "RVER": 1, "AGEN": 550, "FIDN": 98711013, "FIDS": 7303, "LNAM": "022605E235E51C87", "NATSUR": [ "4", "1" ], "SCAMIN": 29999, "SORDAT": "200504", "SORIND": "US,US,graph,Chart 13223" }, "geometry": { "type": "Point", "coordinates": [ -71.3625492, 41.5105794 ] } },
{ "type": "Feature", "properties": { "RCID": 2436, "PRIM": 1, "GRUP": 2, "OBJL": 121, "RVER": 1, "AGEN": 550, "FIDN": 724915787, "FIDS": 7303, "LNAM": "02262B35564B1C87", "NATQUA": [ "10" ], "SCAMIN": 29999, "SORDAT": "20040729", "SORIND": "US,US,graph,H-11310" }, "geometry": { "type": "Point", "coordinates": [ -71.3938907, 41.5417985 ] } },
{ "type": "Feature", "properties": { "RCID": 2437, "PRIM": 1, "GRUP": 2, "OBJL": 121, "RVER": 1, "AGEN": 550, "FIDN": 803867350, "FIDS": 7303, "LNAM": "02262FEA0AD61C87", "NATQUA": [ "5" ], "SCAMIN": 29999, "SORDAT": "200504", "SORIND": "US,US,graph,Chart 13223" }, "geometry": { "type": "Point", "coordinates": [ -71.3277444, 41.540942 ] } },
{ "type": "Feature", "properties": { "RCID": 2438, "PRIM": 1, "GRUP": 2, "OBJL": 121, "RVER": 1, "AGEN": 550, "FIDN": 110201974, "FIDS": 7303, "LNAM": "022606918C761C87", "NATQUA": [ "5" ], "SCAMIN": 29999, "SORDAT": "201306", "SORIND": "US,US,graph,Chart 13223" }, "geometry": { "type": "Point", "coordinates": [ -71.332847, 41.5091251 ] } },
{ "type": "Feature", "properties": { "RCID": 2439, "PRIM": 1, "GRUP": 2, "OBJL": 121, "RVER": 1, "AGEN": 550, "FIDN": 276531104, "FIDS": 7303, "LNAM": "0226107B87A01C87", "NATQUA": [ "5" ], "SCAMIN": 29999, "SORDAT": "200504", "SORIND": "US,US,graph,Chart 13223" }, "geometry": { "type": "Point", "coordinates": [ -71.3405058, 41.5381399 ] } },
{ "type": "Feature", "properties": { "RCID": 2440, "PRIM": 1, "GRUP": 2, "OBJL": 121, "RVER": 1, "AGEN": 550, "FIDN": 822653470, "FIDS": 7303, "LNAM": "02263108B21E1C87", "NATSUR": [ "9" ], "SCAMIN": 29999, "SORDAT": "201306", "SORIND": "US,US,graph,Chart 13223" }, "geometry": { "type": "Point", "coordinates": [ -71.3416884, 41.5316176 ] } },
{ "type": "Feature", "properties": { "RCID": 2441, "PRIM": 1, "GRUP": 2, "OBJL": 121, "RVER": 1, "AGEN": 550, "FIDN": 28746202, "FIDS": 7303, "LNAM": "022601B6A1DA1C87", "NATSUR": [ "1", "17" ], "SCAMIN": 29999, "SORDAT": "200504", "SORIND": "US,US,graph,chart 13223" }, "geometry": { "type": "Point", "coordinates": [ -71.3555306, 41.5286722 ] } },
{ "type": "Feature", "properties": { "RCID": 2442, "PRIM": 1, "GRUP": 2, "OBJL": 121, "RVER": 1, "AGEN": 550, "FIDN": 841983897, "FIDS": 7303, "LNAM": "0226322FA7991C87", "NATSUR": [ "1" ], "SCAMIN": 29999, "SORDAT": "200504", "SORIND": "US,US,graph,chart 13223" }, "geometry": { "type": "Point", "coordinates": [ -71.3568578, 41.5152174 ] } },
{ "type": "Feature", "properties": { "RCID": 2443, "PRIM": 1, "GRUP": 2, "OBJL": 121, "RVER": 1, "AGEN": 550, "FIDN": 414334465, "FIDS": 7303, "LNAM": "022618B23E011C87", "NATSUR": [ "1" ], "SCAMIN": 29999, "SORDAT": "200504", "SORIND": "US,US,graph,Chart 13223" }, "geometry": { "type": "Point", "coordinates": [ -71.3965758, 41.5207937 ] } },
{ "type": "Feature", "properties": { "RCID": 2444, "PRIM": 1, "GRUP": 2, "OBJL": 121, "RVER": 1, "AGEN": 550, "FIDN": 117573703, "FIDS": 7303, "LNAM": "0226070208471C87", "NATSUR": [ "1" ], "SCAMIN": 29999, "SORDAT": "200504", "SORIND": "US,US,graph,Chart 13223" }, "geometry": { "type": "Point", "coordinates": [ -71.3850591, 41.5024076 ] } },
{ "type": "Feature", "properties": { "RCID": 2445, "PRIM": 1, "GRUP": 2, "OBJL": 121, "RVER": 1, "AGEN": 550, "FIDN": 146321594, "FIDS": 7303, "LNAM": "022608B8B0BA1C87", "NATSUR": [ "1" ], "SCAMIN": 29999, "SORDAT": "200504", "SORIND": "US,US,graph,Chart 13223" }, "geometry": { "type": "Point", "coordinates": [ -71.3572166, 41.4917988 ] } },
{ "type": "Feature", "properties": { "RCID": 2446, "PRIM": 1, "GRUP": 2, "OBJL": 121, "RVER": 1, "AGEN": 550, "FIDN": 360822113, "FIDS": 7303, "LNAM": "02261581B5611C87", "NATSUR": [ "17", "7" ], "SCAMIN": 29999, "SORDAT": "200504", "SORIND": "US,US,graph,Chart 13223" }, "geometry": { "type": "Point", "coordinates": [ -71.3566317, 41.4879342 ] } },
{ "type": "Feature", "properties": { "RCID": 2447, "PRIM": 1, "GRUP": 2, "OBJL": 121, "RVER": 1, "AGEN": 550, "FIDN": 601957744, "FIDS": 7303, "LNAM": "022623E125701C87", "NATSUR": [ "7" ], "SCAMIN": 29999, "SORDAT": "200504", "SORIND": "US,US,graph,chart 13223" }, "geometry": { "type": "Point", "coordinates": [ -71.3525036, 41.5062389 ] } },
{ "type": "Feature", "properties": { "RCID": 2448, "PRIM": 1, "GRUP": 2, "OBJL": 121, "RVER": 1, "AGEN": 550, "FIDN": 100156710, "FIDS": 7303, "LNAM": "022605F845261C87", "NATSUR": [ "9" ], "SCAMIN": 29999, "SORDAT": "200504", "SORIND": "US,US,graph,Chart 13223" }, "geometry": { "type": "Point", "coordinates": [ -71.3375466, 41.4942242 ] } },
{ "type": "Feature", "properties": { "RCID": 2449, "PRIM": 1, "GRUP": 2, "OBJL": 121, "RVER": 1, "AGEN": 550, "FIDN": 552669330, "FIDS": 7303, "LNAM": "022620F110921C87", "NATSUR": [ "1" ], "SCAMIN": 29999, "SORDAT": "200504", "SORIND": "US,US,graph,Chart 13223" }, "geometry": { "type": "Point", "coordinates": [ -71.3365863, 41.534588 ] } },
{ "type": "Feature", "properties": { "RCID": 2450, "PRIM": 1, "GRUP": 2, "OBJL": 121, "RVER": 1, "AGEN": 550, "FIDN": 108645192, "FIDS": 7303, "LNAM": "02260679CB481C87", "NATQUA": [ "5" ], "SCAMIN": 29999, "SORDAT": "200504", "SORIND": "US,US,graph,Chart 13223" }, "geometry": { "type": "Point", "coordinates": [ -71.334786, 41.540198 ] } },
{ "type": "Feature", "properties": { "RCID": 2451, "PRIM": 1, "GRUP": 2, "OBJL": 121, "RVER": 1, "AGEN": 550, "FIDN": 317133287, "FIDS": 7303, "LNAM": "022612E711E71C87", "NATSUR": [ "1" ], "SCAMIN": 29999, "SORDAT": "200504", "SORIND": "US,US,graph,Chart 13223" }, "geometry": { "type": "Point", "coordinates": [ -71.3347095, 41.5225993 ] } },
{ "type": "Feature", "properties": { "RCID": 2452, "PRIM": 1, "GRUP": 2, "OBJL": 121, "RVER": 1, "AGEN": 550, "FIDN": 987231703, "FIDS": 7303, "LNAM": "02263AD7F5D71C87", "NATQUA": [ "5" ], "SCAMIN": 29999, "SORDAT": "200504", "SORIND": "US,US,graph,Chart 13223" }, "geometry": { "type": "Point", "coordinates": [ -71.3317268, 41.5363948 ] } },
{ "type": "Feature", "properties": { "RCID": 2453, "PRIM": 1, "GRUP": 2, "OBJL": 121, "RVER": 1, "AGEN": 550, "FIDN": 796122727, "FIDS": 7303, "LNAM": "02262F73DE671C87", "NATSUR": [ "9" ], "SCAMIN": 29999, "SORDAT": "201306", "SORIND": "US,US,graph,chart 13223" }, "geometry": { "type": "Point", "coordinates": [ -71.325947, 41.5239628 ] } },
{ "type": "Feature", "properties": { "RCID": 2454, "PRIM": 1, "GRUP": 2, "OBJL": 121, "RVER": 1, "AGEN": 550, "FIDN": 94318123, "FIDS": 7303, "LNAM": "0226059F2E2B1C87", "NATSUR": [ "1" ], "SCAMIN": 29999, "SORDAT": "200504", "SORIND": "US,US,graph,Chart 13223" }, "geometry": { "type": "Point", "coordinates": [ -71.3984885, 41.5147619 ] } },
{ "type": "Feature", "properties": { "RCID": 2455, "PRIM": 1, "GRUP": 2, "OBJL": 121, "RVER": 1, "AGEN": 550, "FIDN": 984783679, "FIDS": 7303, "LNAM": "02263AB29B3F1C87", "NATSUR": [ "9" ], "SCAMIN": 29999, "SORDAT": "20040729", "SORIND": "US,US,graph,H-11310" }, "geometry": { "type": "Point", "coordinates": [ -71.3940908, 41.5279957 ] } },
{ "type": "Feature", "properties": { "RCID": 2456, "PRIM": 1, "GRUP": 2, "OBJL": 121, "RVER": 1, "AGEN": 550, "FIDN": 903689062, "FIDS": 7303, "LNAM": "022635DD33661C87", "NATSUR": [ "1", "17" ], "SCAMIN": 29999, "SORDAT": "200504", "SORIND": "US,US,graph,Chart 13223" }, "geometry": { "type": "Point", "coordinates": [ -71.3936574, 41.4969165 ] } },
{ "type": "Feature", "properties": { "RCID": 2457, "PRIM": 1, "GRUP": 2, "OBJL": 121, "RVER": 1, "AGEN": 550, "FIDN": 311620162, "FIDS": 7303, "LNAM": "02261292F2421C87", "NATSUR": [ "9" ], "SCAMIN": 29999, "SORDAT": "20040729", "SORIND": "US,US,graph,H-11310" }, "geometry": { "type": "Point", "coordinates": [ -71.392001, 41.5307477 ] } },
{ "type": "Feature", "properties": { "RCID": 2458, "PRIM": 1, "GRUP": 2, "OBJL": 121, "RVER": 1, "AGEN": 550, "FIDN": 971885588, "FIDS": 7303, "LNAM": "022639EDCC141C87", "NATSUR": [ "9" ], "SCAMIN": 29999, "SORDAT": "20040729", "SORIND": "US,US,graph,H-11310" }, "geometry": { "type": "Point", "coordinates": [ -71.3914666, 41.54741 ] } },
{ "type": "Feature", "properties": { "RCID": 2459, "PRIM": 1, "GRUP": 2, "OBJL": 121, "RVER": 1, "AGEN": 550, "FIDN": 643528131, "FIDS": 7303, "LNAM": "0226265B75C31C87", "NATSUR": [ "17" ], "SCAMIN": 29999, "SORDAT": "200504", "SORIND": "US,US,graph,Chart 13223" }, "geometry": { "type": "Point", "coordinates": [ -71.3907684, 41.5108307 ] } },
{ "type": "Feature", "properties": { "RCID": 2460, "PRIM": 1, "GRUP": 2, "OBJL": 121, "RVER": 1, "AGEN": 550, "FIDN": 261829079, "FIDS": 7303, "LNAM": "02260F9B31D71C87", "NATSUR": [ "1" ], "SCAMIN": 29999, "SORDAT": "201306", "SORIND": "US,US,graph,Chart 13223" }, "geometry": { "type": "Point", "coordinates": [ -71.3820624, 41.4816707 ] } },
{ "type": "Feature", "properties": { "RCID": 2461, "PRIM": 1, "GRUP": 2, "OBJL": 121, "RVER": 1, "AGEN": 550, "FIDN": 508072429, "FIDS": 7303, "LNAM": "02261E4891ED1C87", "NATSUR": [ "1" ], "SCAMIN": 29999, "SORDAT": "200504", "SORIND": "US,US,graph,Chart 13223" }, "geometry": { "type": "Point", "coordinates": [ -71.3592867, 41.5193176 ] } },
{ "type": "Feature", "properties": { "RCID": 2462, "PRIM": 1, "GRUP": 2, "OBJL": 121, "RVER": 1, "AGEN": 550, "FIDN": 391700320, "FIDS": 7303, "LNAM": "02261758DF601C87", "NATSUR": [ "1", "7" ], "SCAMIN": 29999, "SORDAT": "200504", "SORIND": "US,US,graph,Chart 13223" }, "geometry": { "type": "Point", "coordinates": [ -71.3571605, 41.4966945 ] } },
{ "type": "Feature", "properties": { "RCID": 2463, "PRIM": 1, "GRUP": 2, "OBJL": 121, "RVER": 1, "AGEN": 550, "FIDN": 234770395, "FIDS": 7303, "LNAM": "02260DFE4FDB1C87", "NATSUR": [ "1" ], "SCAMIN": 29999, "SORDAT": "200504", "SORIND": "US,US,graph,chart 13223" }, "geometry": { "type": "Point", "coordinates": [ -71.3518277, 41.529704 ] } },
{ "type": "Feature", "properties": { "RCID": 2464, "PRIM": 1, "GRUP": 2, "OBJL": 121, "RVER": 1, "AGEN": 550, "FIDN": 916675367, "FIDS": 7303, "LNAM": "022636A35B271C87", "NATSUR": [ "1", "7" ], "SCAMIN": 29999, "SORDAT": "200504", "SORIND": "US,US,graph,Chart 13223" }, "geometry": { "type": "Point", "coordinates": [ -71.3517292, 41.492641 ] } },
{ "type": "Feature", "properties": { "RCID": 2465, "PRIM": 1, "GRUP": 2, "OBJL": 121, "RVER": 1, "AGEN": 550, "FIDN": 81130392, "FIDS": 7303, "LNAM": "022604D5F3981C87", "NATSUR": [ "1" ], "SCAMIN": 29999, "SORDAT": "200504", "SORIND": "US,US,graph,chart 13223" }, "geometry": { "type": "Point", "coordinates": [ -71.3514265, 41.5247738 ] } },
{ "type": "Feature", "properties": { "RCID": 2466, "PRIM": 1, "GRUP": 2, "OBJL": 121, "RVER": 1, "AGEN": 550, "FIDN": 564815182, "FIDS": 7303, "LNAM": "022621AA654E1C87", "NATSUR": [ "4", "7" ], "SCAMIN": 29999, "SORDAT": "200504", "SORIND": "US,US,graph,chart 13223" }, "geometry": { "type": "Point", "coordinates": [ -71.3506743, 41.511072 ] } },
{ "type": "Feature", "properties": { "RCID": 2467, "PRIM": 1, "GRUP": 2, "OBJL": 121, "RVER": 1, "AGEN": 550, "FIDN": 173729454, "FIDS": 7303, "LNAM": "02260A5AE6AE1C87", "NATSUR": [ "9" ], "SCAMIN": 29999, "SORDAT": "201306", "SORIND": "US,US,graph,Chart 13223" }, "geometry": { "type": "Point", "coordinates": [ -71.3426096, 41.5031384 ] } },
{ "type": "Feature", "properties": { "RCID": 2468, "PRIM": 1, "GRUP": 2, "OBJL": 121, "RVER": 1, "AGEN": 550, "FIDN": 932151664, "FIDS": 7303, "LNAM": "0226378F81701C87", "NATSUR": [ "9" ], "SCAMIN": 29999, "SORDAT": "201306", "SORIND": "US,US,graph,Chart 13223" }, "geometry": { "type": "Point", "coordinates": [ -71.338174, 41.503437 ] } },
{ "type": "Feature", "properties": { "RCID": 2469, "PRIM": 1, "GRUP": 2, "OBJL": 121, "RVER": 1, "AGEN": 550, "FIDN": 667318792, "FIDS": 7303, "LNAM": "022627C67A081C87", "NATQUA": [ "5" ], "SCAMIN": 29999, "SORDAT": "200504", "SORIND": "US,US,graph,Chart 13223" }, "geometry": { "type": "Point", "coordinates": [ -71.3330983, 41.5434947 ] } },
{ "type": "Feature", "properties": { "RCID": 2470, "PRIM": 1, "GRUP": 2, "OBJL": 121, "RVER": 1, "AGEN": 550, "FIDN": 433132964, "FIDS": 7303, "LNAM": "022619D115A41C87", "NATQUA": [ "6" ], "SCAMIN": 29999, "SORDAT": "200504", "SORIND": "US,US,graph,Chart 13223" }, "geometry": { "type": "Point", "coordinates": [ -71.3265327, 41.4976379 ] } },
{ "type": "Feature", "properties": { "RCID": 2471, "PRIM": 1, "GRUP": 2, "OBJL": 121, "RVER": 1, "AGEN": 550, "FIDN": 747467920, "FIDS": 7303, "LNAM": "02262C8D74901C87", "NATSUR": [ "1", "17" ], "SCAMIN": 29999, "SORDAT": "201306", "SORIND": "US,US,graph,Chart 13223" }, "geometry": { "type": "Point", "coordinates": [ -71.3260171, 41.4965782 ] } },
{ "type": "Feature", "properties": { "RCID": 2472, "PRIM": 1, "GRUP": 2, "OBJL": 121, "RVER": 1, "AGEN": 550, "FIDN": 302600958, "FIDS": 7303, "LNAM": "0226120952FE1C87", "NATSUR": [ "1", "17" ], "SCAMIN": 29999, "SORDAT": "200504", "SORIND": "US,US,graph,Chart 13223" }, "geometry": { "type": "Point", "coordinates": [ -71.3955711, 41.5023969 ] } },
{ "type": "Feature", "properties": { "RCID": 2473, "PRIM": 1, "GRUP": 2, "OBJL": 121, "RVER": 1, "AGEN": 550, "FIDN": 278174848, "FIDS": 7303, "LNAM": "022610949C801C87", "NATSUR": [ "9" ], "SCAMIN": 29999, "SORDAT": "201306", "SORIND": "US,US,graph,Chart 13223" }, "geometry": { "type": "Point", "coordinates": [ -71.3952626, 41.5306233 ] } },
{ "type": "Feature", "properties": { "RCID": 2474, "PRIM": 1, "GRUP": 2, "OBJL": 121, "RVER": 1, "AGEN": 550, "FIDN": 4219103, "FIDS": 7303, "LNAM": "0226004060DF1C87", "NATSUR": [ "9" ], "SCAMIN": 29999, "SORDAT": "201306", "SORIND": "US,US,graph,Chart 13223" }, "geometry": { "type": "Point", "coordinates": [ -71.3875918, 41.538705 ] } },
{ "type": "Feature", "properties": { "RCID": 2475, "PRIM": 1, "GRUP": 2, "OBJL": 121, "RVER": 1, "AGEN": 550, "FIDN": 74552327, "FIDS": 7303, "LNAM": "0226047194071C87", "NATSUR": [ "9" ], "SCAMIN": 29999, "SORDAT": "201306", "SORIND": "US,US,graph,Chart 13223" }, "geometry": { "type": "Point", "coordinates": [ -71.3672394, 41.476199 ] } },
{ "type": "Feature", "properties": { "RCID": 2476, "PRIM": 1, "GRUP": 2, "OBJL": 121, "RVER": 1, "AGEN": 550, "FIDN": 249402060, "FIDS": 7303, "LNAM": "02260EDD92CC1C87", "NATSUR": [ "1" ], "SCAMIN": 29999, "SORDAT": "200504", "SORIND": "US,US,graph,chart 13223" }, "geometry": { "type": "Point", "coordinates": [ -71.3569381, 41.5242527 ] } },
{ "type": "Feature", "properties": { "RCID": 2477, "PRIM": 1, "GRUP": 2, "OBJL": 121, "RVER": 1, "AGEN": 550, "FIDN": 372529367, "FIDS": 7303, "LNAM": "0226163458D71C87", "NATSUR": [ "1" ], "SCAMIN": 29999, "SORDAT": "200504", "SORIND": "US,US,graph,chart 13223" }, "geometry": { "type": "Point", "coordinates": [ -71.3567896, 41.5335171 ] } },
{ "type": "Feature", "properties": { "RCID": 2478, "PRIM": 1, "GRUP": 2, "OBJL": 121, "RVER": 1, "AGEN": 550, "FIDN": 910452165, "FIDS": 7303, "LNAM": "0226364465C51C87", "NATSUR": [ "1" ], "SCAMIN": 29999, "SORDAT": "200504", "SORIND": "US,US,graph,Chart 13223" }, "geometry": { "type": "Point", "coordinates": [ -71.3559967, 41.5443674 ] } },
{ "type": "Feature", "properties": { "RCID": 2479, "PRIM": 1, "GRUP": 2, "OBJL": 121, "RVER": 1, "AGEN": 550, "FIDN": 106715744, "FIDS": 7303, "LNAM": "0226065C5A601C87", "NATSUR": [ "17" ], "SCAMIN": 29999, "SORDAT": "200504", "SORIND": "US,US,graph,Chart 13223" }, "geometry": { "type": "Point", "coordinates": [ -71.3504312, 41.4831021 ] } },
{ "type": "Feature", "properties": { "RCID": 2480, "PRIM": 1, "GRUP": 2, "OBJL": 121, "RVER": 1, "AGEN": 550, "FIDN": 2258425, "FIDS": 7303, "LNAM": "0226002275F91C87", "NATSUR": [ "1", "7" ], "SCAMIN": 29999, "SORDAT": "200504", "SORIND": "US,US,graph,Chart 13223" }, "geometry": { "type": "Point", "coordinates": [ -71.3503947, 41.4970976 ] } },
{ "type": "Feature", "properties": { "RCID": 2481, "PRIM": 1, "GRUP": 2, "OBJL": 121, "RVER": 1, "AGEN": 550, "FIDN": 978470814, "FIDS": 7303, "LNAM": "02263A52479E1C87", "NATSUR": [ "1" ], "SCAMIN": 29999, "SORDAT": "200504", "SORIND": "US,US,graph,Chart 13223" }, "geometry": { "type": "Point", "coordinates": [ -71.3498731, 41.5405936 ] } },
{ "type": "Feature", "properties": { "RCID": 2482, "PRIM": 1, "GRUP": 2, "OBJL": 121, "RVER": 1, "AGEN": 550, "FIDN": 597415687, "FIDS": 7303, "LNAM": "0226239BD7071C87", "NATSUR": [ "1" ], "SCAMIN": 29999, "SORDAT": "201306", "SORIND": "US,US,graph,Chart 13223" }, "geometry": { "type": "Point", "coordinates": [ -71.3422111, 41.4816652 ] } },
{ "type": "Feature", "properties": { "RCID": 2483, "PRIM": 1, "GRUP": 2, "OBJL": 121, "RVER": 1, "AGEN": 550, "FIDN": 101699821, "FIDS": 7303, "LNAM": "0226060FD0ED1C87", "NATSUR": [ "9" ], "SCAMIN": 29999, "SORDAT": "201306", "SORIND": "US,US,graph,Chart 13223" }, "geometry": { "type": "Point", "coordinates": [ -71.3349144, 41.5078233 ] } },
{ "type": "Feature", "properties": { "RCID": 2484, "PRIM": 1, "GRUP": 2, "OBJL": 121, "RVER": 1, "AGEN": 550, "FIDN": 796972928, "FIDS": 7303, "LNAM": "02262F80D7801C87", "NATSUR": [ "1" ], "SCAMIN": 29999, "SORDAT": "200504", "SORIND": "US,US,graph,Chart 13223" }, "geometry": { "type": "Point", "coordinates": [ -71.3338196, 41.4779023 ] } },
{ "type": "Feature", "properties": { "RCID": 2485, "PRIM": 1, "GRUP": 2, "OBJL": 121, "RVER": 1, "AGEN": 550, "FIDN": 543998279, "FIDS": 7303, "LNAM": "0226206CC1471C87", "NATSUR": [ "1" ], "SCAMIN": 29999, "SORDAT": "200504", "SORIND": "US,US,graph,chart 13223" }, "geometry": { "type": "Point", "coordinates": [ -71.3337965, 41.4885952 ] } },
{ "type": "Feature", "properties": { "RCID": 2486, "PRIM": 1, "GRUP": 2, "OBJL": 121, "RVER": 1, "AGEN": 550, "FIDN": 559471843, "FIDS": 7303, "LNAM": "02262158DCE31C87", "NATSUR": [ "17", "1" ], "SCAMIN": 29999, "SORDAT": "200504", "SORIND": "US,US,graph,chart 13223" }, "geometry": { "type": "Point", "coordinates": [ -71.3319527, 41.4835624 ] } },
{ "type": "Feature", "properties": { "RCID": 2487, "PRIM": 1, "GRUP": 2, "OBJL": 121, "RVER": 1, "AGEN": 550, "FIDN": 98939639, "FIDS": 7303, "LNAM": "022605E5B2F71C87", "NATSUR": [ "1" ], "SCAMIN": 29999, "SORDAT": "200504", "SORIND": "US,US,graph,Chart 13223" }, "geometry": { "type": "Point", "coordinates": [ -71.3257073, 41.5311748 ] } },
{ "type": "Feature", "properties": { "RCID": 2488, "PRIM": 1, "GRUP": 2, "OBJL": 121, "RVER": 1, "AGEN": 550, "FIDN": 284786539, "FIDS": 7303, "LNAM": "022610F97F6B1C87", "NATSUR": [ "9" ], "SCAMIN": 29999, "SORDAT": "200504", "SORIND": "US,US,graph,Chart 13223" }, "geometry": { "type": "Point", "coordinates": [ -71.3986723, 41.4794687 ] } },
{ "type": "Feature", "properties": { "RCID": 2489, "PRIM": 1, "GRUP": 2, "OBJL": 121, "RVER": 1, "AGEN": 550, "FIDN": 112878385, "FIDS": 7303, "LNAM": "022606BA63311C87", "NATSUR": [ "1", "17" ], "SCAMIN": 29999, "SORDAT": "200504", "SORIND": "US,US,graph,Chart 13223" }, "geometry": { "type": "Point", "coordinates": [ -71.3984434, 41.4980214 ] } },
{ "type": "Feature", "properties": { "RCID": 2490, "PRIM": 1, "GRUP": 2, "OBJL": 121, "RVER": 1, "AGEN": 550, "FIDN": 643965312, "FIDS": 7303, "LNAM": "0226266221801C87", "NATSUR": [ "9" ], "SCAMIN": 29999, "SORDAT": "20040729", "SORIND": "US,US,graph,H-11310" }, "geometry": { "type": "Point", "coordinates": [ -71.3928184, 41.541194 ] } },
{ "type": "Feature", "properties": { "RCID": 2491, "PRIM": 1, "GRUP": 2, "OBJL": 121, "RVER": 1, "AGEN": 550, "FIDN": 390291780, "FIDS": 7303, "LNAM": "0226174361441C87", "NATSUR": [ "17" ], "SCAMIN": 29999, "SORDAT": "200504", "SORIND": "US,US,graph,Chart 13223" }, "geometry": { "type": "Point", "coordinates": [ -71.3919265, 41.5067588 ] } },
{ "type": "Feature", "properties": { "RCID": 2492, "PRIM": 1, "GRUP": 2, "OBJL": 121, "RVER": 1, "AGEN": 550, "FIDN": 400669379, "FIDS": 7303, "LNAM": "022617E1BAC31C87", "NATQUA": [ "1" ], "NATSUR": [ "4" ], "SCAMIN": 29999, "SORDAT": "201306", "SORIND": "US,US,graph,Chart 13223" }, "geometry": { "type": "Point", "coordinates": [ -71.3797312, 41.477239 ] } },
{ "type": "Feature", "properties": { "RCID": 2493, "PRIM": 1, "GRUP": 2, "OBJL": 121, "RVER": 1, "AGEN": 550, "FIDN": 345190336, "FIDS": 7303, "LNAM": "022614932FC01C87", "NATSUR": [ "9" ], "SCAMIN": 29999, "SORDAT": "201306", "SORIND": "US,US,graph,Chart 13223" }, "geometry": { "type": "Point", "coordinates": [ -71.3619315, 41.4774815 ] } },
{ "type": "Feature", "properties": { "RCID": 2494, "PRIM": 1, "GRUP": 2, "OBJL": 121, "RVER": 1, "AGEN": 550, "FIDN": 224915858, "FIDS": 7303, "LNAM": "02260D67F1921C87", "NATSUR": [ "1" ], "SCAMIN": 29999, "SORDAT": "200504", "SORIND": "US,US,graph,Chart 13223" }, "geometry": { "type": "Point", "coordinates": [ -71.3587909, 41.5006933 ] } },
{ "type": "Feature", "properties": { "RCID": 2495, "PRIM": 1, "GRUP": 2, "OBJL": 121, "RVER": 1, "AGEN": 550, "FIDN": 633092757, "FIDS": 7303, "LNAM": "022625BC3A951C87", "NATSUR": [ "7" ], "SCAMIN": 29999, "SORDAT": "200504", "SORIND": "US,US,graph,chart 13223" }, "geometry": { "type": "Point", "coordinates": [ -71.3515474, 41.5155019 ] } },
{ "type": "Feature", "properties": { "RCID": 2496, "PRIM": 1, "GRUP": 2, "OBJL": 121, "RVER": 1, "AGEN": 550, "FIDN": 557066283, "FIDS": 7303, "LNAM": "02262134282B1C87", "NATQUA": [ "5" ], "SCAMIN": 29999, "SORDAT": "200504", "SORIND": "US,US,graph,Chart 13223" }, "geometry": { "type": "Point", "coordinates": [ -71.3471071, 41.5388349 ] } },
{ "type": "Feature", "properties": { "RCID": 2497, "PRIM": 1, "GRUP": 2, "OBJL": 121, "RVER": 1, "AGEN": 550, "FIDN": 122366577, "FIDS": 7303, "LNAM": "0226074B2A711C87", "NATSUR": [ "17", "7" ], "SCAMIN": 29999, "SORDAT": "200504", "SORIND": "US,US,graph,Chart 13223" }, "geometry": { "type": "Point", "coordinates": [ -71.3450469, 41.5147169 ] } },
{ "type": "Feature", "properties": { "RCID": 2498, "PRIM": 1, "GRUP": 2, "OBJL": 121, "RVER": 1, "AGEN": 550, "FIDN": 822941777, "FIDS": 7303, "LNAM": "0226310D18511C87", "NATSUR": [ "17" ], "SCAMIN": 29999, "SORDAT": "200504", "SORIND": "US,US,graph,Chart 13223" }, "geometry": { "type": "Point", "coordinates": [ -71.340626, 41.4843953 ] } },
{ "type": "Feature", "properties": { "RCID": 2499, "PRIM": 1, "GRUP": 2, "OBJL": 121, "RVER": 1, "AGEN": 550, "FIDN": 853405381, "FIDS": 7303, "LNAM": "022632DDEEC51C87", "NATSUR": [ "1" ], "SCAMIN": 29999, "SORDAT": "200504", "SORIND": "US,US,graph,Chart 13223" }, "geometry": { "type": "Point", "coordinates": [ -71.3395085, 41.5272867 ] } },
{ "type": "Feature", "properties": { "RCID": 2500, "PRIM": 1, "GRUP": 2, "OBJL": 121, "RVER": 1, "AGEN": 550, "FIDN": 307227223, "FIDS": 7303, "LNAM": "0226124FEA571C87", "NATQUA": [ "5" ], "SCAMIN": 29999, "SORDAT": "200504", "SORIND": "US,US,graph,Chart 13223" }, "geometry": { "type": "Point", "coordinates": [ -71.3364048, 41.5305877 ] } },
{ "type": "Feature", "properties": { "RCID": 2501, "PRIM": 1, "GRUP": 2, "OBJL": 121, "RVER": 1, "AGEN": 550, "FIDN": 123574744, "FIDS": 7303, "LNAM": "0226075D99D81C87", "NATQUA": [ "6" ], "SCAMIN": 29999, "SORDAT": "200504", "SORIND": "US,US,graph,Chart 13223" }, "geometry": { "type": "Point", "coordinates": [ -71.3353508, 41.5140586 ] } },
{ "type": "Feature", "properties": { "RCID": 2502, "PRIM": 1, "GRUP": 2, "OBJL": 121, "RVER": 1, "AGEN": 550, "FIDN": 253203135, "FIDS": 7303, "LNAM": "02260F1792BF1C87", "NATSUR": [ "9" ], "SCAMIN": 29999, "SORDAT": "201306", "SORIND": "US,US,graph,Chart 13223" }, "geometry": { "type": "Point", "coordinates": [ -71.3311356, 41.5229796 ] } },
{ "type": "Feature", "properties": { "RCID": 2503, "PRIM": 1, "GRUP": 2, "OBJL": 121, "RVER": 1, "AGEN": 550, "FIDN": 656703850, "FIDS": 7303, "LNAM": "02262724816A1C87", "NATQUA": [ "10" ], "SCAMIN": 29999, "SORDAT": "20040729", "SORIND": "US,US,graph,H-11310" }, "geometry": { "type": "Point", "coordinates": [ -71.3980918, 41.5369829 ] } },
{ "type": "Feature", "properties": { "RCID": 2504, "PRIM": 1, "GRUP": 2, "OBJL": 121, "RVER": 1, "AGEN": 550, "FIDN": 757097657, "FIDS": 7303, "LNAM": "02262D2064B91C87", "NATQUA": [ "6" ], "SCAMIN": 29999, "SORDAT": "20040729", "SORIND": "US,US,graph,H-11310" }, "geometry": { "type": "Point", "coordinates": [ -71.3977674, 41.546786 ] } },
{ "type": "Feature", "properties": { "RCID": 2505, "PRIM": 1, "GRUP": 2, "OBJL": 121, "RVER": 1, "AGEN": 550, "FIDN": 27124702, "FIDS": 7303, "LNAM": "0226019DE3DE1C87", "NATSUR": [ "9" ], "SCAMIN": 29999, "SORDAT": "20040729", "SORIND": "US,US,graph,H-11310" }, "geometry": { "type": "Point", "coordinates": [ -71.3950681, 41.5342643 ] } },
{ "type": "Feature", "properties": { "RCID": 2506, "PRIM": 1, "GRUP": 2, "OBJL": 121, "RVER": 1, "AGEN": 550, "FIDN": 13981172, "FIDS": 7303, "LNAM": "022600D555F41C87", "NATSUR": [ "1" ], "SCAMIN": 29999, "SORDAT": "20040729", "SORIND": "US,US,graph,H-11310" }, "geometry": { "type": "Point", "coordinates": [ -71.3924306, 41.5329636 ] } },
{ "type": "Feature", "properties": { "RCID": 2507, "PRIM": 1, "GRUP": 2, "OBJL": 121, "RVER": 1, "AGEN": 550, "FIDN": 860794387, "FIDS": 7303, "LNAM": "0226334EAE131C87", "NATSUR": [ "17", "1" ], "SCAMIN": 29999, "SORDAT": "201306", "SORIND": "US,US,graph,Chart  13223" }, "geometry": { "type": "Point", "coordinates": [ -71.3898155, 41.5461729 ] } },
{ "type": "Feature", "properties": { "RCID": 2508, "PRIM": 1, "GRUP": 2, "OBJL": 121, "RVER": 1, "AGEN": 550, "FIDN": 576606837, "FIDS": 7303, "LNAM": "0226225E52751C87", "NATQUA": [ "10" ], "SCAMIN": 29999, "SORDAT": "200504", "SORIND": "US,US,graph,Chart 13223" }, "geometry": { "type": "Point", "coordinates": [ -71.389089, 41.5397721 ] } },
{ "type": "Feature", "properties": { "RCID": 2509, "PRIM": 1, "GRUP": 2, "OBJL": 121, "RVER": 1, "AGEN": 550, "FIDN": 986143045, "FIDS": 7303, "LNAM": "02263AC759451C87", "NATSUR": [ "9" ], "SCAMIN": 29999, "SORDAT": "201306", "SORIND": "US,US,graph,Chart 13223" }, "geometry": { "type": "Point", "coordinates": [ -71.3827416, 41.4782588 ] } },
{ "type": "Feature", "properties": { "RCID": 2510, "PRIM": 1, "GRUP": 2, "OBJL": 121, "RVER": 1, "AGEN": 550, "FIDN": 901028640, "FIDS": 7303, "LNAM": "022635B49B201C87", "NATSUR": [ "9" ], "SCAMIN": 29999, "SORDAT": "201306", "SORIND": "US,US,graph,Chart 13223" }, "geometry": { "type": "Point", "coordinates": [ -71.3555233, 41.4774531 ] } },
{ "type": "Feature", "properties": { "RCID": 2511, "PRIM": 1, "GRUP": 2, "OBJL": 121, "RVER": 1, "AGEN": 550, "FIDN": 431748074, "FIDS": 7303, "LNAM": "022619BBF3EA1C87", "NATSUR": [ "1", "17" ], "SCAMIN": 29999, "SORDAT": "200504", "SORIND": "US,US,graph,chart 13223" }, "geometry": { "type": "Point", "coordinates": [ -71.3521666, 41.5203833 ] } },
{ "type": "Feature", "properties": { "RCID": 2512, "PRIM": 1, "GRUP": 2, "OBJL": 121, "RVER": 1, "AGEN": 550, "FIDN": 627328448, "FIDS": 7303, "LNAM": "0226256445C01C87", "NATSUR": [ "9" ], "SCAMIN": 29999, "SORDAT": "201306", "SORIND": "US,US,graph,Chart 13223" }, "geometry": { "type": "Point", "coordinates": [ -71.3519254, 41.4807392 ] } },
{ "type": "Feature", "properties": { "RCID": 2513, "PRIM": 1, "GRUP": 2, "OBJL": 121, "RVER": 1, "AGEN": 550, "FIDN": 995993816, "FIDS": 7303, "LNAM": "02263B5DA8D81C87", "NATSUR": [ "17" ], "SCAMIN": 29999, "SORDAT": "200504", "SORIND": "US,US,graph,chart 13223" }, "geometry": { "type": "Point", "coordinates": [ -71.3508983, 41.5351297 ] } },
{ "type": "Feature", "properties": { "RCID": 2514, "PRIM": 1, "GRUP": 2, "OBJL": 121, "RVER": 1, "AGEN": 550, "FIDN": 592316747, "FIDS": 7303, "LNAM": "0226234E094B1C87", "NATSUR": [ "9" ], "SCAMIN": 29999, "SORDAT": "201306", "SORIND": "US,US,graph,Chart 13223" }, "geometry": { "type": "Point", "coordinates": [ -71.3338964, 41.5027475 ] } },
{ "type": "Feature", "properties": { "RCID": 2515, "PRIM": 1, "GRUP": 2, "OBJL": 121, "RVER": 1, "AGEN": 550, "FIDN": 75137486, "FIDS": 7303, "LNAM": "0226047A81CE1C87", "NATSUR": [ "1" ], "SCAMIN": 29999, "SORDAT": "200504", "SORIND": "US,US,graph,Chart 13223" }, "geometry": { "type": "Point", "coordinates": [ -71.3976358, 41.51127 ] } },
{ "type": "Feature", "properties": { "RCID": 2516, "PRIM": 1, "GRUP": 2, "OBJL": 121, "RVER": 1, "AGEN": 550, "FIDN": 329527366, "FIDS": 7303, "LNAM": "022613A430461C87", "NATSUR": [ "1" ], "SCAMIN": 29999, "SORDAT": "200504", "SORIND": "US,US,graph,Chart 13223" }, "geometry": { "type": "Point", "coordinates": [ -71.3939278, 41.4955655 ] } },
{ "type": "Feature", "properties": { "RCID": 2517, "PRIM": 1, "GRUP": 2, "OBJL": 121, "RVER": 1, "AGEN": 550, "FIDN": 952521677, "FIDS": 7303, "LNAM": "022638C653CD1C87", "NATQUA": [ "5" ], "SCAMIN": 29999, "SORDAT": "200504", "SORIND": "US,US,graph,Chart 13223" }, "geometry": { "type": "Point", "coordinates": [ -71.3836446, 41.5049917 ] } },
{ "type": "Feature", "properties": { "RCID": 2518, "PRIM": 1, "GRUP": 2, "OBJL": 121, "RVER": 1, "AGEN": 550, "FIDN": 694627963, "FIDS": 7303, "LNAM": "022629672E7B1C87", "NATSUR": [ "9" ], "SCAMIN": 29999, "SORDAT": "201306", "SORIND": "US,US,graph,Chart 13223" }, "geometry": { "type": "Point", "coordinates": [ -71.3614513, 41.4763297 ] } }
]
}
