{
"type": "FeatureCollection",
"name": "WRECKS",
"crs": { "type": "name", "properties": { "name": "urn:ogc:def:crs:OGC:1.3:CRS84" } },
"features": [
{ "type": "Feature", "properties": { "RCID": 568, "PRIM": 3, "GRUP": 2, "OBJL": 159, "RVER": 1, "AGEN": 550, "FIDN": 310560891, "FIDS": 8691, "LNAM": "02261282C87B21F3", "CATWRK": 2, "QUASOU": [ "2" ], "WATLEV": 3, "INFORM": "Position approximate", "SORDAT": "200504", "SORIND": "US,US,graph,Chart 13223" }, "geometry": { "type": "Polygon", "coordinates": [ [ [ -71.3939278, 41.4948001 ], [ -71.3938356, 41.4945461 ], [ -71.393935, 41.4945515 ], [ -71.3940464, 41.4947055 ], [ -71.3940512, 41.4947785 ], [ -71.3939278, 41.4948001 ] ] ] } },
{ "type": "Feature", "properties": { "RCID": 569, "PRIM": 3, "GRUP": 2, "OBJL": 159, "RVER": 1, "AGEN": 550, "FIDN": 270171142, "FIDS": 8691, "LNAM": "0226101A7C0621F3", "CATWRK": 2, "QUASOU": [ "2" ], "WATLEV": 3, "INFORM": "Position approximate", "SORDAT": "200504", "SORIND": "US,US,graph,Chart 13223" }, "geometry": { "type": "Polygon", "coordinates": [ [ [ -71.3932655, 41.4944435 ], [ -71.3934044, 41.4944165 ], [ -71.3935038, 41.494674 ], [ -71.3934356, 41.4948532 ], [ -71.393317, 41.4948514 ], [ -71.3932368, 41.4946947 ], [ -71.3932655, 41.4944435 ] ] ] } },
{ "type": "Feature", "properties": { "RCID": 991, "PRIM": 1, "GRUP": 2, "OBJL": 159, "RVER": 1, "AGEN": 550, "FIDN": 448241564, "FIDS": 7303, "LNAM": "02261AB79F9C1C87", "CATWRK": 2, "EXPSOU": 1, "QUASOU": [ "6" ], "VALSOU": 5.7, "WATLEV": 3, "SORDAT": "201306", "SORIND": "US,US,graph,Chart 13223" }, "geometry": { "type": "Point", "coordinates": [ -71.3259154, 41.4939658 ] } },
{ "type": "Feature", "properties": { "RCID": 992, "PRIM": 1, "GRUP": 2, "OBJL": 159, "RVER": 1, "AGEN": 550, "FIDN": 266554379, "FIDS": 7303, "LNAM": "02260FE34C0B1C87", "CATWRK": 1, "EXPSOU": 1, "QUASOU": [ "6" ], "VALSOU": 30.1, "WATLEV": 3, "SCAMIN": 59999, "SORDAT": "201306", "SORIND": "US,US,graph,Chart 13223" }, "geometry": { "type": "Point", "coordinates": [ -71.3469269, 41.5025268 ] } },
{ "type": "Feature", "properties": { "RCID": 993, "PRIM": 1, "GRUP": 2, "OBJL": 159, "RVER": 1, "AGEN": 550, "FIDN": 9071407, "FIDS": 7303, "LNAM": "0226008A6B2F1C87", "CATWRK": 1, "EXPSOU": 1, "QUASOU": [ "6" ], "VALSOU": 32.6, "WATLEV": 3, "SCAMIN": 59999, "SORDAT": "201306", "SORIND": "US,US,graph,Chart 13223" }, "geometry": { "type": "Point", "coordinates": [ -71.3502658, 41.4919623 ] } },
{ "type": "Feature", "properties": { "RCID": 994, "PRIM": 1, "GRUP": 2, "OBJL": 159, "RVER": 1, "AGEN": 550, "FIDN": 805670808, "FIDS": 7303, "LNAM": "022630058F981C87", "CATWRK": 1, "EXPSOU": 1, "QUASOU": [ "6" ], "VALSOU": 25.6, "WATLEV": 3, "SCAMIN": 59999, "SORDAT": "200504", "SORIND": "US,US,graph,Chart 13223" }, "geometry": { "type": "Point", "coordinates": [ -71.3457723, 41.512759 ] } },
{ "type": "Feature", "properties": { "RCID": 995, "PRIM": 1, "GRUP": 2, "OBJL": 159, "RVER": 1, "AGEN": 550, "FIDN": 479916846, "FIDS": 7303, "LNAM": "02261C9AF32E1C87", "CATWRK": 2, "EXPSOU": 1, "QUASOU": [ "6" ], "VALSOU": 12.1, "WATLEV": 3, "SORDAT": "201306", "SORIND": "US,US,graph,Chart 13223" }, "geometry": { "type": "Point", "coordinates": [ -71.3250333, 41.5329639 ] } }
]
}
