{
"type": "FeatureCollection",
"name": "BUAARE",
"crs": { "type": "name", "properties": { "name": "urn:ogc:def:crs:OGC:1.3:CRS84" } },
"features": [
{ "type": "Feature", "properties": { "RCID": 403, "PRIM": 3, "GRUP": 2, "OBJL": 13, "RVER": 1, "AGEN": 550, "FIDN": 101731908, "FIDS": 8691, "LNAM": "022606104E4421F3", "CATBUA": 1, "OBJNAM": "Fox Hill", "SCAMIN": 29999, "SORDAT": "200504", "SORIND": "US,US,graph,Chart 13223" }, "geometry": { "type": "Polygon", "coordinates": [ [ [ -71.3961868, 41.49467 ], [ -71.3961733, 41.4947227 ], [ -71.396225, 41.4947316 ], [ -71.3965306, 41.4947839 ], [ -71.3965337, 41.4947745 ], [ -71.3966347, 41.494467 ], [ -71.3967397, 41.494385 ], [ -71.396781, 41.4942803 ], [ -71.3968114, 41.4942052 ], [ -71.3968604, 41.4940448 ], [ -71.3970101, 41.4936204 ], [ -71.3972779, 41.4932932 ], [ -71.3975423, 41.4932166 ], [ -71.3979218, 41.4932219 ], [ -71.3983318, 41.4932276 ], [ -71.3984553, 41.4932293 ], [ -71.3996585, 41.4924995 ], [ -71.3997697, 41.4922515 ], [ -71.3999782, 41.4920242 ], [ -71.4, 41.491844 ], [ -71.4, 41.4915926 ], [ -71.4, 41.4902403 ], [ -71.4, 41.4900277 ], [ -71.4, 41.4894336 ], [ -71.3985077, 41.4894133 ], [ -71.3968335, 41.4923873 ], [ -71.3967309, 41.4925696 ], [ -71.3968507, 41.4928132 ], [ -71.3968158, 41.4932627 ], [ -71.396697, 41.493491 ], [ -71.3966631, 41.4935561 ], [ -71.3966108, 41.4936565 ], [ -71.3965937, 41.4937237 ], [ -71.3965728, 41.4938059 ], [ -71.3965474, 41.4939058 ], [ -71.3964607, 41.4942467 ], [ -71.3964799, 41.4943582 ], [ -71.3965242, 41.4944483 ], [ -71.3964549, 41.4946548 ], [ -71.396322, 41.4946321 ], [ -71.3962018, 41.4946115 ], [ -71.3961868, 41.49467 ] ] ] } },
{ "type": "Feature", "properties": { "RCID": 404, "PRIM": 3, "GRUP": 2, "OBJL": 13, "RVER": 1, "AGEN": 550, "FIDN": 234016657, "FIDS": 8691, "LNAM": "02260DF2CF9121F3", "CATBUA": 4, "OBJNAM": "Jamestown", "SCAMIN": 29999, "SORDAT": "200504", "SORIND": "US,US,graph,Chart 13223" }, "geometry": { "type": "Polygon", "coordinates": [ [ [ -71.3662219, 41.4990253 ], [ -71.3660875, 41.4991501 ], [ -71.3660095, 41.499211 ], [ -71.3657615, 41.4993475 ], [ -71.365577, 41.4994078 ], [ -71.3654417, 41.4994977 ], [ -71.3653719, 41.4995811 ], [ -71.3652991, 41.4996841 ], [ -71.3652173, 41.4998076 ], [ -71.3659133, 41.4998064 ], [ -71.3659133, 41.5004178 ], [ -71.3683865, 41.5004799 ], [ -71.3684404, 41.5019889 ], [ -71.3744143, 41.5018665 ], [ -71.3743604, 41.5046422 ], [ -71.3789787, 41.5045863 ], [ -71.3796159, 41.5040251 ], [ -71.3802742, 41.5036908 ], [ -71.3808179, 41.5034146 ], [ -71.3818148, 41.5026566 ], [ -71.382135, 41.5024894 ], [ -71.3823165, 41.5020718 ], [ -71.382437, 41.5019001 ], [ -71.3831203, 41.5009264 ], [ -71.3835068, 41.5003757 ], [ -71.3837356, 41.5001475 ], [ -71.3837919, 41.4995292 ], [ -71.3843041, 41.4986194 ], [ -71.3843823, 41.4981833 ], [ -71.3844254, 41.4979427 ], [ -71.3845173, 41.4977876 ], [ -71.384705, 41.497471 ], [ -71.3846591, 41.4970296 ], [ -71.3848466, 41.4967645 ], [ -71.3848912, 41.4967014 ], [ -71.3850113, 41.4965316 ], [ -71.3850839, 41.4964291 ], [ -71.3852053, 41.4962574 ], [ -71.3852423, 41.4962051 ], [ -71.3852469, 41.4962039 ], [ -71.3855607, 41.496122 ], [ -71.385794, 41.4961226 ], [ -71.3858837, 41.49603 ], [ -71.3859706, 41.4959337 ], [ -71.3859157, 41.4958939 ], [ -71.3858614, 41.4958546 ], [ -71.385748, 41.4958841 ], [ -71.3857006, 41.4958869 ], [ -71.3855819, 41.4958939 ], [ -71.3854159, 41.4959038 ], [ -71.3853758, 41.4959034 ], [ -71.3852136, 41.495902 ], [ -71.3850877, 41.4959008 ], [ -71.3848618, 41.4958988 ], [ -71.3847176, 41.4958764 ], [ -71.3846957, 41.4958731 ], [ -71.3838818, 41.4958779 ], [ -71.3836303, 41.4945569 ], [ -71.3837908, 41.4938366 ], [ -71.3803667, 41.492738 ], [ -71.3794086, 41.4928082 ], [ -71.3773761, 41.4921383 ], [ -71.3702525, 41.4916916 ], [ -71.365365, 41.4922146 ], [ -71.3652431, 41.4922277 ], [ -71.3652536, 41.4922376 ], [ -71.3653386, 41.492318 ], [ -71.3654042, 41.492364 ], [ -71.3655455, 41.4925327 ], [ -71.3656839, 41.4927123 ], [ -71.3657147, 41.4927597 ], [ -71.3663576, 41.4937462 ], [ -71.3663635, 41.4937553 ], [ -71.3669479, 41.494652 ], [ -71.367012, 41.4951259 ], [ -71.3668732, 41.4955474 ], [ -71.3667082, 41.4955094 ], [ -71.3665573, 41.4955092 ], [ -71.3665315, 41.4955091 ], [ -71.3665299, 41.495615 ], [ -71.3664988, 41.4956295 ], [ -71.3663288, 41.4957086 ], [ -71.3661338, 41.4956215 ], [ -71.3662934, 41.495809 ], [ -71.3663043, 41.4958218 ], [ -71.366377, 41.4958243 ], [ -71.3666625, 41.4958341 ], [ -71.3668245, 41.4961735 ], [ -71.3665845, 41.4961892 ], [ -71.3664599, 41.4961921 ], [ -71.3664579, 41.4963075 ], [ -71.3664569, 41.4963661 ], [ -71.3664555, 41.4964504 ], [ -71.3664544, 41.4965095 ], [ -71.3665788, 41.4965216 ], [ -71.3665789, 41.4965217 ], [ -71.3667185, 41.4967518 ], [ -71.3667142, 41.4970714 ], [ -71.3667129, 41.4971672 ], [ -71.3667035, 41.49786 ], [ -71.3665525, 41.498407 ], [ -71.3663101, 41.4988603 ], [ -71.3662219, 41.4990253 ] ] ] } }
]
}
