{
"type": "FeatureCollection",
"name": "CTNARE",
"crs": { "type": "name", "properties": { "name": "urn:ogc:def:crs:OGC:1.3:CRS84" } },
"features": [
{ "type": "Feature", "properties": { "RCID": 523, "PRIM": 3, "GRUP": 2, "OBJL": 27, "RVER": 1, "AGEN": 550, "FIDN": 862253980, "FIDS": 5632, "LNAM": "02263364F39C1600", "INFORM": "Cables are under construction. Mariners are advised to use caution, as construction equipment and support vessels may be working and moving in the area.", "SCAMIN": 89999, "SORDAT": "20231215", "SORIND": "US,US,reprt,L-301-2023" }, "geometry": { "type": "Polygon", "coordinates": [ [ [ -71.4, 41.5116499 ], [ -71.4, 41.5123319 ], [ -71.4, 41.5124692 ], [ -71.4, 41.513873 ], [ -71.4, 41.5151805 ], [ -71.4, 41.515277 ], [ -71.4, 41.516768 ], [ -71.4, 41.5239211 ], [ -71.4, 41.5240498 ], [ -71.4, 41.5241277 ], [ -71.4, 41.5245937 ], [ -71.4, 41.5252408 ], [ -71.4, 41.5252828 ], [ -71.4, 41.5252968 ], [ -71.4, 41.5260246 ], [ -71.4, 41.5263351 ], [ -71.4, 41.5270925 ], [ -71.4, 41.5275925 ], [ -71.4, 41.5276991 ], [ -71.4, 41.5277826 ], [ -71.4, 41.5279707 ], [ -71.4, 41.5281124 ], [ -71.4, 41.5328014 ], [ -71.4, 41.5330649 ], [ -71.4, 41.5353982 ], [ -71.4, 41.5355025 ], [ -71.4, 41.5356388 ], [ -71.4, 41.537439 ], [ -71.4, 41.5401282 ], [ -71.4, 41.5411419 ], [ -71.4, 41.5428782 ], [ -71.4, 41.5434778 ], [ -71.4, 41.5443037 ], [ -71.4, 41.549852 ], [ -71.4, 41.55 ], [ -71.3999643, 41.55 ], [ -71.3999478, 41.55 ], [ -71.3977531, 41.55 ], [ -71.3972651, 41.55 ], [ -71.3966202, 41.55 ], [ -71.3955113, 41.55 ], [ -71.3953523, 41.55 ], [ -71.3948799, 41.55 ], [ -71.3947973, 41.55 ], [ -71.3941124, 41.55 ], [ -71.3940913, 41.5499004 ], [ -71.3940368, 41.5496092 ], [ -71.3939835, 41.5492472 ], [ -71.3939483, 41.5489191 ], [ -71.3933379, 41.5417194 ], [ -71.3933279, 41.5416206 ], [ -71.3933183, 41.541551 ], [ -71.3933064, 41.5414817 ], [ -71.3932921, 41.5414126 ], [ -71.3932685, 41.5413151 ], [ -71.3913661, 41.5340024 ], [ -71.3912979, 41.5336782 ], [ -71.3909928, 41.5317771 ], [ -71.3909509, 41.5314775 ], [ -71.3909166, 41.5311452 ], [ -71.3908949, 41.5308124 ], [ -71.3908859, 41.5304791 ], [ -71.3908882, 41.53021 ], [ -71.3908924, 41.5301135 ], [ -71.390892, 41.5300818 ], [ -71.3909037, 41.5298448 ], [ -71.3909303, 41.5294508 ], [ -71.3909574, 41.5291445 ], [ -71.391, 41.5288065 ], [ -71.3910556, 41.5284695 ], [ -71.3911241, 41.5281338 ], [ -71.3912056, 41.5277998 ], [ -71.3912905, 41.5274996 ], [ -71.3917668, 41.5259344 ], [ -71.3918629, 41.5256705 ], [ -71.3918852, 41.5256092 ], [ -71.3920135, 41.5252569 ], [ -71.3920462, 41.5251671 ], [ -71.392223, 41.5246815 ], [ -71.3922235, 41.52468 ], [ -71.3922441, 41.5245162 ], [ -71.39229, 41.524149 ], [ -71.3935427, 41.5193456 ], [ -71.3936315, 41.5190322 ], [ -71.3937432, 41.5186877 ], [ -71.3938686, 41.5183459 ], [ -71.3940078, 41.5180072 ], [ -71.3941606, 41.5176717 ], [ -71.3942942, 41.5174036 ], [ -71.3943488, 41.5173019 ], [ -71.3943607, 41.5172767 ], [ -71.3945063, 41.5170121 ], [ -71.394699, 41.5166884 ], [ -71.3949046, 41.5163693 ], [ -71.395123, 41.5160551 ], [ -71.3953539, 41.5157459 ], [ -71.3955971, 41.5154421 ], [ -71.3958525, 41.5151441 ], [ -71.3961198, 41.5148519 ], [ -71.3963988, 41.514566 ], [ -71.3966891, 41.5142866 ], [ -71.3969906, 41.5140139 ], [ -71.3973029, 41.5137482 ], [ -71.3976257, 41.5134897 ], [ -71.3979589, 41.5132387 ], [ -71.398302, 41.5129954 ], [ -71.3985864, 41.5128049 ], [ -71.3987132, 41.5127226 ], [ -71.3987239, 41.5127159 ], [ -71.3989816, 41.5125543 ], [ -71.3990066, 41.5125391 ], [ -71.3992257, 41.5123886 ], [ -71.3993416, 41.5123064 ], [ -71.399421, 41.5122465 ], [ -71.3994979, 41.5121847 ], [ -71.3995721, 41.5121212 ], [ -71.3996437, 41.512056 ], [ -71.3997125, 41.5119891 ], [ -71.3997785, 41.5119206 ], [ -71.3998416, 41.5118506 ], [ -71.3999017, 41.5117791 ], [ -71.3999589, 41.5117063 ], [ -71.4, 41.5116499 ] ] ] } },
{ "type": "Feature", "properties": { "RCID": 524, "PRIM": 3, "GRUP": 2, "OBJL": 27, "RVER": 1, "AGEN": 550, "FIDN": 299351092, "FIDS": 8691, "LNAM": "022611D7BC3421F3", "INFORM": "Fish trap area and structures", "SCAMIN": 89999, "TXTDSC": "US412DDF.TXT", "SORDAT": "200504", "SORIND": "US,US,graph,Chart 13223" }, "geometry": { "type": "Polygon", "coordinates": [ [ [ -71.3582474, 41.4773222 ], [ -71.3579055, 41.4774364 ], [ -71.3580257, 41.4774512 ], [ -71.3582474, 41.4773222 ] ] ] } },
{ "type": "Feature", "properties": { "RCID": 525, "PRIM": 3, "GRUP": 2, "OBJL": 27, "RVER": 1, "AGEN": 550, "FIDN": 268724815, "FIDS": 8691, "LNAM": "022610046A4F21F3", "INFORM": "Fish trap area and structures", "SCAMIN": 89999, "TXTDSC": "US412DDF.TXT", "SORDAT": "200504", "SORIND": "US,US,graph,Chart 13223" }, "geometry": { "type": "Polygon", "coordinates": [ [ [ -71.3611978, 41.4775721 ], [ -71.36109, 41.4775655 ], [ -71.3607122, 41.4777537 ], [ -71.3604913, 41.4783962 ], [ -71.3602855, 41.4785903 ], [ -71.3603694, 41.4787134 ], [ -71.3603332, 41.4788356 ], [ -71.3598594, 41.4788931 ], [ -71.3597041, 41.4790655 ], [ -71.359457, 41.4791594 ], [ -71.3591605, 41.4791768 ], [ -71.3589044, 41.4789912 ], [ -71.3587358, 41.4789896 ], [ -71.3586244, 41.4788502 ], [ -71.358844, 41.4784854 ], [ -71.3593679, 41.478111 ], [ -71.359457, 41.4780473 ], [ -71.3595014, 41.4780156 ], [ -71.3595008, 41.4778581 ], [ -71.3592869, 41.4777606 ], [ -71.3593752, 41.4773905 ], [ -71.3592491, 41.4772407 ], [ -71.3591443, 41.4771163 ], [ -71.3589745, 41.4771571 ], [ -71.3589146, 41.4774069 ], [ -71.3585976, 41.4771822 ], [ -71.3590701, 41.4769918 ], [ -71.3590987, 41.476981 ], [ -71.3592139, 41.4769375 ], [ -71.3595328, 41.476817 ], [ -71.3596319, 41.4767795 ], [ -71.359753, 41.4767338 ], [ -71.3602474, 41.476547 ], [ -71.3635826, 41.4752866 ], [ -71.3643373, 41.475 ], [ -71.3648634, 41.475 ], [ -71.3653043, 41.475 ], [ -71.365305, 41.475 ], [ -71.3679581, 41.475 ], [ -71.368039, 41.475 ], [ -71.3683126, 41.475 ], [ -71.3688739, 41.475 ], [ -71.3689218, 41.475 ], [ -71.3708965, 41.475 ], [ -71.3709681, 41.475 ], [ -71.3710105, 41.475 ], [ -71.3714507, 41.475 ], [ -71.3714993, 41.475 ], [ -71.371524, 41.475 ], [ -71.3723292, 41.475 ], [ -71.3723482, 41.475 ], [ -71.3724073, 41.475 ], [ -71.3724832, 41.475 ], [ -71.372556, 41.475 ], [ -71.37257, 41.475 ], [ -71.3726688, 41.475 ], [ -71.3726813, 41.475 ], [ -71.3726909, 41.475 ], [ -71.3729296, 41.475 ], [ -71.3727722, 41.4752605 ], [ -71.3727724, 41.4756315 ], [ -71.3728014, 41.4757089 ], [ -71.3728093, 41.4757299 ], [ -71.3728596, 41.4758642 ], [ -71.3729001, 41.4759725 ], [ -71.3729957, 41.4760345 ], [ -71.3731039, 41.4761047 ], [ -71.3730633, 41.4761346 ], [ -71.3729213, 41.4762392 ], [ -71.3729992, 41.4762839 ], [ -71.3730882, 41.4765131 ], [ -71.3731106, 41.4765709 ], [ -71.3730976, 41.4766009 ], [ -71.3730631, 41.4766803 ], [ -71.3729275, 41.4767977 ], [ -71.3728746, 41.4768436 ], [ -71.3726981, 41.4768203 ], [ -71.3726562, 41.4768148 ], [ -71.3724476, 41.4769033 ], [ -71.3722075, 41.4773768 ], [ -71.3722, 41.4773916 ], [ -71.3722809, 41.4774886 ], [ -71.3723463, 41.477567 ], [ -71.3718647, 41.47775 ], [ -71.3716867, 41.4777043 ], [ -71.3716611, 41.4776977 ], [ -71.371659, 41.4777198 ], [ -71.3716397, 41.4779242 ], [ -71.3714195, 41.477887 ], [ -71.3711132, 41.4780037 ], [ -71.3709924, 41.4779205 ], [ -71.3709555, 41.4780736 ], [ -71.370846, 41.4781307 ], [ -71.370813, 41.4780909 ], [ -71.3706618, 41.4779094 ], [ -71.370652, 41.4779272 ], [ -71.370576, 41.4780667 ], [ -71.3703654, 41.4779566 ], [ -71.3701453, 41.4780128 ], [ -71.3696099, 41.4778739 ], [ -71.3695573, 41.4778817 ], [ -71.3693555, 41.4779117 ], [ -71.3692421, 41.4779285 ], [ -71.3691547, 41.4777808 ], [ -71.3691372, 41.4777512 ], [ -71.368978, 41.4777892 ], [ -71.3689163, 41.4778039 ], [ -71.3686911, 41.4777064 ], [ -71.3686123, 41.4778585 ], [ -71.3684758, 41.4779447 ], [ -71.368438, 41.4779686 ], [ -71.3682571, 41.4779306 ], [ -71.3681078, 41.4777903 ], [ -71.3679386, 41.4777815 ], [ -71.3677837, 41.4778649 ], [ -71.3674754, 41.4777165 ], [ -71.3674721, 41.477715 ], [ -71.3674472, 41.4777112 ], [ -71.3671135, 41.4776609 ], [ -71.3670884, 41.4776179 ], [ -71.3670435, 41.4775408 ], [ -71.3670681, 41.4774315 ], [ -71.3670433, 41.4774308 ], [ -71.3667603, 41.477422 ], [ -71.3669018, 41.4772448 ], [ -71.3665172, 41.4772961 ], [ -71.3664151, 41.4775421 ], [ -71.3663626, 41.477545 ], [ -71.3662941, 41.4775489 ], [ -71.3662289, 41.4775526 ], [ -71.3662359, 41.4773787 ], [ -71.3661576, 41.4772083 ], [ -71.3661004, 41.4770837 ], [ -71.3660926, 41.4770666 ], [ -71.3660764, 41.4770314 ], [ -71.3660429, 41.4769585 ], [ -71.3659976, 41.4769945 ], [ -71.365853, 41.4771094 ], [ -71.365837, 41.4768997 ], [ -71.365836, 41.4768859 ], [ -71.3658228, 41.476892 ], [ -71.3655651, 41.4770117 ], [ -71.365273, 41.4770411 ], [ -71.3651366, 41.476944 ], [ -71.3649903, 41.4768398 ], [ -71.3645189, 41.4767025 ], [ -71.3643131, 41.4767836 ], [ -71.3642014, 41.4770097 ], [ -71.3641983, 41.4770088 ], [ -71.3641119, 41.4769823 ], [ -71.3640891, 41.4769753 ], [ -71.3641032, 41.4768748 ], [ -71.3640382, 41.4767993 ], [ -71.3634819, 41.4771347 ], [ -71.3634306, 41.4772437 ], [ -71.3633825, 41.477346 ], [ -71.3633788, 41.477354 ], [ -71.3633856, 41.4773564 ], [ -71.3638288, 41.4775151 ], [ -71.3638538, 41.4777117 ], [ -71.3633804, 41.4780087 ], [ -71.3633613, 41.478096 ], [ -71.3625226, 41.478484 ], [ -71.3624898, 41.4785615 ], [ -71.362577, 41.4786366 ], [ -71.362561, 41.4788073 ], [ -71.3626317, 41.4789194 ], [ -71.362564, 41.4790143 ], [ -71.3624305, 41.4790071 ], [ -71.3623351, 41.4791928 ], [ -71.3619119, 41.4791614 ], [ -71.3616833, 41.4792958 ], [ -71.3618125, 41.4794167 ], [ -71.3617777, 41.4795181 ], [ -71.3615199, 41.4796045 ], [ -71.3610858, 41.4794735 ], [ -71.3608958, 41.4792039 ], [ -71.3610622, 41.4790878 ], [ -71.3610882, 41.4790697 ], [ -71.3611605, 41.4790193 ], [ -71.361185, 41.4789433 ], [ -71.3612037, 41.478885 ], [ -71.3612088, 41.4788692 ], [ -71.3614839, 41.4786639 ], [ -71.3614694, 41.4785014 ], [ -71.3614786, 41.4784729 ], [ -71.3614944, 41.4784237 ], [ -71.3616145, 41.4780504 ], [ -71.3615592, 41.4779087 ], [ -71.3615506, 41.4778868 ], [ -71.3615116, 41.4778878 ], [ -71.3612124, 41.4778952 ], [ -71.3614264, 41.4777046 ], [ -71.3613857, 41.4776188 ], [ -71.3613686, 41.4775827 ], [ -71.3613267, 41.4775801 ], [ -71.3611978, 41.4775721 ] ], [ [ -71.3614328, 41.4768605 ], [ -71.3616245, 41.4768522 ], [ -71.3617681, 41.4767595 ], [ -71.3614802, 41.4770517 ], [ -71.3614936, 41.4771973 ], [ -71.3611814, 41.4772924 ], [ -71.3610809, 41.4772415 ], [ -71.361097, 41.4771567 ], [ -71.3613566, 41.4770212 ], [ -71.3614328, 41.4768605 ] ] ] } },
{ "type": "Feature", "properties": { "RCID": 526, "PRIM": 3, "GRUP": 2, "OBJL": 27, "RVER": 1, "AGEN": 550, "FIDN": 37194445, "FIDS": 8691, "LNAM": "022602378ACD21F3", "INFORM": "Fish trap area and structures", "SCAMIN": 89999, "TXTDSC": "US412DDF.TXT", "SORDAT": "200504", "SORIND": "US,US,graph,Chart 13223" }, "geometry": { "type": "Polygon", "coordinates": [ [ [ -71.3765599, 41.4776058 ], [ -71.3765397, 41.4774386 ], [ -71.3765212, 41.4772858 ], [ -71.3764919, 41.4770435 ], [ -71.3765845, 41.4769426 ], [ -71.3768129, 41.4768905 ], [ -71.3769134, 41.4768676 ], [ -71.3769782, 41.4766111 ], [ -71.377009, 41.4764892 ], [ -71.3771238, 41.4764321 ], [ -71.3772388, 41.4763748 ], [ -71.3772578, 41.4763654 ], [ -71.3772614, 41.4763415 ], [ -71.3772834, 41.4761956 ], [ -71.3770449, 41.4760928 ], [ -71.3768226, 41.4761308 ], [ -71.3766086, 41.4761675 ], [ -71.3765011, 41.4761859 ], [ -71.3764077, 41.4762019 ], [ -71.3762863, 41.4764012 ], [ -71.3761543, 41.476378 ], [ -71.3760521, 41.4762611 ], [ -71.3759833, 41.4761824 ], [ -71.3759529, 41.4760781 ], [ -71.3758735, 41.4758059 ], [ -71.3758585, 41.4757547 ], [ -71.3758465, 41.4757134 ], [ -71.3759242, 41.4754641 ], [ -71.3762695, 41.4751823 ], [ -71.3762923, 41.4751637 ], [ -71.3764751, 41.4750145 ], [ -71.3766094, 41.4750696 ], [ -71.376621, 41.4752092 ], [ -71.3767181, 41.4751733 ], [ -71.376742, 41.4751645 ], [ -71.3767846, 41.4751111 ], [ -71.3768665, 41.4750084 ], [ -71.3768654, 41.475 ], [ -71.3770016, 41.475 ], [ -71.3770443, 41.475 ], [ -71.3770566, 41.475 ], [ -71.3770982, 41.475 ], [ -71.3771127, 41.475 ], [ -71.3771376, 41.475 ], [ -71.3771853, 41.475 ], [ -71.3772512, 41.475 ], [ -71.3772824, 41.475 ], [ -71.3773125, 41.475 ], [ -71.3809099, 41.475 ], [ -71.3812153, 41.475 ], [ -71.3812329, 41.475 ], [ -71.3813764, 41.475 ], [ -71.3821517, 41.475 ], [ -71.3821933, 41.475 ], [ -71.3822237, 41.475 ], [ -71.3823003, 41.475 ], [ -71.3823612, 41.475 ], [ -71.3825443, 41.475 ], [ -71.3827129, 41.475 ], [ -71.3828854, 41.475 ], [ -71.3829202, 41.475 ], [ -71.3832338, 41.475 ], [ -71.3832308, 41.4750162 ], [ -71.383423, 41.4751484 ], [ -71.3833446, 41.4753064 ], [ -71.3834973, 41.4755506 ], [ -71.383585, 41.4755945 ], [ -71.3836693, 41.4756367 ], [ -71.3836981, 41.4757025 ], [ -71.3838135, 41.4759665 ], [ -71.3839136, 41.4761954 ], [ -71.3839774, 41.4763413 ], [ -71.3840267, 41.4763853 ], [ -71.3841786, 41.4765212 ], [ -71.3842595, 41.4766969 ], [ -71.3842626, 41.476791 ], [ -71.3842643, 41.4768402 ], [ -71.3841491, 41.4770203 ], [ -71.3841588, 41.4770386 ], [ -71.3842189, 41.4771524 ], [ -71.3843595, 41.4771591 ], [ -71.3843039, 41.4773096 ], [ -71.3842979, 41.4773259 ], [ -71.3842529, 41.4774479 ], [ -71.3842045, 41.4775791 ], [ -71.3842828, 41.4777556 ], [ -71.3842951, 41.4777833 ], [ -71.3843131, 41.477824 ], [ -71.3841383, 41.4779287 ], [ -71.3841094, 41.4780234 ], [ -71.3841723, 41.4781145 ], [ -71.3843695, 41.4781023 ], [ -71.3844467, 41.478227 ], [ -71.3845656, 41.4784189 ], [ -71.3845552, 41.4787389 ], [ -71.3846305, 41.4788191 ], [ -71.3846752, 41.4788667 ], [ -71.384672, 41.4788884 ], [ -71.3846442, 41.4790821 ], [ -71.3847389, 41.4791676 ], [ -71.3847026, 41.479331 ], [ -71.3846957, 41.4793624 ], [ -71.3846956, 41.4793628 ], [ -71.3846956, 41.479363 ], [ -71.3847043, 41.4794066 ], [ -71.3847934, 41.4798545 ], [ -71.3847834, 41.4798771 ], [ -71.3846958, 41.4800755 ], [ -71.3846954, 41.4800764 ], [ -71.3846975, 41.4800834 ], [ -71.3847513, 41.4802647 ], [ -71.384784, 41.4803749 ], [ -71.3847666, 41.4804491 ], [ -71.3847382, 41.4805698 ], [ -71.3848233, 41.4806724 ], [ -71.384737, 41.4809173 ], [ -71.3847261, 41.4809484 ], [ -71.384729, 41.4809544 ], [ -71.384781, 41.481063 ], [ -71.3847547, 41.481149 ], [ -71.3847071, 41.4813046 ], [ -71.3847254, 41.4814286 ], [ -71.3847613, 41.4816724 ], [ -71.3847196, 41.4818262 ], [ -71.3847042, 41.4818827 ], [ -71.3847265, 41.4819546 ], [ -71.384742, 41.4820044 ], [ -71.3847665, 41.4820833 ], [ -71.3847139, 41.4821955 ], [ -71.3846714, 41.482286 ], [ -71.3846692, 41.4822907 ], [ -71.3846773, 41.4822969 ], [ -71.3847608, 41.4823612 ], [ -71.3848743, 41.4831937 ], [ -71.3853205, 41.4841495 ], [ -71.3853163, 41.4841902 ], [ -71.3852994, 41.4843555 ], [ -71.3852714, 41.484629 ], [ -71.3853269, 41.4849521 ], [ -71.3853605, 41.4851476 ], [ -71.3853737, 41.4852247 ], [ -71.3855186, 41.4854277 ], [ -71.3855848, 41.485478 ], [ -71.3856821, 41.4855519 ], [ -71.3858699, 41.4856946 ], [ -71.3859158, 41.4857295 ], [ -71.3860057, 41.4857978 ], [ -71.386055, 41.4858799 ], [ -71.3860681, 41.4859016 ], [ -71.3861716, 41.4860739 ], [ -71.3862511, 41.4862063 ], [ -71.3862933, 41.4862765 ], [ -71.3863913, 41.4864397 ], [ -71.3863668, 41.4869354 ], [ -71.3862201, 41.4874946 ], [ -71.3860412, 41.4877745 ], [ -71.3857809, 41.4879859 ], [ -71.38478, 41.4884696 ], [ -71.3843155, 41.4885866 ], [ -71.3836904, 41.4887441 ], [ -71.3825522, 41.4888038 ], [ -71.3825329, 41.4888048 ], [ -71.3814443, 41.4887113 ], [ -71.3810829, 41.4886258 ], [ -71.3808348, 41.4883972 ], [ -71.3807497, 41.4883189 ], [ -71.3806549, 41.4882314 ], [ -71.3806283, 41.4881974 ], [ -71.3805383, 41.4880818 ], [ -71.3801891, 41.4876338 ], [ -71.3801887, 41.4876315 ], [ -71.3801589, 41.487459 ], [ -71.3798983, 41.4872131 ], [ -71.3798653, 41.487182 ], [ -71.3797326, 41.4870568 ], [ -71.3797053, 41.4870311 ], [ -71.3796225, 41.4869529 ], [ -71.3795811, 41.4868847 ], [ -71.3795418, 41.4868201 ], [ -71.3795153, 41.4867765 ], [ -71.3794529, 41.4866737 ], [ -71.3794303, 41.4866364 ], [ -71.3793266, 41.4864658 ], [ -71.3791687, 41.4862057 ], [ -71.379115, 41.4861173 ], [ -71.3790857, 41.486069 ], [ -71.3790854, 41.4860686 ], [ -71.379085, 41.4860356 ], [ -71.3790845, 41.4859942 ], [ -71.3790795, 41.4856181 ], [ -71.3790789, 41.4855722 ], [ -71.3790788, 41.485563 ], [ -71.3790555, 41.4854863 ], [ -71.3790534, 41.4854795 ], [ -71.3790355, 41.4854208 ], [ -71.3790252, 41.4853867 ], [ -71.3789125, 41.4850168 ], [ -71.3789082, 41.4850025 ], [ -71.378909, 41.484962 ], [ -71.3789166, 41.484563 ], [ -71.3789037, 41.4845053 ], [ -71.378835, 41.4841985 ], [ -71.3788162, 41.4841145 ], [ -71.3787187, 41.4839378 ], [ -71.3785745, 41.4836767 ], [ -71.3785655, 41.4836603 ], [ -71.3785657, 41.4836515 ], [ -71.3785694, 41.483528 ], [ -71.3785721, 41.4834381 ], [ -71.3783406, 41.4831632 ], [ -71.3782191, 41.4829243 ], [ -71.3782126, 41.4829116 ], [ -71.378039, 41.4825703 ], [ -71.3780325, 41.4825575 ], [ -71.3780219, 41.4817108 ], [ -71.3778687, 41.4812704 ], [ -71.3778762, 41.4812603 ], [ -71.3780542, 41.4810229 ], [ -71.3781359, 41.4809138 ], [ -71.3783328, 41.4803954 ], [ -71.3781142, 41.4802472 ], [ -71.3779408, 41.4801297 ], [ -71.3779157, 41.4801127 ], [ -71.3780483, 41.4796517 ], [ -71.3780623, 41.4796028 ], [ -71.3780796, 41.4795427 ], [ -71.3781491, 41.4793009 ], [ -71.378042, 41.4792536 ], [ -71.3776853, 41.4790962 ], [ -71.3776233, 41.4789949 ], [ -71.3775853, 41.4789329 ], [ -71.3775147, 41.4788177 ], [ -71.3771398, 41.4787345 ], [ -71.3771341, 41.4787155 ], [ -71.377104, 41.4786137 ], [ -71.3770511, 41.4784349 ], [ -71.376881, 41.4784764 ], [ -71.3768537, 41.4784831 ], [ -71.3767637, 41.478505 ], [ -71.3767632, 41.4785052 ], [ -71.3767628, 41.4785049 ], [ -71.3765529, 41.4783301 ], [ -71.3765536, 41.4783271 ], [ -71.3766136, 41.4780493 ], [ -71.3766068, 41.4779934 ], [ -71.3765878, 41.4778362 ], [ -71.3765599, 41.4776058 ] ] ] } },
{ "type": "Feature", "properties": { "RCID": 527, "PRIM": 3, "GRUP": 2, "OBJL": 27, "RVER": 1, "AGEN": 550, "FIDN": 386393848, "FIDS": 8691, "LNAM": "02261707E6F821F3", "INFORM": "Fish trap area and structures", "SCAMIN": 89999, "TXTDSC": "US412DDF.TXT", "SORDAT": "200504", "SORIND": "US,US,graph,Chart 13223" }, "geometry": { "type": "Polygon", "coordinates": [ [ [ -71.3548084, 41.4787427 ], [ -71.3549704, 41.4787023 ], [ -71.3550562, 41.4787505 ], [ -71.3550596, 41.4787525 ], [ -71.3550518, 41.4787622 ], [ -71.354943, 41.4788984 ], [ -71.3548961, 41.4789571 ], [ -71.35489, 41.4789769 ], [ -71.3548154, 41.4792185 ], [ -71.3545689, 41.4791706 ], [ -71.354639, 41.4793792 ], [ -71.3546785, 41.4794987 ], [ -71.3546848, 41.4795179 ], [ -71.3547308, 41.4796562 ], [ -71.3547846, 41.4798232 ], [ -71.3547961, 41.4798571 ], [ -71.3548345, 41.4799752 ], [ -71.3548503, 41.4800592 ], [ -71.3549929, 41.4798669 ], [ -71.3553081, 41.4796604 ], [ -71.3562112, 41.4794 ], [ -71.3562326, 41.4794972 ], [ -71.356407, 41.4794888 ], [ -71.3564246, 41.4796903 ], [ -71.3565215, 41.4796162 ], [ -71.3565806, 41.4795709 ], [ -71.3567343, 41.4794532 ], [ -71.3568561, 41.4794977 ], [ -71.3570758, 41.4797629 ], [ -71.3571547, 41.4797621 ], [ -71.3574087, 41.4797594 ], [ -71.3576137, 41.4796781 ], [ -71.3577204, 41.4795594 ], [ -71.3577281, 41.4795282 ], [ -71.3578191, 41.4791592 ], [ -71.3578425, 41.4790642 ], [ -71.3578614, 41.4789873 ], [ -71.3578544, 41.4789735 ], [ -71.3578095, 41.4788857 ], [ -71.3577456, 41.4788657 ], [ -71.3577329, 41.4788617 ], [ -71.3576968, 41.4788503 ], [ -71.3574781, 41.4788456 ], [ -71.3574683, 41.4788454 ], [ -71.3571825, 41.4788382 ], [ -71.3570716, 41.4788355 ], [ -71.3570792, 41.4789665 ], [ -71.3569756, 41.4789639 ], [ -71.3568776, 41.4789614 ], [ -71.3569158, 41.4788365 ], [ -71.3569871, 41.4786034 ], [ -71.3570841, 41.4782715 ], [ -71.3572955, 41.4783029 ], [ -71.3575393, 41.4782919 ], [ -71.3577296, 41.4777596 ], [ -71.3578669, 41.4776348 ], [ -71.3577749, 41.4774825 ], [ -71.357768, 41.4774809 ], [ -71.3575463, 41.4775683 ], [ -71.3574475, 41.4776072 ], [ -71.3573536, 41.4776441 ], [ -71.3570976, 41.477745 ], [ -71.3562343, 41.4780739 ], [ -71.3561472, 41.4781071 ], [ -71.3557327, 41.4782625 ], [ -71.3551503, 41.4784808 ], [ -71.3547102, 41.4786458 ], [ -71.354432, 41.4787501 ], [ -71.3544602, 41.4788341 ], [ -71.3544844, 41.4789039 ], [ -71.3545226, 41.4789737 ], [ -71.3548084, 41.4787427 ] ] ] } },
{ "type": "Feature", "properties": { "RCID": 571, "PRIM": 1, "GRUP": 2, "OBJL": 27, "RVER": 1, "AGEN": 550, "FIDN": 227890598, "FIDS": 7303, "LNAM": "02260D9555A61C87", "INFORM": "1.2 meters/4 feet reported in 1977", "SCAMIN": 89999, "SORDAT": "1977", "SORIND": "US,US,graph,Chart 13223" }, "geometry": { "type": "Point", "coordinates": [ -71.3664271, 41.4963042 ] } }
]
}
