{
"type": "FeatureCollection",
"name": "ACHARE",
"crs": { "type": "name", "properties": { "name": "urn:ogc:def:crs:OGC:1.3:CRS84" } },
"features": [
{ "type": "Feature", "properties": { "RCID": 2367, "PRIM": 3, "GRUP": 2, "OBJL": 4, "RVER": 1, "AGEN": 550, "FIDN": 815913953, "FIDS": 8691, "LNAM": "022630A1DBE121F3", "CATACH": [ "1" ], "OBJNAM": "East Passage Anchorage Area D", "INFORM": "Naval anchorage, 33 CFR 110.145:Navigation regulations are published in Chapter 2 of the U.S. Coast Pilot for this geographic area. Refer to regulation section numbers.", "SCAMIN": 44999, "SORDAT": "20120207", "SORIND": "US,US,reprt,L-284/12" }, "geometry": { "type": "Polygon", "coordinates": [ [ [ -71.3395383, 41.4834167 ], [ -71.3401268, 41.4834167 ], [ -71.3425952, 41.4834167 ], [ -71.3429722, 41.4834167 ], [ -71.3429722, 41.4901814 ], [ -71.3429722, 41.4913889 ], [ -71.3414432, 41.4913889 ], [ -71.3409572, 41.4913889 ], [ -71.3329167, 41.4913889 ], [ -71.3329167, 41.4835095 ], [ -71.3329167, 41.4834167 ], [ -71.3331567, 41.4834167 ], [ -71.3395383, 41.4834167 ] ] ] } },
{ "type": "Feature", "properties": { "RCID": 2368, "PRIM": 3, "GRUP": 2, "OBJL": 4, "RVER": 1, "AGEN": 550, "FIDN": 820113215, "FIDS": 8691, "LNAM": "022630E1EF3F21F3", "CATACH": [ "1" ], "OBJNAM": "West Passage Anchorage Area L", "INFORM": "33 CFR 110.145:Navigation regulations are published in Chapter 2 of the U.S. Coast Pilot for this geographic area. Refer to regulation section numbers", "SCAMIN": 44999, "SORDAT": "200504", "SORIND": "US,US,graph,Chart 13223" }, "geometry": { "type": "Polygon", "coordinates": [ [ [ -71.4, 41.5276991 ], [ -71.3999736, 41.5277781 ], [ -71.3999245, 41.5279176 ], [ -71.3999192, 41.5279568 ], [ -71.3997149, 41.5294646 ], [ -71.3993013, 41.5322075 ], [ -71.3970202, 41.5473365 ], [ -71.396971, 41.5476643 ], [ -71.3966202, 41.55 ], [ -71.3972651, 41.55 ], [ -71.3977531, 41.55 ], [ -71.3999478, 41.55 ], [ -71.3999643, 41.55 ], [ -71.4, 41.55 ], [ -71.4, 41.549852 ], [ -71.4, 41.5443037 ], [ -71.4, 41.5434778 ], [ -71.4, 41.5428782 ], [ -71.4, 41.5411419 ], [ -71.4, 41.5401282 ], [ -71.4, 41.537439 ], [ -71.4, 41.5356388 ], [ -71.4, 41.5355025 ], [ -71.4, 41.5353982 ], [ -71.4, 41.5330649 ], [ -71.4, 41.5328014 ], [ -71.4, 41.5281124 ], [ -71.4, 41.5279707 ], [ -71.4, 41.5277826 ], [ -71.4, 41.5276991 ] ] ] } },
{ "type": "Feature", "properties": { "RCID": 2369, "PRIM": 3, "GRUP": 2, "OBJL": 4, "RVER": 1, "AGEN": 550, "FIDN": 665189041, "FIDS": 8691, "LNAM": "022627A5FAB121F3", "OBJNAM": "Newport Harbor, Newport Rhode Island Anchorage Area Number 1", "INFORM": "Special Anchorage, 33 CFR 110.46: Navigation regulations are published in Chapter 2 of the U.S. Coast Pilot for this geographic area. Refer to regulation section numbers.", "SCAMIN": 44999, "SORDAT": "200504", "SORIND": "US,US,graph,Chart 13223" }, "geometry": { "type": "Polygon", "coordinates": [ [ [ -71.325, 41.4797801 ], [ -71.325, 41.4800042 ], [ -71.3272423, 41.4798499 ], [ -71.3276068, 41.4798248 ], [ -71.3284107, 41.4797695 ], [ -71.3346052, 41.4793436 ], [ -71.3351421, 41.4793067 ], [ -71.3352356, 41.4793003 ], [ -71.3352911, 41.4792915 ], [ -71.3352144, 41.4789054 ], [ -71.3352072, 41.4788693 ], [ -71.3352065, 41.4788658 ], [ -71.3352957, 41.4787427 ], [ -71.3352911, 41.4786658 ], [ -71.3352837, 41.4785393 ], [ -71.3352712, 41.4784435 ], [ -71.3352604, 41.4783615 ], [ -71.3352402, 41.4781469 ], [ -71.3352333, 41.4779973 ], [ -71.3352332, 41.4779938 ], [ -71.3352325, 41.4779839 ], [ -71.3352302, 41.4779534 ], [ -71.3352115, 41.4777003 ], [ -71.3351846, 41.477388 ], [ -71.3351772, 41.4773022 ], [ -71.3351509, 41.4771108 ], [ -71.3351351, 41.4768898 ], [ -71.3350928, 41.4765435 ], [ -71.3350903, 41.4765233 ], [ -71.3350792, 41.4764134 ], [ -71.3350791, 41.4764122 ], [ -71.3350789, 41.47641 ], [ -71.3350765, 41.4763864 ], [ -71.3350712, 41.4763093 ], [ -71.3350695, 41.4762848 ], [ -71.3350763, 41.4761515 ], [ -71.3351073, 41.4760545 ], [ -71.3351766, 41.4759414 ], [ -71.3352665, 41.4758545 ], [ -71.3353519, 41.4757989 ], [ -71.3355001, 41.4757186 ], [ -71.3357402, 41.4755745 ], [ -71.3358795, 41.4754892 ], [ -71.3360143, 41.4754018 ], [ -71.3361791, 41.4752878 ], [ -71.3363489, 41.4751637 ], [ -71.3364597, 41.4750638 ], [ -71.3364967, 41.475 ], [ -71.3356419, 41.475 ], [ -71.3355982, 41.475 ], [ -71.3355813, 41.475 ], [ -71.3355807, 41.475 ], [ -71.3349194, 41.475 ], [ -71.334816, 41.475 ], [ -71.3326361, 41.475 ], [ -71.3325491, 41.475 ], [ -71.3311142, 41.475 ], [ -71.3309524, 41.475 ], [ -71.3299921, 41.475 ], [ -71.3299057, 41.475 ], [ -71.3280597, 41.475 ], [ -71.3277626, 41.475 ], [ -71.3272436, 41.475 ], [ -71.3270717, 41.475 ], [ -71.3268824, 41.475 ], [ -71.3266249, 41.475 ], [ -71.3266189, 41.475 ], [ -71.3253681, 41.475 ], [ -71.3253511, 41.4750253 ], [ -71.3250172, 41.4752154 ], [ -71.325, 41.4752252 ], [ -71.325, 41.4762467 ], [ -71.325, 41.4762707 ], [ -71.325, 41.476585 ], [ -71.325, 41.476739 ], [ -71.325, 41.4770455 ], [ -71.325, 41.4772394 ], [ -71.325, 41.4774418 ], [ -71.325, 41.4775103 ], [ -71.325, 41.4776387 ], [ -71.325, 41.477681 ], [ -71.325, 41.4783564 ], [ -71.325, 41.4787801 ], [ -71.325, 41.479249 ], [ -71.325, 41.4792795 ], [ -71.325, 41.4794286 ], [ -71.325, 41.4796246 ], [ -71.325, 41.4797801 ] ], [ [ -71.3259283, 41.4776039 ], [ -71.32608, 41.4775499 ], [ -71.3259663, 41.4773681 ], [ -71.3259741, 41.4772302 ], [ -71.3259777, 41.4771662 ], [ -71.3259558, 41.4771724 ], [ -71.3258025, 41.4772155 ], [ -71.3256891, 41.4772475 ], [ -71.325739, 41.4774785 ], [ -71.3257438, 41.4775006 ], [ -71.3259283, 41.4776039 ] ] ] } },
{ "type": "Feature", "properties": { "RCID": 2370, "PRIM": 3, "GRUP": 2, "OBJL": 4, "RVER": 1, "AGEN": 550, "FIDN": 298037842, "FIDS": 8691, "LNAM": "022611C3B25221F3", "OBJNAM": "East Passage Anchorage Area A", "INFORM": "Naval anchorage, 33 CFR 110.145:Navigation regulations are published in Chapter 2 of the U.S. Coast Pilot for this geographic area. Refer to regulation section numbers.", "SCAMIN": 44999, "SORDAT": "200504", "SORIND": "US,US,graph,Chart 13223" }, "geometry": { "type": "Polygon", "coordinates": [ [ [ -71.354192, 41.5417763 ], [ -71.3541968, 41.5415722 ], [ -71.3542011, 41.5413889 ], [ -71.3541714, 41.5392482 ], [ -71.3541656, 41.5388324 ], [ -71.3541909, 41.5358796 ], [ -71.3541051, 41.5356403 ], [ -71.3535773, 41.5341688 ], [ -71.3534368, 41.5337894 ], [ -71.3532537, 41.5332949 ], [ -71.3531899, 41.5331227 ], [ -71.3531111, 41.53291 ], [ -71.352193, 41.5304308 ], [ -71.351035, 41.5296786 ], [ -71.3497165, 41.5288926 ], [ -71.3496348, 41.5288439 ], [ -71.3493386, 41.5275449 ], [ -71.3492647, 41.527221 ], [ -71.3489582, 41.5270129 ], [ -71.3437491, 41.5234751 ], [ -71.3435823, 41.5233618 ], [ -71.343579, 41.5233596 ], [ -71.3430333, 41.522989 ], [ -71.3434215, 41.5216488 ], [ -71.3434262, 41.5216326 ], [ -71.3438117, 41.5203014 ], [ -71.3460775, 41.5165205 ], [ -71.3476642, 41.5138727 ], [ -71.3509188, 41.508441 ], [ -71.3517508, 41.5070532 ], [ -71.3523882, 41.50599 ], [ -71.3523822, 41.5059271 ], [ -71.3523804, 41.5059086 ], [ -71.3523644, 41.5057405 ], [ -71.3523626, 41.5057215 ], [ -71.3523149, 41.5052203 ], [ -71.3523125, 41.5051951 ], [ -71.3522106, 41.5041248 ], [ -71.3512193, 41.4937132 ], [ -71.3571017, 41.4947147 ], [ -71.3591983, 41.4950716 ], [ -71.3598101, 41.4951758 ], [ -71.3610398, 41.4953811 ], [ -71.3616709, 41.4954865 ], [ -71.362235, 41.4955807 ], [ -71.3635567, 41.4958014 ], [ -71.3640793, 41.4958886 ], [ -71.3647182, 41.4960101 ], [ -71.3647818, 41.4960222 ], [ -71.3649781, 41.4960556 ], [ -71.3652747, 41.4961061 ], [ -71.3654285, 41.4961322 ], [ -71.3654777, 41.4961406 ], [ -71.365655, 41.4961708 ], [ -71.3656636, 41.4961723 ], [ -71.3657833, 41.4961927 ], [ -71.365784, 41.4961928 ], [ -71.3662425, 41.4962708 ], [ -71.3664579, 41.4963075 ], [ -71.3664569, 41.4963661 ], [ -71.3664555, 41.4964504 ], [ -71.3664544, 41.4965095 ], [ -71.3665788, 41.4965216 ], [ -71.3665789, 41.4965217 ], [ -71.3667185, 41.4967518 ], [ -71.3667142, 41.4970714 ], [ -71.3667129, 41.4971672 ], [ -71.3667035, 41.49786 ], [ -71.3665525, 41.498407 ], [ -71.3663101, 41.4988603 ], [ -71.3662219, 41.4990253 ], [ -71.3660875, 41.4991501 ], [ -71.3660095, 41.499211 ], [ -71.3657615, 41.4993475 ], [ -71.365577, 41.4994078 ], [ -71.3654417, 41.4994977 ], [ -71.3653719, 41.4995811 ], [ -71.3652991, 41.4996841 ], [ -71.3652173, 41.4998076 ], [ -71.3651761, 41.4998696 ], [ -71.364963, 41.500135 ], [ -71.3646883, 41.5004045 ], [ -71.3645127, 41.5004656 ], [ -71.3644504, 41.5004872 ], [ -71.363781, 41.5012341 ], [ -71.3631712, 41.5016396 ], [ -71.3629261, 41.5017522 ], [ -71.3627898, 41.5018148 ], [ -71.3625483, 41.5019034 ], [ -71.3624002, 41.5019665 ], [ -71.3623729, 41.5019839 ], [ -71.3622219, 41.5020801 ], [ -71.3620121, 41.5022054 ], [ -71.3618524, 41.5022809 ], [ -71.3615519, 41.5023812 ], [ -71.3615406, 41.5023851 ], [ -71.3614377, 41.5023998 ], [ -71.3611657, 41.5024035 ], [ -71.3609858, 41.5024981 ], [ -71.3604288, 41.5027908 ], [ -71.3601143, 41.502956 ], [ -71.3598829, 41.5031432 ], [ -71.3594928, 41.5035891 ], [ -71.3594321, 41.5037874 ], [ -71.3593736, 41.5039784 ], [ -71.3593538, 41.5040432 ], [ -71.3592738, 41.5043046 ], [ -71.3590819, 41.5044826 ], [ -71.3587176, 41.5046273 ], [ -71.3587566, 41.5050239 ], [ -71.3587785, 41.5052453 ], [ -71.3587073, 41.505665 ], [ -71.3585835, 41.5061484 ], [ -71.3583928, 41.5064756 ], [ -71.3583766, 41.5065034 ], [ -71.3583484, 41.5066237 ], [ -71.3582448, 41.5070668 ], [ -71.3582413, 41.5070817 ], [ -71.3582329, 41.5071173 ], [ -71.3582106, 41.5072128 ], [ -71.3582087, 41.5072207 ], [ -71.3581319, 41.5075492 ], [ -71.3579921, 41.5077407 ], [ -71.3578687, 41.5079098 ], [ -71.3578572, 41.5081202 ], [ -71.3578506, 41.5082414 ], [ -71.3578507, 41.5082421 ], [ -71.3579456, 41.5087905 ], [ -71.3581444, 41.5091109 ], [ -71.3582179, 41.5092294 ], [ -71.3585043, 41.5096912 ], [ -71.3586183, 41.5098749 ], [ -71.3590594, 41.5101661 ], [ -71.3591854, 41.5103563 ], [ -71.3593888, 41.5106635 ], [ -71.3595514, 41.5107507 ], [ -71.3598542, 41.5107902 ], [ -71.3604099, 41.5106511 ], [ -71.3617249, 41.5099016 ], [ -71.3619089, 41.5098673 ], [ -71.3620815, 41.5098462 ], [ -71.3621428, 41.5098443 ], [ -71.3622006, 41.5098425 ], [ -71.3635837, 41.5103727 ], [ -71.364576, 41.5108966 ], [ -71.3648352, 41.5111398 ], [ -71.3657657, 41.51239 ], [ -71.3658359, 41.5124859 ], [ -71.3659414, 41.5126443 ], [ -71.3660531, 41.5128056 ], [ -71.3660658, 41.5128258 ], [ -71.366236, 41.5131638 ], [ -71.3663586, 41.513797 ], [ -71.3663355, 41.5141302 ], [ -71.3660979, 41.5142629 ], [ -71.365745, 41.514269 ], [ -71.3658834, 41.5148543 ], [ -71.3659314, 41.5150576 ], [ -71.3658421, 41.5152466 ], [ -71.365824, 41.5152851 ], [ -71.3658149, 41.5156911 ], [ -71.3657236, 41.5158552 ], [ -71.3655588, 41.515917 ], [ -71.3655251, 41.5163749 ], [ -71.3655193, 41.5164542 ], [ -71.3654761, 41.5165472 ], [ -71.3654196, 41.51675 ], [ -71.3652397, 41.5172147 ], [ -71.3651421, 41.5174668 ], [ -71.3651413, 41.5174687 ], [ -71.3651359, 41.5174828 ], [ -71.3649741, 41.5176742 ], [ -71.36482, 41.5177238 ], [ -71.3646671, 41.5177259 ], [ -71.3645376, 41.5177277 ], [ -71.3645186, 41.5177917 ], [ -71.3644944, 41.5178637 ], [ -71.3643836, 41.5179655 ], [ -71.3643587, 41.5179979 ], [ -71.36423, 41.5181321 ], [ -71.3641442, 41.5182165 ], [ -71.3640747, 41.5182247 ], [ -71.3639642, 41.5182289 ], [ -71.3639378, 41.5182416 ], [ -71.3639124, 41.5182857 ], [ -71.3639096, 41.51834 ], [ -71.3638663, 41.5184235 ], [ -71.363839, 41.5184536 ], [ -71.3637795, 41.5184771 ], [ -71.3637319, 41.5185097 ], [ -71.3637207, 41.5185738 ], [ -71.3637317, 41.5186484 ], [ -71.3637233, 41.5187096 ], [ -71.363695, 41.5187804 ], [ -71.3636475, 41.5188433 ], [ -71.3635841, 41.5188767 ], [ -71.3635081, 41.5189352 ], [ -71.363502, 41.5189847 ], [ -71.3634943, 41.5190947 ], [ -71.3635068, 41.5192193 ], [ -71.363506, 41.5192278 ], [ -71.3634987, 41.5193108 ], [ -71.3634774, 41.519369 ], [ -71.3634417, 41.5194287 ], [ -71.363416, 41.5194582 ], [ -71.3634016, 41.5194711 ], [ -71.3633532, 41.5195143 ], [ -71.3633104, 41.519534 ], [ -71.3632387, 41.5195507 ], [ -71.3632229, 41.519581 ], [ -71.36322, 41.5196092 ], [ -71.363221, 41.5196713 ], [ -71.3631812, 41.5197632 ], [ -71.3631733, 41.5197749 ], [ -71.3631138, 41.5198575 ], [ -71.3630327, 41.5199058 ], [ -71.3629528, 41.519927 ], [ -71.3628728, 41.5199475 ], [ -71.3628077, 41.5199722 ], [ -71.3628698, 41.5200609 ], [ -71.3629112, 41.5201376 ], [ -71.3629534, 41.5202499 ], [ -71.3629908, 41.5203866 ], [ -71.3629886, 41.5204875 ], [ -71.3629557, 41.5205853 ], [ -71.3629249, 41.5206405 ], [ -71.362865, 41.5206662 ], [ -71.3628395, 41.5206924 ], [ -71.3628388, 41.5206948 ], [ -71.3628252, 41.5207393 ], [ -71.362867, 41.5208269 ], [ -71.3628988, 41.520893 ], [ -71.362912, 41.5209513 ], [ -71.3629113, 41.5210335 ], [ -71.3628663, 41.5211825 ], [ -71.362883, 41.5213302 ], [ -71.36286, 41.5215489 ], [ -71.3628421, 41.5216321 ], [ -71.3628176, 41.5217062 ], [ -71.3627756, 41.5219472 ], [ -71.3627236, 41.5221301 ], [ -71.3627, 41.5221641 ], [ -71.3626639, 41.522224 ], [ -71.3626029, 41.5222781 ], [ -71.3625553, 41.5223126 ], [ -71.3624608, 41.5223649 ], [ -71.3623826, 41.5224061 ], [ -71.3623313, 41.5224528 ], [ -71.362286, 41.5225085 ], [ -71.3622669, 41.5225321 ], [ -71.3622423, 41.5226061 ], [ -71.3622223, 41.5226998 ], [ -71.3622151, 41.52278 ], [ -71.3622147, 41.5228138 ], [ -71.3622368, 41.5228681 ], [ -71.3622551, 41.5229451 ], [ -71.3622378, 41.5230361 ], [ -71.3622188, 41.5230812 ], [ -71.3621673, 41.5231644 ], [ -71.3621254, 41.5232635 ], [ -71.362093, 41.5234338 ], [ -71.3620708, 41.5238837 ], [ -71.3620555, 41.5240241 ], [ -71.3620205, 41.5241367 ], [ -71.3620203, 41.5241601 ], [ -71.3619891, 41.5241599 ], [ -71.3619756, 41.5241773 ], [ -71.3619478, 41.5242131 ], [ -71.3619724, 41.5242179 ], [ -71.362029, 41.5242592 ], [ -71.3620683, 41.5244279 ], [ -71.362054, 41.5244506 ], [ -71.3620359, 41.5245208 ], [ -71.3620066, 41.5245592 ], [ -71.3619923, 41.5245809 ], [ -71.3620004, 41.5246059 ], [ -71.3620209, 41.5246645 ], [ -71.3620206, 41.5246761 ], [ -71.3620176, 41.5247822 ], [ -71.3620242, 41.5248792 ], [ -71.362043, 41.5250352 ], [ -71.362029, 41.525163 ], [ -71.3620239, 41.5252861 ], [ -71.3620003, 41.5253478 ], [ -71.3619514, 41.525452 ], [ -71.3618604, 41.5255752 ], [ -71.3618517, 41.525587 ], [ -71.3617849, 41.5256351 ], [ -71.3617545, 41.5256656 ], [ -71.3617443, 41.5256758 ], [ -71.3617122, 41.5257008 ], [ -71.3616854, 41.5257218 ], [ -71.3616343, 41.5257498 ], [ -71.361567, 41.5257551 ], [ -71.3615098, 41.5257688 ], [ -71.3614632, 41.5257703 ], [ -71.3614598, 41.5257701 ], [ -71.3614257, 41.5257678 ], [ -71.361394, 41.5257668 ], [ -71.3613381, 41.5257679 ], [ -71.3612679, 41.5257522 ], [ -71.3612252, 41.5257439 ], [ -71.3611957, 41.525741 ], [ -71.3609964, 41.5257302 ], [ -71.3609077, 41.5257312 ], [ -71.360879, 41.5257353 ], [ -71.3608523, 41.5257507 ], [ -71.3608317, 41.5257677 ], [ -71.3608206, 41.5257998 ], [ -71.3608217, 41.5258374 ], [ -71.3608364, 41.5258831 ], [ -71.3608598, 41.5259109 ], [ -71.3608966, 41.5259292 ], [ -71.3609385, 41.5259278 ], [ -71.3609975, 41.5259231 ], [ -71.3611065, 41.5259402 ], [ -71.3611735, 41.5259588 ], [ -71.3612755, 41.5260026 ], [ -71.3613364, 41.5260574 ], [ -71.361366, 41.5261401 ], [ -71.3613865, 41.5262365 ], [ -71.3613666, 41.5263364 ], [ -71.3613639, 41.5263575 ], [ -71.3613262, 41.5264313 ], [ -71.3612763, 41.5265731 ], [ -71.3612652, 41.5266547 ], [ -71.3612896, 41.5266963 ], [ -71.3613941, 41.5267673 ], [ -71.3614257, 41.526807 ], [ -71.3614404, 41.5268763 ], [ -71.3614625, 41.5270113 ], [ -71.3614682, 41.5271318 ], [ -71.3615, 41.5273407 ], [ -71.3614869, 41.5276194 ], [ -71.3615512, 41.5278377 ], [ -71.3615889, 41.527956 ], [ -71.3616333, 41.5280493 ], [ -71.3616998, 41.5282342 ], [ -71.3617286, 41.5283058 ], [ -71.3618195, 41.5284175 ], [ -71.361866, 41.528541 ], [ -71.3618922, 41.5285746 ], [ -71.3619368, 41.5286174 ], [ -71.361967, 41.5286505 ], [ -71.3619635, 41.5287597 ], [ -71.3619533, 41.5288091 ], [ -71.3619113, 41.5288726 ], [ -71.3618735, 41.5289833 ], [ -71.3618465, 41.529161 ], [ -71.3618274, 41.5292877 ], [ -71.3618145, 41.5293891 ], [ -71.3618145, 41.5294918 ], [ -71.3618459, 41.529539 ], [ -71.3618957, 41.5296056 ], [ -71.3619623, 41.5297028 ], [ -71.3619807, 41.5297778 ], [ -71.3620103, 41.5299028 ], [ -71.3620251, 41.5299847 ], [ -71.3620768, 41.5300888 ], [ -71.3621675, 41.5302257 ], [ -71.3621967, 41.5303023 ], [ -71.3622006, 41.5303609 ], [ -71.3621858, 41.5304081 ], [ -71.3621526, 41.5304623 ], [ -71.3621027, 41.5305192 ], [ -71.3621027, 41.5305658 ], [ -71.3621359, 41.5306372 ], [ -71.3621821, 41.5307302 ], [ -71.3622209, 41.5308608 ], [ -71.3622991, 41.531162 ], [ -71.3623257, 41.5312477 ], [ -71.3623272, 41.5313171 ], [ -71.3623087, 41.5313865 ], [ -71.3622656, 41.5314444 ], [ -71.3622287, 41.5315092 ], [ -71.3622225, 41.5315728 ], [ -71.362273, 41.5316581 ], [ -71.3623692, 41.5318196 ], [ -71.3624131, 41.5319104 ], [ -71.3624708, 41.5320413 ], [ -71.3625079, 41.5321304 ], [ -71.3625039, 41.5322117 ], [ -71.3625072, 41.5323715 ], [ -71.3625344, 41.5324994 ], [ -71.3625762, 41.5325897 ], [ -71.3625983, 41.5326373 ], [ -71.3626967, 41.5328133 ], [ -71.3627573, 41.5330192 ], [ -71.3627795, 41.5331149 ], [ -71.3627886, 41.5332636 ], [ -71.3627917, 41.5334105 ], [ -71.3627763, 41.5335748 ], [ -71.3627624, 41.5336558 ], [ -71.362764, 41.5337333 ], [ -71.3627917, 41.5338016 ], [ -71.362836, 41.5338508 ], [ -71.3630334, 41.534041 ], [ -71.3631828, 41.5341868 ], [ -71.3633906, 41.5343858 ], [ -71.3634846, 41.5345027 ], [ -71.3635605, 41.5346159 ], [ -71.3636432, 41.5347491 ], [ -71.363694, 41.5348463 ], [ -71.3637201, 41.5348925 ], [ -71.3637762, 41.535073 ], [ -71.3638267, 41.5351695 ], [ -71.3638572, 41.5352604 ], [ -71.3639442, 41.5354666 ], [ -71.3639635, 41.5355753 ], [ -71.3639424, 41.5357887 ], [ -71.3639424, 41.5359345 ], [ -71.3639719, 41.5359789 ], [ -71.3640163, 41.5360441 ], [ -71.3640828, 41.5361219 ], [ -71.3641216, 41.5362274 ], [ -71.3641623, 41.5364523 ], [ -71.3641955, 41.5365342 ], [ -71.3642916, 41.5367424 ], [ -71.3644154, 41.5369493 ], [ -71.3645142, 41.5370529 ], [ -71.3645872, 41.5371853 ], [ -71.3646593, 41.5372922 ], [ -71.3646741, 41.5373463 ], [ -71.3646685, 41.5374227 ], [ -71.3646611, 41.5374643 ], [ -71.3646667, 41.5375462 ], [ -71.3646907, 41.5376129 ], [ -71.3647258, 41.5376698 ], [ -71.3647635, 41.5377297 ], [ -71.3648044, 41.5378608 ], [ -71.3648053, 41.5379284 ], [ -71.3648271, 41.5382146 ], [ -71.3648525, 41.5385892 ], [ -71.3648706, 41.5386896 ], [ -71.3649025, 41.5388875 ], [ -71.3649397, 41.5390214 ], [ -71.3649896, 41.5391326 ], [ -71.3650054, 41.5391779 ], [ -71.3650219, 41.5395537 ], [ -71.3650281, 41.5399112 ], [ -71.3650589, 41.54005 ], [ -71.3651143, 41.5402258 ], [ -71.3651512, 41.5403195 ], [ -71.3651605, 41.5403831 ], [ -71.3651721, 41.5404568 ], [ -71.3651722, 41.5405339 ], [ -71.3651589, 41.5405879 ], [ -71.3650873, 41.5407223 ], [ -71.365032, 41.5408067 ], [ -71.3648815, 41.540972 ], [ -71.364872, 41.5410488 ], [ -71.3648738, 41.5411003 ], [ -71.3649403, 41.5412043 ], [ -71.3649909, 41.5413042 ], [ -71.3649802, 41.5413802 ], [ -71.3649456, 41.5414542 ], [ -71.3645639, 41.5417551 ], [ -71.364329, 41.5417556 ], [ -71.3635682, 41.5417571 ], [ -71.3634241, 41.5417565 ], [ -71.3634083, 41.5417564 ], [ -71.3628604, 41.5417586 ], [ -71.3624063, 41.5417595 ], [ -71.3623514, 41.5417596 ], [ -71.3616915, 41.5417582 ], [ -71.3616499, 41.5417581 ], [ -71.3615745, 41.5417579 ], [ -71.3611703, 41.5417593 ], [ -71.3597151, 41.5417643 ], [ -71.3592373, 41.541766 ], [ -71.35769, 41.5417691 ], [ -71.3542164, 41.5417763 ], [ -71.354192, 41.5417763 ] ], [ [ -71.3559981, 41.5066964 ], [ -71.355991, 41.5067141 ], [ -71.3559883, 41.5067207 ], [ -71.355968, 41.5067714 ], [ -71.3559647, 41.5067794 ], [ -71.3559858, 41.5067841 ], [ -71.3561144, 41.5068133 ], [ -71.356359, 41.5068689 ], [ -71.356382, 41.5068097 ], [ -71.356386, 41.5067993 ], [ -71.356432, 41.5066808 ], [ -71.3564387, 41.5066638 ], [ -71.3564597, 41.5066096 ], [ -71.3563647, 41.5065873 ], [ -71.3560793, 41.5065203 ], [ -71.3560697, 41.5065181 ], [ -71.3560468, 41.5065752 ], [ -71.356042, 41.5065872 ], [ -71.3559981, 41.5066964 ] ], [ [ -71.3558934, 41.5065405 ], [ -71.3558456, 41.5065051 ], [ -71.355791, 41.5065173 ], [ -71.3556185, 41.5065648 ], [ -71.3557313, 41.5066625 ], [ -71.3557758, 41.5066992 ], [ -71.3558421, 41.5066876 ], [ -71.3558934, 41.5065405 ] ] ] } },
{ "type": "Feature", "properties": { "RCID": 2371, "PRIM": 3, "GRUP": 2, "OBJL": 4, "RVER": 1, "AGEN": 550, "FIDN": 138793922, "FIDS": 8691, "LNAM": "02260845D3C221F3", "CATACH": [ "1" ], "OBJNAM": "East Passage Anchorage Area C", "INFORM": "Naval anchorage, 33 CFR 110.145:Navigation regulations are published in Chapter 2 of the U.S. Coast Pilot for this geographic area. Refer to regulation section numbers.", "SCAMIN": 44999, "SORDAT": "200504", "SORIND": "US,US,graph,Chart 13223" }, "geometry": { "type": "Polygon", "coordinates": [ [ [ -71.335691, 41.5071848 ], [ -71.3354616, 41.5061457 ], [ -71.3358217, 41.506148 ], [ -71.3391795, 41.5061695 ], [ -71.3418033, 41.5061862 ], [ -71.3417855, 41.5062253 ], [ -71.3398199, 41.5105345 ], [ -71.3383202, 41.510054 ], [ -71.3378897, 41.5099161 ], [ -71.336543, 41.509485 ], [ -71.3361743, 41.5093669 ], [ -71.3359958, 41.5085652 ], [ -71.335691, 41.5071848 ] ] ] } },
{ "type": "Feature", "properties": { "RCID": 2372, "PRIM": 3, "GRUP": 2, "OBJL": 4, "RVER": 1, "AGEN": 550, "FIDN": 902763099, "FIDS": 8691, "LNAM": "022635CF125B21F3", "CATACH": [ "1" ], "OBJNAM": "West Passage Anchorage Area I", "INFORM": "33 CFR 110.145:Navigation regulations are published in Chapter 2 of the U.S. Coast Pilot for this geographic area. Refer to regulation section numbers.", "SCAMIN": 44999, "SORDAT": "200504", "SORIND": "US,US,graph,Chart 13223" }, "geometry": { "type": "Polygon", "coordinates": [ [ [ -71.3978877, 41.475 ], [ -71.3973368, 41.475 ], [ -71.3972348, 41.4766411 ], [ -71.3970085, 41.4771085 ], [ -71.3968429, 41.4774506 ], [ -71.3965984, 41.4782764 ], [ -71.3967088, 41.4789949 ], [ -71.3968441, 41.4791209 ], [ -71.3974437, 41.4793892 ], [ -71.3977579, 41.4795429 ], [ -71.3981331, 41.4797162 ], [ -71.398335, 41.4798094 ], [ -71.4, 41.4805784 ], [ -71.4, 41.480414 ], [ -71.4, 41.480259 ], [ -71.4, 41.4800496 ], [ -71.4, 41.477379 ], [ -71.4, 41.4771627 ], [ -71.4, 41.476039 ], [ -71.4, 41.475 ], [ -71.3993825, 41.475 ], [ -71.3992555, 41.475 ], [ -71.3991875, 41.475 ], [ -71.3989723, 41.475 ], [ -71.3985342, 41.475 ], [ -71.3984465, 41.475 ], [ -71.3983767, 41.475 ], [ -71.3983438, 41.475 ], [ -71.39814, 41.475 ], [ -71.3980029, 41.475 ], [ -71.3979445, 41.475 ], [ -71.3978877, 41.475 ] ] ] } },
{ "type": "Feature", "properties": { "RCID": 2373, "PRIM": 3, "GRUP": 2, "OBJL": 4, "RVER": 1, "AGEN": 550, "FIDN": 380341209, "FIDS": 8691, "LNAM": "022616AB8BD921F3", "CATACH": [ "1" ], "OBJNAM": "East Passage Anchorage Area B", "INFORM": "Naval anchorage, 33 CFR 110.145:Navigation regulations are published in Chapter 2 of the U.S. Coast Pilot for this geographic area. Refer to regulation section numbers.", "SCAMIN": 44999, "SORDAT": "200504", "SORIND": "US,US,graph,Chart 13223" }, "geometry": { "type": "Polygon", "coordinates": [ [ [ -71.325, 41.5408841 ], [ -71.3254264, 41.5407983 ], [ -71.325, 41.5417272 ], [ -71.325, 41.5415441 ], [ -71.325, 41.5411861 ], [ -71.325, 41.5409838 ], [ -71.325, 41.5409096 ], [ -71.325, 41.5408841 ] ] ] } },
{ "type": "Feature", "properties": { "RCID": 2374, "PRIM": 3, "GRUP": 2, "OBJL": 4, "RVER": 1, "AGEN": 550, "FIDN": 599499577, "FIDS": 8691, "LNAM": "022623BBA33921F3", "OBJNAM": "Newport Harbor, Newport Rhode Island Anchorage Area Number 3", "INFORM": "Special Anchorage, 33 CFR 110.46: Navigation regulations are published in Chapter 2 of the U.S. Coast Pilot for this geographic area. Refer to regulation section numbers.", "SCAMIN": 44999, "SORDAT": "200504", "SORIND": "US,US,graph,Chart 13223" }, "geometry": { "type": "Polygon", "coordinates": [ [ [ -71.325, 41.4913358 ], [ -71.325, 41.4913983 ], [ -71.325, 41.4966245 ], [ -71.3252181, 41.4966028 ], [ -71.3264758, 41.4943206 ], [ -71.3269484, 41.4934631 ], [ -71.3269684, 41.4933874 ], [ -71.3269702, 41.4933804 ], [ -71.326958, 41.4932423 ], [ -71.3269416, 41.4931651 ], [ -71.3269333, 41.4930821 ], [ -71.3269243, 41.4929431 ], [ -71.3269241, 41.4929345 ], [ -71.3269223, 41.4928487 ], [ -71.3269432, 41.4926679 ], [ -71.3270063, 41.4925199 ], [ -71.3270907, 41.4924398 ], [ -71.3270956, 41.4921654 ], [ -71.3270783, 41.4919806 ], [ -71.3269631, 41.4919881 ], [ -71.3269605, 41.4918029 ], [ -71.3269163, 41.4918058 ], [ -71.3269163, 41.4918109 ], [ -71.3269164, 41.4918368 ], [ -71.3268337, 41.4918362 ], [ -71.3266274, 41.491835 ], [ -71.3265915, 41.4918396 ], [ -71.3265091, 41.4918506 ], [ -71.326523, 41.4919089 ], [ -71.3264955, 41.4919125 ], [ -71.3264856, 41.4919139 ], [ -71.3263466, 41.4919325 ], [ -71.3263339, 41.4918792 ], [ -71.32629, 41.491885 ], [ -71.3262887, 41.4918852 ], [ -71.325932, 41.4919329 ], [ -71.3259446, 41.4919862 ], [ -71.3259604, 41.4920524 ], [ -71.3261276, 41.4920632 ], [ -71.3261394, 41.4920639 ], [ -71.3261473, 41.4920645 ], [ -71.3261519, 41.4920677 ], [ -71.3261524, 41.4920725 ], [ -71.3261499, 41.492076 ], [ -71.3261452, 41.4920778 ], [ -71.3261402, 41.4920775 ], [ -71.3259875, 41.4920677 ], [ -71.3259652, 41.4920726 ], [ -71.3259908, 41.4921809 ], [ -71.3261698, 41.4921924 ], [ -71.3261762, 41.4921928 ], [ -71.3261802, 41.4921942 ], [ -71.3261829, 41.492198 ], [ -71.3261825, 41.4922016 ], [ -71.3261802, 41.4922044 ], [ -71.3261763, 41.4922061 ], [ -71.3261728, 41.4922061 ], [ -71.3260179, 41.4921962 ], [ -71.3259956, 41.4922011 ], [ -71.3260213, 41.4923093 ], [ -71.3261352, 41.4923166 ], [ -71.3262038, 41.4923211 ], [ -71.3262077, 41.4923213 ], [ -71.3262121, 41.492324 ], [ -71.3262133, 41.4923268 ], [ -71.3262131, 41.4923305 ], [ -71.3262096, 41.4923334 ], [ -71.3262059, 41.4923347 ], [ -71.3262024, 41.4923345 ], [ -71.3261221, 41.4923294 ], [ -71.3260484, 41.4923246 ], [ -71.326026, 41.4923295 ], [ -71.326041, 41.4923912 ], [ -71.3260495, 41.4924264 ], [ -71.3262575, 41.4924829 ], [ -71.3263164, 41.4924989 ], [ -71.3263467, 41.4925072 ], [ -71.3263304, 41.492541 ], [ -71.3263164, 41.4925372 ], [ -71.3262585, 41.4925215 ], [ -71.3260068, 41.492453 ], [ -71.3260003, 41.4924255 ], [ -71.3258944, 41.4919797 ], [ -71.3258593, 41.4918316 ], [ -71.3259064, 41.4918253 ], [ -71.3259257, 41.4919063 ], [ -71.3260295, 41.4918925 ], [ -71.3260117, 41.4918175 ], [ -71.3260112, 41.4918143 ], [ -71.3260153, 41.4918101 ], [ -71.3260218, 41.4918089 ], [ -71.3260283, 41.4918115 ], [ -71.3260296, 41.491815 ], [ -71.3260474, 41.49189 ], [ -71.3262641, 41.4918609 ], [ -71.3262889, 41.4918576 ], [ -71.326498, 41.4918295 ], [ -71.326504, 41.4918287 ], [ -71.3265057, 41.4918362 ], [ -71.3265104, 41.4918356 ], [ -71.3265884, 41.4918261 ], [ -71.3266258, 41.4918212 ], [ -71.3268522, 41.4918226 ], [ -71.3268981, 41.4918229 ], [ -71.326898, 41.491807 ], [ -71.326871, 41.4918087 ], [ -71.326749, 41.4918167 ], [ -71.3267489, 41.4918035 ], [ -71.3267461, 41.4915858 ], [ -71.3267387, 41.4913819 ], [ -71.3267387, 41.49138 ], [ -71.3267398, 41.4913062 ], [ -71.3267398, 41.4913054 ], [ -71.3264813, 41.4913076 ], [ -71.3263727, 41.4913093 ], [ -71.3263587, 41.4913095 ], [ -71.3258888, 41.4913164 ], [ -71.3257323, 41.4913181 ], [ -71.3257265, 41.4913182 ], [ -71.3256473, 41.491319 ], [ -71.3255084, 41.4913206 ], [ -71.3253297, 41.4913226 ], [ -71.325, 41.4913294 ], [ -71.325, 41.4913358 ] ] ] } },
{ "type": "Feature", "properties": { "RCID": 2375, "PRIM": 3, "GRUP": 2, "OBJL": 4, "RVER": 1, "AGEN": 550, "FIDN": 921879317, "FIDS": 8691, "LNAM": "022636F2C31521F3", "CATACH": [ "1" ], "OBJNAM": "West Passage Anchorage Area K", "INFORM": "33 CFR 110.145:Navigation regulations are published in Chapter 2 of the U.S. Coast Pilot for this geographic area. Refer to regulation section numbers", "SCAMIN": 44999, "SORDAT": "200504", "SORIND": "US,US,graph,Chart 13223" }, "geometry": { "type": "Polygon", "coordinates": [ [ [ -71.38418, 41.494043 ], [ -71.3843435, 41.4938415 ], [ -71.3842032, 41.4936683 ], [ -71.3843326, 41.4934032 ], [ -71.3843216, 41.4932602 ], [ -71.3888966, 41.4942058 ], [ -71.3890321, 41.4942327 ], [ -71.3901223, 41.4944494 ], [ -71.3930668, 41.4950347 ], [ -71.3938418, 41.4951887 ], [ -71.3945805, 41.4953355 ], [ -71.3953695, 41.4954924 ], [ -71.396032, 41.4956241 ], [ -71.3967733, 41.4957715 ], [ -71.3979869, 41.4960127 ], [ -71.3983036, 41.4960734 ], [ -71.3987216, 41.4961536 ], [ -71.3986528, 41.4963777 ], [ -71.3970669, 41.5009076 ], [ -71.3956452, 41.5018593 ], [ -71.3955178, 41.5017725 ], [ -71.3951189, 41.5015009 ], [ -71.3936994, 41.5005345 ], [ -71.3913696, 41.4989483 ], [ -71.3908748, 41.4986114 ], [ -71.3871542, 41.4960783 ], [ -71.3864111, 41.4955723 ], [ -71.3862393, 41.4954554 ], [ -71.3859914, 41.4952866 ], [ -71.3842416, 41.4940953 ], [ -71.3841887, 41.4940504 ], [ -71.38418, 41.494043 ] ] ] } },
{ "type": "Feature", "properties": { "RCID": 2376, "PRIM": 3, "GRUP": 2, "OBJL": 4, "RVER": 1, "AGEN": 550, "FIDN": 195773014, "FIDS": 8691, "LNAM": "02260BAB425621F3", "CATACH": [ "1" ], "OBJNAM": "West Passage Anchorage Area M", "INFORM": "33 CFR 110.145:Navigation regulations are published in Chapter 2 of the U.S. Coast Pilot for this geographic area. Refer to regulation section numbers", "SCAMIN": 44999, "SORDAT": "200504", "SORIND": "US,US,graph,Chart 13223" }, "geometry": { "type": "Polygon", "coordinates": [ [ [ -71.3748355, 41.5069968 ], [ -71.3748334, 41.5068977 ], [ -71.3748605, 41.5068973 ], [ -71.3749056, 41.506802 ], [ -71.3757193, 41.5064712 ], [ -71.3761915, 41.5064188 ], [ -71.376286, 41.5063339 ], [ -71.3762527, 41.5060244 ], [ -71.3765134, 41.5060486 ], [ -71.3764364, 41.506094 ], [ -71.3766047, 41.5061332 ], [ -71.3765422, 41.5061878 ], [ -71.3766022, 41.5064505 ], [ -71.3771233, 41.5064433 ], [ -71.3773329, 41.5063515 ], [ -71.377849, 41.5059787 ], [ -71.3779453, 41.5060152 ], [ -71.3779542, 41.5060186 ], [ -71.3780528, 41.505958 ], [ -71.3781506, 41.5058979 ], [ -71.3785756, 41.5053942 ], [ -71.3789681, 41.5046075 ], [ -71.3789787, 41.5045863 ], [ -71.3796159, 41.5040251 ], [ -71.3802742, 41.5036908 ], [ -71.3808179, 41.5034146 ], [ -71.3818148, 41.5026566 ], [ -71.382135, 41.5024894 ], [ -71.3823165, 41.5020718 ], [ -71.382437, 41.5019001 ], [ -71.3831203, 41.5009264 ], [ -71.3835068, 41.5003757 ], [ -71.3837356, 41.5001475 ], [ -71.3837919, 41.4995292 ], [ -71.3843041, 41.4986194 ], [ -71.3843823, 41.4981833 ], [ -71.3844254, 41.4979427 ], [ -71.3845173, 41.4977876 ], [ -71.384705, 41.497471 ], [ -71.3846591, 41.4970296 ], [ -71.3848466, 41.4967645 ], [ -71.3848912, 41.4967014 ], [ -71.3848944, 41.4967036 ], [ -71.3849708, 41.4967607 ], [ -71.3850196, 41.4967972 ], [ -71.3857902, 41.4973734 ], [ -71.3859676, 41.4975061 ], [ -71.390053, 41.5005612 ], [ -71.3905673, 41.5009458 ], [ -71.3922311, 41.50219 ], [ -71.3935937, 41.5032089 ], [ -71.3935849, 41.5040553 ], [ -71.3935797, 41.5045607 ], [ -71.3935757, 41.5049455 ], [ -71.3935715, 41.5053474 ], [ -71.3935707, 41.5054278 ], [ -71.3935678, 41.5057095 ], [ -71.3935505, 41.5073764 ], [ -71.393966, 41.5074352 ], [ -71.3962244, 41.5077546 ], [ -71.3987961, 41.5081184 ], [ -71.3996418, 41.508238 ], [ -71.4, 41.5082887 ], [ -71.4, 41.5096901 ], [ -71.4, 41.5098531 ], [ -71.4, 41.5099679 ], [ -71.4, 41.5116499 ], [ -71.4, 41.5123319 ], [ -71.4, 41.5124692 ], [ -71.4, 41.513873 ], [ -71.4, 41.5151805 ], [ -71.4, 41.515277 ], [ -71.4, 41.516768 ], [ -71.3983681, 41.521322 ], [ -71.3976874, 41.5232217 ], [ -71.3972234, 41.5245165 ], [ -71.3971687, 41.5246691 ], [ -71.3971351, 41.524763 ], [ -71.3966529, 41.5248408 ], [ -71.3966204, 41.524846 ], [ -71.3964146, 41.5248792 ], [ -71.3962452, 41.5249065 ], [ -71.3962202, 41.5249105 ], [ -71.3957251, 41.5249903 ], [ -71.3957174, 41.5249915 ], [ -71.3956998, 41.5249944 ], [ -71.3952046, 41.5250742 ], [ -71.3951756, 41.5250789 ], [ -71.3943012, 41.5252198 ], [ -71.3940493, 41.5252388 ], [ -71.3934129, 41.5253533 ], [ -71.3931741, 41.5253963 ], [ -71.3930667, 41.5254156 ], [ -71.3929257, 41.5254408 ], [ -71.3928033, 41.5254612 ], [ -71.3924094, 41.5255247 ], [ -71.3920631, 41.5255805 ], [ -71.3918852, 41.5256092 ], [ -71.3920135, 41.5252569 ], [ -71.3920462, 41.5251671 ], [ -71.392223, 41.5246815 ], [ -71.3922235, 41.52468 ], [ -71.3922441, 41.5245162 ], [ -71.39229, 41.524149 ], [ -71.3923338, 41.5237996 ], [ -71.3923572, 41.522727 ], [ -71.39237, 41.5221369 ], [ -71.3923731, 41.5219933 ], [ -71.3923686, 41.5219066 ], [ -71.392334, 41.5212485 ], [ -71.3923265, 41.5211055 ], [ -71.3922017, 41.5206062 ], [ -71.3922608, 41.5202664 ], [ -71.3923033, 41.5200221 ], [ -71.3921409, 41.5196962 ], [ -71.3921086, 41.519411 ], [ -71.3922235, 41.5189335 ], [ -71.3923481, 41.5184157 ], [ -71.3923823, 41.5180697 ], [ -71.3924085, 41.5178046 ], [ -71.3921922, 41.5172625 ], [ -71.3918854, 41.5164933 ], [ -71.3918303, 41.5161172 ], [ -71.3917944, 41.515872 ], [ -71.3916638, 41.515601 ], [ -71.3912845, 41.514814 ], [ -71.3910381, 41.5145146 ], [ -71.3896073, 41.5137292 ], [ -71.3881359, 41.5127341 ], [ -71.3881266, 41.5127278 ], [ -71.3871326, 41.5121664 ], [ -71.384363, 41.5102188 ], [ -71.3832011, 41.5091537 ], [ -71.3828607, 41.5088417 ], [ -71.3827611, 41.508835 ], [ -71.3827677, 41.5089261 ], [ -71.3826966, 41.5089842 ], [ -71.382645, 41.5089159 ], [ -71.3826206, 41.5086037 ], [ -71.3823715, 41.5082418 ], [ -71.3820905, 41.5080376 ], [ -71.381519, 41.5076225 ], [ -71.381187, 41.5073307 ], [ -71.3807504, 41.506947 ], [ -71.3807379, 41.506936 ], [ -71.3805224, 41.5068316 ], [ -71.3804168, 41.5067804 ], [ -71.3803261, 41.506762 ], [ -71.3801783, 41.5067319 ], [ -71.3799881, 41.5066932 ], [ -71.3796734, 41.5063784 ], [ -71.3795949, 41.5062999 ], [ -71.3789335, 41.5061186 ], [ -71.3780567, 41.5061499 ], [ -71.377697, 41.5064441 ], [ -71.3774869, 41.5066076 ], [ -71.3774522, 41.5067363 ], [ -71.3773845, 41.5066512 ], [ -71.3770254, 41.5067737 ], [ -71.3769823, 41.5068576 ], [ -71.3769072, 41.5067791 ], [ -71.3764872, 41.5067667 ], [ -71.3764174, 41.5068345 ], [ -71.3762656, 41.5067456 ], [ -71.3759461, 41.5067371 ], [ -71.3758628, 41.5068747 ], [ -71.3758232, 41.5067789 ], [ -71.3754574, 41.5069313 ], [ -71.3750387, 41.5071754 ], [ -71.3754982, 41.5072932 ], [ -71.3753852, 41.5076173 ], [ -71.3753845, 41.5076191 ], [ -71.375206, 41.5076799 ], [ -71.3750263, 41.5078994 ], [ -71.3748807, 41.5079498 ], [ -71.3748565, 41.5076267 ], [ -71.3749654, 41.5074356 ], [ -71.3748307, 41.5072445 ], [ -71.3748391, 41.5069966 ], [ -71.3748355, 41.5069968 ] ] ] } },
{ "type": "Feature", "properties": { "RCID": 2377, "PRIM": 3, "GRUP": 2, "OBJL": 4, "RVER": 1, "AGEN": 550, "FIDN": 226424662, "FIDS": 8691, "LNAM": "02260D7EF75621F3", "CATACH": [ "1" ], "OBJNAM": "East Passage Anchorage Area A", "INFORM": "Naval anchorage, 33 CFR 110.145:Navigation regulations are published in Chapter 2 of the U.S. Coast Pilot for this geographic area. Refer to regulation section numbers.", "SCAMIN": 44999, "SORDAT": "200504", "SORIND": "US,US,graph,Chart 13223" }, "geometry": { "type": "Polygon", "coordinates": [ [ [ -71.3532944, 41.4822324 ], [ -71.3529234, 41.4821328 ], [ -71.3529189, 41.4822352 ], [ -71.3529127, 41.4823752 ], [ -71.3528595, 41.4826293 ], [ -71.3528507, 41.4826668 ], [ -71.35285, 41.4826696 ], [ -71.3527149, 41.4833037 ], [ -71.3527116, 41.4833192 ], [ -71.3526078, 41.4838064 ], [ -71.3525424, 41.4841131 ], [ -71.3524803, 41.4844045 ], [ -71.3511357, 41.4907147 ], [ -71.3511083, 41.4908431 ], [ -71.3510492, 41.4911207 ], [ -71.3519878, 41.4912811 ], [ -71.3520049, 41.491284 ], [ -71.3556278, 41.4919032 ], [ -71.360355, 41.4927109 ], [ -71.3608473, 41.492795 ], [ -71.3626077, 41.4930958 ], [ -71.3640337, 41.4933395 ], [ -71.3649037, 41.4934881 ], [ -71.3651474, 41.4935298 ], [ -71.3661707, 41.4937046 ], [ -71.3663212, 41.4937381 ], [ -71.3663576, 41.4937462 ], [ -71.3657147, 41.4927597 ], [ -71.3656839, 41.4927123 ], [ -71.3655455, 41.4925327 ], [ -71.3654042, 41.492364 ], [ -71.3653386, 41.492318 ], [ -71.3652536, 41.4922376 ], [ -71.3652431, 41.4922277 ], [ -71.3651486, 41.4921383 ], [ -71.3650377, 41.491984 ], [ -71.3649224, 41.4918233 ], [ -71.3648608, 41.4914769 ], [ -71.3647224, 41.4912046 ], [ -71.364679, 41.4911192 ], [ -71.3642394, 41.4905835 ], [ -71.3638427, 41.4902563 ], [ -71.3637807, 41.4901445 ], [ -71.363727, 41.4899998 ], [ -71.3636451, 41.4898947 ], [ -71.363204, 41.489505 ], [ -71.3630684, 41.4893851 ], [ -71.3630659, 41.4893629 ], [ -71.363022, 41.488963 ], [ -71.3629897, 41.4886691 ], [ -71.3629649, 41.4884437 ], [ -71.3629455, 41.4884103 ], [ -71.3628377, 41.4882246 ], [ -71.3628053, 41.4881688 ], [ -71.362771, 41.4881098 ], [ -71.36277, 41.488108 ], [ -71.3627686, 41.4881056 ], [ -71.362726, 41.4880323 ], [ -71.3626234, 41.4878556 ], [ -71.3625677, 41.4877597 ], [ -71.3625361, 41.4877052 ], [ -71.3625151, 41.4876691 ], [ -71.362472, 41.4875949 ], [ -71.3623674, 41.4875163 ], [ -71.3621769, 41.4873734 ], [ -71.3621124, 41.4873249 ], [ -71.3620144, 41.4872514 ], [ -71.3612333, 41.4868207 ], [ -71.3609363, 41.4866569 ], [ -71.3607264, 41.4865412 ], [ -71.3605944, 41.4864684 ], [ -71.3605501, 41.4864439 ], [ -71.3604751, 41.4864026 ], [ -71.3604639, 41.4862204 ], [ -71.3608538, 41.4855055 ], [ -71.3608869, 41.4853842 ], [ -71.3608924, 41.485364 ], [ -71.3607936, 41.4851062 ], [ -71.3607407, 41.4850668 ], [ -71.3601409, 41.48462 ], [ -71.3600736, 41.4844858 ], [ -71.3601592, 41.4843138 ], [ -71.3601466, 41.4842674 ], [ -71.3600948, 41.4840756 ], [ -71.3606712, 41.4834441 ], [ -71.3606741, 41.4831526 ], [ -71.3602855, 41.4827549 ], [ -71.3601128, 41.4826394 ], [ -71.3599557, 41.4826283 ], [ -71.3599328, 41.4826266 ], [ -71.3600886, 41.4825364 ], [ -71.3599962, 41.4824807 ], [ -71.3596231, 41.4822905 ], [ -71.3594333, 41.4823147 ], [ -71.359318, 41.4824634 ], [ -71.3592556, 41.4824302 ], [ -71.3591953, 41.4823982 ], [ -71.3594495, 41.4820785 ], [ -71.3592699, 41.4819552 ], [ -71.3575472, 41.48195 ], [ -71.3569426, 41.4819508 ], [ -71.3568412, 41.481951 ], [ -71.3566977, 41.4819512 ], [ -71.3565629, 41.4819514 ], [ -71.3563393, 41.4819517 ], [ -71.3559699, 41.4819522 ], [ -71.355636, 41.4819527 ], [ -71.3554828, 41.4819529 ], [ -71.3552272, 41.4819532 ], [ -71.3551714, 41.4819533 ], [ -71.3549729, 41.4819536 ], [ -71.3547894, 41.4819538 ], [ -71.3545891, 41.4819541 ], [ -71.3545835, 41.4819541 ], [ -71.3544895, 41.4819543 ], [ -71.3544459, 41.4819543 ], [ -71.3543258, 41.4819545 ], [ -71.3541339, 41.4819534 ], [ -71.3540769, 41.4819547 ], [ -71.3535978, 41.4819558 ], [ -71.3534765, 41.481956 ], [ -71.3532999, 41.4819574 ], [ -71.3533676, 41.4820042 ], [ -71.3533871, 41.4820177 ], [ -71.3534275, 41.4820456 ], [ -71.3532944, 41.4822324 ] ], [ [ -71.357859, 41.4853663 ], [ -71.3578483, 41.4854813 ], [ -71.3579217, 41.485543 ], [ -71.358206, 41.4853002 ], [ -71.3581809, 41.4851029 ], [ -71.357859, 41.4853663 ] ], [ [ -71.3578087, 41.4838031 ], [ -71.3582248, 41.4836507 ], [ -71.3582834, 41.4835299 ], [ -71.3583132, 41.4834687 ], [ -71.3579909, 41.4833496 ], [ -71.3579324, 41.4834455 ], [ -71.3578565, 41.4835154 ], [ -71.357827, 41.4834415 ], [ -71.3577582, 41.4835276 ], [ -71.3577384, 41.4836111 ], [ -71.3578087, 41.4838031 ] ], [ [ -71.3532609, 41.4835639 ], [ -71.3531056, 41.4836183 ], [ -71.3531101, 41.4835116 ], [ -71.3533666, 41.4832805 ], [ -71.3536754, 41.4834186 ], [ -71.3535237, 41.4834718 ], [ -71.3532609, 41.4835639 ] ], [ [ -71.3530782, 41.4828801 ], [ -71.3530351, 41.4828767 ], [ -71.353008, 41.4828849 ], [ -71.3529804, 41.4828952 ], [ -71.3529678, 41.4829188 ], [ -71.3529804, 41.4829537 ], [ -71.3530356, 41.4830122 ], [ -71.3530908, 41.4830556 ], [ -71.3531459, 41.4830678 ], [ -71.3532112, 41.483066 ], [ -71.353245, 41.4830585 ], [ -71.3532646, 41.4830468 ], [ -71.353276, 41.4830329 ], [ -71.3532682, 41.4830234 ], [ -71.3531995, 41.4829396 ], [ -71.3531982, 41.4829381 ], [ -71.3531654, 41.4829225 ], [ -71.3531341, 41.4829063 ], [ -71.3530782, 41.4828801 ] ] ] } },
{ "type": "Feature", "properties": { "RCID": 2378, "PRIM": 3, "GRUP": 2, "OBJL": 4, "RVER": 1, "AGEN": 550, "FIDN": 324436438, "FIDS": 8691, "LNAM": "0226135681D621F3", "CATACH": [ "1" ], "OBJNAM": "East Passage Anchorage Area E", "INFORM": "Naval anchorage, 33 CFR 110.145:Navigation regulations are published in Chapter 2 of the U.S. Coast Pilot for this geographic area. Refer to regulation section numbers.", "SCAMIN": 44999, "SORDAT": "200504", "SORIND": "US,US,graph,Chart 13223" }, "geometry": { "type": "Polygon", "coordinates": [ [ [ -71.325276, 41.5065116 ], [ -71.325, 41.5064448 ], [ -71.325, 41.5061614 ], [ -71.325, 41.5059483 ], [ -71.325, 41.5057465 ], [ -71.325, 41.5057324 ], [ -71.325, 41.5052746 ], [ -71.325, 41.5048139 ], [ -71.325, 41.504094 ], [ -71.325, 41.5028358 ], [ -71.325, 41.5027594 ], [ -71.325, 41.5025841 ], [ -71.325, 41.5023328 ], [ -71.325, 41.5015538 ], [ -71.325, 41.5006959 ], [ -71.325, 41.5005452 ], [ -71.325, 41.4997406 ], [ -71.325, 41.4995806 ], [ -71.325, 41.4966245 ], [ -71.3252181, 41.4966028 ], [ -71.3268042, 41.4999825 ], [ -71.3268056, 41.4999855 ], [ -71.3268881, 41.5001612 ], [ -71.3268895, 41.5001642 ], [ -71.3275203, 41.5015084 ], [ -71.3278397, 41.5021888 ], [ -71.3278977, 41.5023123 ], [ -71.3286044, 41.5038182 ], [ -71.3287861, 41.5042053 ], [ -71.3289634, 41.5045832 ], [ -71.3293809, 41.5054729 ], [ -71.3293987, 41.5055108 ], [ -71.3295228, 41.5057735 ], [ -71.3295433, 41.5058168 ], [ -71.3295643, 41.5058613 ], [ -71.3299311, 41.5066373 ], [ -71.3299609, 41.5067551 ], [ -71.329962, 41.5067596 ], [ -71.3298374, 41.5067582 ], [ -71.329731, 41.5067117 ], [ -71.3296133, 41.5066465 ], [ -71.3294991, 41.5065752 ], [ -71.3293064, 41.5064355 ], [ -71.3291236, 41.5063104 ], [ -71.3289584, 41.5061837 ], [ -71.3288379, 41.5060674 ], [ -71.3287111, 41.5059552 ], [ -71.3286326, 41.5058684 ], [ -71.3282814, 41.5054195 ], [ -71.328275, 41.5051436 ], [ -71.3283693, 41.5050161 ], [ -71.3283859, 41.5049352 ], [ -71.3283779, 41.5048475 ], [ -71.328336, 41.5047758 ], [ -71.3282879, 41.5047054 ], [ -71.328243, 41.5046557 ], [ -71.328197, 41.504605 ], [ -71.3281695, 41.5045513 ], [ -71.3280696, 41.504357 ], [ -71.3276629, 41.5042562 ], [ -71.3275749, 41.5042025 ], [ -71.3272027, 41.5041263 ], [ -71.3264185, 41.5039087 ], [ -71.3260888, 41.5038172 ], [ -71.3255314, 41.5032722 ], [ -71.3255306, 41.5032714 ], [ -71.325433, 41.5032973 ], [ -71.3252924, 41.5033347 ], [ -71.3256034, 41.5040692 ], [ -71.3256133, 41.5040926 ], [ -71.3257647, 41.5041744 ], [ -71.3260187, 41.5043117 ], [ -71.3260433, 41.5043241 ], [ -71.3261622, 41.504384 ], [ -71.3261665, 41.5043861 ], [ -71.3266078, 41.5046316 ], [ -71.3267307, 41.5046999 ], [ -71.3270718, 41.5048823 ], [ -71.3270777, 41.5048856 ], [ -71.3272448, 41.5049756 ], [ -71.3272607, 41.5049841 ], [ -71.3274243, 41.5050728 ], [ -71.3274553, 41.5051913 ], [ -71.327442, 41.5052196 ], [ -71.327408, 41.5052919 ], [ -71.3273757, 41.5053553 ], [ -71.3273368, 41.5054318 ], [ -71.3272857, 41.5055326 ], [ -71.3272401, 41.5056259 ], [ -71.3271977, 41.505712 ], [ -71.3271322, 41.5058412 ], [ -71.3271157, 41.5058372 ], [ -71.3269898, 41.5058067 ], [ -71.3269384, 41.5059063 ], [ -71.3269254, 41.5059315 ], [ -71.3270529, 41.5060076 ], [ -71.3269841, 41.5061511 ], [ -71.3268211, 41.5064651 ], [ -71.3266737, 41.5067769 ], [ -71.3259907, 41.5066371 ], [ -71.3259902, 41.506637 ], [ -71.3258558, 41.5066095 ], [ -71.3257946, 41.5065978 ], [ -71.3252911, 41.5065017 ], [ -71.3252811, 41.5064998 ], [ -71.325276, 41.5065116 ] ] ] } }
]
}
