{
"type": "FeatureCollection",
"name": "ACHBRT",
"crs": { "type": "name", "properties": { "name": "urn:ogc:def:crs:OGC:1.3:CRS84" } },
"features": [
{ "type": "Feature", "properties": { "RCID": 2393, "PRIM": 1, "GRUP": 2, "OBJL": 3, "RVER": 1, "AGEN": 550, "FIDN": 900390758, "FIDS": 7303, "LNAM": "022635AADF661C87", "OBJNAM": "A4", "RADIUS": 67.6, "INFORM": "Used only when directed by SOPA (Admin) Newport", "SCAMIN": 29999, "SORDAT": "200706", "SORIND": "US,US,graph,Chart 13223" }, "geometry": { "type": "Point", "coordinates": [ -71.3577694, 41.5144111 ] } },
{ "type": "Feature", "properties": { "RCID": 2394, "PRIM": 1, "GRUP": 2, "OBJL": 3, "RVER": 1, "AGEN": 550, "FIDN": 463133924, "FIDS": 7303, "LNAM": "02261B9ADCE41C87", "OBJNAM": "M16", "RADIUS": 91.7, "INFORM": "Used only when directed by SOPA (Admin) Newport", "SCAMIN": 29999, "SORDAT": "200706", "SORIND": "US,US,graph,Chart 13223" }, "geometry": { "type": "Point", "coordinates": [ -71.3558696, 41.5190857 ] } },
{ "type": "Feature", "properties": { "RCID": 2395, "PRIM": 1, "GRUP": 2, "OBJL": 3, "RVER": 1, "AGEN": 550, "FIDN": 93449100, "FIDS": 7303, "LNAM": "02260591EB8C1C87", "OBJNAM": "M17", "RADIUS": 123.7, "SCAMIN": 29999, "SORDAT": "200706", "SORIND": "US,US,graph,Chart 13223" }, "geometry": { "type": "Point", "coordinates": [ -71.3480269, 41.5216011 ] } },
{ "type": "Feature", "properties": { "RCID": 2396, "PRIM": 1, "GRUP": 2, "OBJL": 3, "RVER": 1, "AGEN": 550, "FIDN": 269965864, "FIDS": 7303, "LNAM": "022610175A281C87", "OBJNAM": "M12", "RADIUS": 83.8, "INFORM": "Used only when directed by SOPA (Admin) Newport", "SCAMIN": 29999, "SORDAT": "200706", "SORIND": "US,US,graph,Chart 13223" }, "geometry": { "type": "Point", "coordinates": [ -71.3972611, 41.5153306 ] } },
{ "type": "Feature", "properties": { "RCID": 2397, "PRIM": 1, "GRUP": 2, "OBJL": 3, "RVER": 1, "AGEN": 550, "FIDN": 476328646, "FIDS": 7303, "LNAM": "02261C6432C61C87", "OBJNAM": "A3", "RADIUS": 91.7, "INFORM": "Used only when directed by SOPA (Admin) Newport", "SCAMIN": 29999, "SORDAT": "200706", "SORIND": "US,US,graph,Chart 13223" }, "geometry": { "type": "Point", "coordinates": [ -71.3536237, 41.510678 ] } },
{ "type": "Feature", "properties": { "RCID": 2398, "PRIM": 1, "GRUP": 2, "OBJL": 3, "RVER": 1, "AGEN": 550, "FIDN": 797042314, "FIDS": 7303, "LNAM": "02262F81E68A1C87", "OBJNAM": "M1", "RADIUS": 100.6, "SCAMIN": 29999, "SORDAT": "200706", "SORIND": "US,US,graph,Chart 13223" }, "geometry": { "type": "Point", "coordinates": [ -71.33522, 41.487535 ] } },
{ "type": "Feature", "properties": { "RCID": 2399, "PRIM": 1, "GRUP": 2, "OBJL": 3, "RVER": 1, "AGEN": 550, "FIDN": 178872722, "FIDS": 7303, "LNAM": "02260AA961921C87", "OBJNAM": "M20", "RADIUS": 111.2, "SCAMIN": 29999, "SORDAT": "200706", "SORIND": "US,US,graph,Chart 13223" }, "geometry": { "type": "Point", "coordinates": [ -71.3572388, 41.5380596 ] } },
{ "type": "Feature", "properties": { "RCID": 2400, "PRIM": 1, "GRUP": 2, "OBJL": 3, "RVER": 1, "AGEN": 550, "FIDN": 83687506, "FIDS": 7303, "LNAM": "022604FCF8521C87", "OBJNAM": "A1", "RADIUS": 96.0, "INFORM": "Used only when directed by SOPA (Admin) Newport", "SCAMIN": 29999, "SORDAT": "200706", "SORIND": "US,US,graph,Chart 13223" }, "geometry": { "type": "Point", "coordinates": [ -71.3558694, 41.4890972 ] } },
{ "type": "Feature", "properties": { "RCID": 2401, "PRIM": 1, "GRUP": 2, "OBJL": 3, "RVER": 1, "AGEN": 550, "FIDN": 111547242, "FIDS": 7303, "LNAM": "022606A6136A1C87", "OBJNAM": "M19", "RADIUS": 114.5, "SCAMIN": 29999, "SORDAT": "200706", "SORIND": "US,US,graph,Chart 13223" }, "geometry": { "type": "Point", "coordinates": [ -71.3548915, 41.5314872 ] } },
{ "type": "Feature", "properties": { "RCID": 2402, "PRIM": 1, "GRUP": 2, "OBJL": 3, "RVER": 1, "AGEN": 550, "FIDN": 666738992, "FIDS": 7303, "LNAM": "022627BDA1301C87", "OBJNAM": "M18", "RADIUS": 94.7, "SCAMIN": 29999, "SORDAT": "200706", "SORIND": "US,US,graph,Chart 13223" }, "geometry": { "type": "Point", "coordinates": [ -71.3551651, 41.5252453 ] } },
{ "type": "Feature", "properties": { "RCID": 2403, "PRIM": 1, "GRUP": 2, "OBJL": 3, "RVER": 1, "AGEN": 550, "FIDN": 666259555, "FIDS": 7303, "LNAM": "022627B650631C87", "OBJNAM": "M15", "RADIUS": 91.7, "SCAMIN": 29999, "SORDAT": "200706", "SORIND": "US,US,graph,Chart 13223" }, "geometry": { "type": "Point", "coordinates": [ -71.3505138, 41.5154493 ] } },
{ "type": "Feature", "properties": { "RCID": 2404, "PRIM": 1, "GRUP": 2, "OBJL": 3, "RVER": 1, "AGEN": 550, "FIDN": 610879531, "FIDS": 7303, "LNAM": "02262469482B1C87", "OBJNAM": "M2", "RADIUS": 64.0, "SCAMIN": 29999, "SORDAT": "200706", "SORIND": "US,US,graph,Chart 13223" }, "geometry": { "type": "Point", "coordinates": [ -71.3383833, 41.5082389 ] } }
]
}
