{
"type": "FeatureCollection",
"name": "BCNSPP",
"crs": { "type": "name", "properties": { "name": "urn:ogc:def:crs:OGC:1.3:CRS84" } },
"features": [
{ "type": "Feature", "properties": { "RCID": 1, "PRIM": 1, "GRUP": 2, "OBJL": 9, "RVER": 1, "AGEN": 550, "FIDN": 19031488, "FIDS": 64375, "LNAM": "0226012265C0FB77", "BCNSHP": 1, "CATSPM": [ "27" ], "COLOUR": [ ], "CONRAD": 3, "OBJNAM": "9", "STATUS": [ "1" ], "INFORM": "Maintained by U.S. Navy", "SCAMIN": 59999, "SORDAT": "200504", "SORIND": "US,US,graph,Chart 13223" }, "geometry": { "type": "Point", "coordinates": [ -71.3598712, 41.5109955 ] } },
{ "type": "Feature", "properties": { "RCID": 2, "PRIM": 1, "GRUP": 2, "OBJL": 9, "RVER": 1, "AGEN": 550, "FIDN": 768720199, "FIDS": 8691, "LNAM": "02262DD1BD4721F3", "LNAM_REFS": [ "022615A9D40921F3" ], "FFPT_RIND": [ 2 ], "BCNSHP": 1, "CATSPM": [ "52" ], "COLOUR": [ ], "OBJNAM": "Newport - Pell Bridge Sound Signal", "STATUS": [ "8" ], "SCAMIN": 59999, "SORDAT": "20120518", "SORIND": "US,US,reprt,USCG Light List Vol 1,17911" }, "geometry": { "type": "Point", "coordinates": [ -71.3513889, 41.5055556 ] } },
{ "type": "Feature", "properties": { "RCID": 3, "PRIM": 1, "GRUP": 2, "OBJL": 9, "RVER": 1, "AGEN": 550, "FIDN": 587079253, "FIDS": 8691, "LNAM": "022622FE1E5521F3", "LNAM_REFS": [ "0226397DDAD721F3" ], "FFPT_RIND": [ 2 ], "CATSPM": [ ], "COLOUR": [ ], "SCAMIN": 59999, "SORDAT": "20120518", "SORIND": "US,US,reprt,USCG Light List vol 1,17910" }, "geometry": { "type": "Point", "coordinates": [ -71.3487, 41.5049694 ] } },
{ "type": "Feature", "properties": { "RCID": 4, "PRIM": 1, "GRUP": 2, "OBJL": 9, "RVER": 1, "AGEN": 550, "FIDN": 19032289, "FIDS": 64375, "LNAM": "0226012268E1FB77", "LNAM_REFS": [ "0226012265B8FB77", "0226012265B1FB77" ], "FFPT_RIND": [ 2, 2 ], "BCNSHP": 4, "CATSPM": [ "27" ], "COLOUR": [ ], "OBJNAM": "Gould Island South Light", "STATUS": [ "1" ], "SCAMIN": 59999, "SORDAT": "200504", "SORIND": "US,US,graph,Chart 13223" }, "geometry": { "type": "Point", "coordinates": [ -71.3439746, 41.52947 ] } },
{ "type": "Feature", "properties": { "RCID": 5, "PRIM": 1, "GRUP": 2, "OBJL": 9, "RVER": 1, "AGEN": 550, "FIDN": 19031558, "FIDS": 64375, "LNAM": "022601226606FB77", "LNAM_REFS": [ "0226012265F3FB77", "0226012265BAFB77", "0226012265DAFB77" ], "FFPT_RIND": [ 2, 2, 2 ], "BCNSHP": 4, "CATSPM": [ "27" ], "COLOUR": [ "1" ], "OBJNAM": "Fort Adams Light 2", "STATUS": [ "1" ], "SCAMIN": 59999, "SORDAT": "20040323", "SORIND": "US,US,reprt,1stCGD,LNM 12/04" }, "geometry": { "type": "Point", "coordinates": [ -71.3367736, 41.4817411 ] } },
{ "type": "Feature", "properties": { "RCID": 6, "PRIM": 1, "GRUP": 2, "OBJL": 9, "RVER": 1, "AGEN": 550, "FIDN": 19031659, "FIDS": 64375, "LNAM": "02260122666BFB77", "LNAM_REFS": [ "0226012265F0FB77" ], "FFPT_RIND": [ 2 ], "BCNSHP": 1, "CATSPM": [ "27" ], "COLOUR": [ ], "OBJNAM": "Rose Island Light", "STATUS": [ "8" ], "SCAMIN": 59999, "SORDAT": "200504", "SORIND": "US,US,graph,Chart 13223" }, "geometry": { "type": "Point", "coordinates": [ -71.3427231, 41.4954682 ] } }
]
}
