{
"type": "FeatureCollection",
"name": "FORSTC",
"crs": { "type": "name", "properties": { "name": "urn:ogc:def:crs:OGC:1.3:CRS84" } },
"features": [
{ "type": "Feature", "properties": { "RCID": 423, "PRIM": 3, "GRUP": 2, "OBJL": 59, "RVER": 1, "AGEN": 550, "FIDN": 197443359, "FIDS": 8691, "LNAM": "02260BC4BF1F21F3", "CATFOR": 2, "SCAMIN": 29999, "SORDAT": "20140818", "SORIND": "US,US,graph,GC-11187" }, "geometry": { "type": "Polygon", "coordinates": [ [ [ -71.3393019, 41.4780286 ], [ -71.3388146, 41.4777319 ], [ -71.3384879, 41.4774862 ], [ -71.3379835, 41.4776449 ], [ -71.3366739, 41.477965 ], [ -71.3366282, 41.4780246 ], [ -71.3364997, 41.4780632 ], [ -71.3362733, 41.4775594 ], [ -71.336261, 41.4775131 ], [ -71.3368734, 41.4774805 ], [ -71.3370761, 41.4776726 ], [ -71.337403, 41.477597 ], [ -71.3380703, 41.4774195 ], [ -71.3380393, 41.4771863 ], [ -71.3380443, 41.4771711 ], [ -71.3380989, 41.4771538 ], [ -71.3385631, 41.4769118 ], [ -71.3389052, 41.477312 ], [ -71.3388138, 41.4774722 ], [ -71.3390311, 41.4776172 ], [ -71.3393512, 41.4778328 ], [ -71.3396139, 41.4777009 ], [ -71.3400837, 41.4778373 ], [ -71.3399389, 41.4779596 ], [ -71.3395946, 41.4782497 ], [ -71.3393755, 41.4781759 ], [ -71.3394011, 41.4781361 ], [ -71.3393019, 41.4780286 ] ] ] } },
{ "type": "Feature", "properties": { "RCID": 424, "PRIM": 3, "GRUP": 2, "OBJL": 59, "RVER": 1, "AGEN": 550, "FIDN": 228458938, "FIDS": 8691, "LNAM": "02260D9E01BA21F3", "CATFOR": 2, "OBJNAM": "Fort Adams", "SCAMIN": 29999, "SORDAT": "20140818", "SORIND": "US,US,graph,GC-11187" }, "geometry": { "type": "Polygon", "coordinates": [ [ [ -71.3365078, 41.4799934 ], [ -71.3367002, 41.479167 ], [ -71.3367205, 41.4790715 ], [ -71.3369243, 41.4790208 ], [ -71.3368648, 41.4784328 ], [ -71.3366576, 41.4784039 ], [ -71.3365503, 41.4781626 ], [ -71.336977, 41.4780558 ], [ -71.3381778, 41.477742 ], [ -71.3381943, 41.4777355 ], [ -71.3382947, 41.4777057 ], [ -71.3383557, 41.4777123 ], [ -71.3385584, 41.4777405 ], [ -71.3391906, 41.478167 ], [ -71.3392022, 41.478182 ], [ -71.3393237, 41.4782582 ], [ -71.3392095, 41.4783856 ], [ -71.3384511, 41.4792317 ], [ -71.3386214, 41.479339 ], [ -71.3382623, 41.4798983 ], [ -71.3378252, 41.4798355 ], [ -71.3377583, 41.4796837 ], [ -71.3369621, 41.4797235 ], [ -71.3369252, 41.4798837 ], [ -71.3365078, 41.4799934 ] ], [ [ -71.337833, 41.4796056 ], [ -71.3377736, 41.4796034 ], [ -71.336901, 41.4796524 ], [ -71.3368436, 41.4796498 ], [ -71.3367421, 41.4796294 ], [ -71.3367844, 41.4795137 ], [ -71.3368525, 41.4791771 ], [ -71.337078, 41.4791284 ], [ -71.3370914, 41.479113 ], [ -71.3370896, 41.4790788 ], [ -71.3370233, 41.4783724 ], [ -71.3370019, 41.4782366 ], [ -71.3370634, 41.4782037 ], [ -71.3380488, 41.4779492 ], [ -71.3382707, 41.4778964 ], [ -71.3382784, 41.4778885 ], [ -71.3383668, 41.4778722 ], [ -71.338418, 41.4778808 ], [ -71.338696, 41.4780608 ], [ -71.3390495, 41.4782995 ], [ -71.3390834, 41.4783241 ], [ -71.3391187, 41.4783406 ], [ -71.3388247, 41.4786663 ], [ -71.3383426, 41.4792095 ], [ -71.3383242, 41.47924 ], [ -71.3383434, 41.4792645 ], [ -71.3384888, 41.4793548 ], [ -71.3384, 41.4794987 ], [ -71.3382201, 41.4797745 ], [ -71.3381983, 41.4798073 ], [ -71.3379002, 41.4797699 ], [ -71.337833, 41.4796056 ] ] ] } },
{ "type": "Feature", "properties": { "RCID": 425, "PRIM": 3, "GRUP": 2, "OBJL": 59, "RVER": 1, "AGEN": 550, "FIDN": 349251353, "FIDS": 8691, "LNAM": "022614D1271921F3", "SCAMIN": 29999 }, "geometry": { "type": "Polygon", "coordinates": [ [ [ -71.337833, 41.4796056 ], [ -71.3377736, 41.4796034 ], [ -71.336901, 41.4796524 ], [ -71.3368436, 41.4796498 ], [ -71.3367421, 41.4796294 ], [ -71.3367844, 41.4795137 ], [ -71.3368525, 41.4791771 ], [ -71.337078, 41.4791284 ], [ -71.3370914, 41.479113 ], [ -71.3370896, 41.4790788 ], [ -71.3370233, 41.4783724 ], [ -71.3370019, 41.4782366 ], [ -71.3370634, 41.4782037 ], [ -71.3380488, 41.4779492 ], [ -71.3382707, 41.4778964 ], [ -71.3382784, 41.4778885 ], [ -71.3383668, 41.4778722 ], [ -71.338418, 41.4778808 ], [ -71.338696, 41.4780608 ], [ -71.3390495, 41.4782995 ], [ -71.3390834, 41.4783241 ], [ -71.3391187, 41.4783406 ], [ -71.3388247, 41.4786663 ], [ -71.3383426, 41.4792095 ], [ -71.3383242, 41.47924 ], [ -71.3383434, 41.4792645 ], [ -71.3384888, 41.4793548 ], [ -71.3384, 41.4794987 ], [ -71.3382201, 41.4797745 ], [ -71.3381983, 41.4798073 ], [ -71.3379002, 41.4797699 ], [ -71.337833, 41.4796056 ] ] ] } }
]
}
