{
"type": "FeatureCollection",
"name": "LIGHTS",
"crs": { "type": "name", "properties": { "name": "urn:ogc:def:crs:OGC:1.3:CRS84" } },
"features": [
{ "type": "Feature", "properties": { "RCID": 55, "PRIM": 1, "GRUP": 2, "OBJL": 75, "RVER": 1, "AGEN": 550, "FIDN": 20416727, "FIDS": 64375, "LNAM": "0226013788D7FB77", "CATLIT": [ ], "COLOUR": [ "4" ], "EXCLIT": 4, "LITCHR": 2, "SIGGRP": "(2+1)", "SIGPER": 6.0, "SIGSEQ": "00.3+(00.4)+00.3+(01.2)+00.3+(03.5)", "SCAMIN": 59999, "SORDAT": "20141209", "SORIND": "US,US,reprt,1stCGD,LNM 49/14" }, "geometry": { "type": "Point", "coordinates": [ -71.3471667, 41.5112667 ] } },
{ "type": "Feature", "properties": { "RCID": 56, "PRIM": 1, "GRUP": 2, "OBJL": 75, "RVER": 1, "AGEN": 550, "FIDN": 19031536, "FIDS": 64375, "LNAM": "0226012265F0FB77", "CATLIT": [ ], "COLOUR": [ "1" ], "EXCLIT": 4, "HEIGHT": 14.6, "LITCHR": 2, "SIGGRP": "(1)", "SIGPER": 6.0, "SIGSEQ": "00.6+(05.4)", "SCAMIN": 59999, "SORDAT": "200504", "SORIND": "US,US,graph,Chart 13223" }, "geometry": { "type": "Point", "coordinates": [ -71.3427231, 41.4954682 ] } },
{ "type": "Feature", "properties": { "RCID": 57, "PRIM": 1, "GRUP": 2, "OBJL": 75, "RVER": 1, "AGEN": 550, "FIDN": 650524488, "FIDS": 2018, "LNAM": "022626C6374807E2", "CATLIT": [ ], "COLOUR": [ "1" ], "EXCLIT": 4, "LITCHR": 2, "SIGGRP": "(1)", "SIGPER": 6.0, "SIGSEQ": "00.6+(05.4)", "STATUS": [ "8" ], "SCAMIN": 59999, "SORDAT": "20210701", "SORIND": "US,US,reprt,1stCGD,LNM 26/21" }, "geometry": { "type": "Point", "coordinates": [ -71.39455, 41.5162333 ] } },
{ "type": "Feature", "properties": { "RCID": 58, "PRIM": 1, "GRUP": 2, "OBJL": 75, "RVER": 1, "AGEN": 550, "FIDN": 19031514, "FIDS": 64375, "LNAM": "0226012265DAFB77", "CATLIT": [ ], "COLOUR": [ "3" ], "EXCLIT": 4, "HEIGHT": 9.8, "LITCHR": 2, "SIGGRP": "(1)", "SIGPER": 6.0, "SIGSEQ": "00.6+(05.4)", "VALNMR": 7.0, "SCAMIN": 59999, "SORDAT": "200504", "SORIND": "US,US,graph,Chart 13223" }, "geometry": { "type": "Point", "coordinates": [ -71.3367736, 41.4817411 ] } },
{ "type": "Feature", "properties": { "RCID": 59, "PRIM": 1, "GRUP": 2, "OBJL": 75, "RVER": 1, "AGEN": 550, "FIDN": 19031459, "FIDS": 64375, "LNAM": "0226012265A3FB77", "CATLIT": [ ], "COLOUR": [ "3" ], "EXCLIT": 4, "LITCHR": 2, "SIGGRP": "(1)", "SIGPER": 4.0, "SIGSEQ": "00.4+(03.6)", "SCAMIN": 59999, "SORDAT": "200504", "SORIND": "US,US,graph,Chart 13223" }, "geometry": { "type": "Point", "coordinates": [ -71.3342186, 41.51663 ] } },
{ "type": "Feature", "properties": { "RCID": 60, "PRIM": 1, "GRUP": 2, "OBJL": 75, "RVER": 1, "AGEN": 550, "FIDN": 19031492, "FIDS": 64375, "LNAM": "0226012265C4FB77", "CATLIT": [ ], "COLOUR": [ "3" ], "EXCLIT": 4, "LITCHR": 2, "SIGGRP": "(1)", "SIGPER": 4.0, "SIGSEQ": "00.4+(03.6)", "SCAMIN": 59999, "SORDAT": "20160315", "SORIND": "US,US,reprt,1stCGD,LNM 11/16" }, "geometry": { "type": "Point", "coordinates": [ -71.3608831, 41.4957 ] } },
{ "type": "Feature", "properties": { "RCID": 61, "PRIM": 1, "GRUP": 2, "OBJL": 75, "RVER": 1, "AGEN": 550, "FIDN": 19031534, "FIDS": 64375, "LNAM": "0226012265EEFB77", "CATLIT": [ ], "COLOUR": [ "4" ], "EXCLIT": 4, "LITCHR": 2, "SIGGRP": "(1)", "SIGPER": 2.5, "SIGSEQ": "00.3+(02.2)", "SCAMIN": 59999, "SORDAT": "20070925", "SORIND": "US,US,reprt,1stCGD,LNM 39/07" }, "geometry": { "type": "Point", "coordinates": [ -71.3268706, 41.4816942 ] } },
{ "type": "Feature", "properties": { "RCID": 62, "PRIM": 1, "GRUP": 2, "OBJL": 75, "RVER": 1, "AGEN": 550, "FIDN": 19031503, "FIDS": 64375, "LNAM": "0226012265CFFB77", "CATLIT": [ ], "COLOUR": [ "4" ], "EXCLIT": 4, "LITCHR": 4, "SIGGRP": "(1)", "SIGPER": 1.0, "SIGSEQ": "00.3+(00.7)", "SCAMIN": 59999, "SORDAT": "200504", "SORIND": "US,US,graph,Chart 13223" }, "geometry": { "type": "Point", "coordinates": [ -71.3354054, 41.5297238 ] } },
{ "type": "Feature", "properties": { "RCID": 63, "PRIM": 1, "GRUP": 2, "OBJL": 75, "RVER": 1, "AGEN": 550, "FIDN": 19031512, "FIDS": 64375, "LNAM": "0226012265D8FB77", "CATLIT": [ ], "COLOUR": [ "4" ], "EXCLIT": 4, "LITCHR": 2, "SIGGRP": "(1)", "SIGPER": 4.0, "SIGSEQ": "00.4+(03.6)", "STATUS": [ "5" ], "INFORM": "Removed when endangered by ice", "SCAMIN": 59999, "SORDAT": "20191105", "SORIND": "US,US,reprt,1stCGD,LNM 45/19" }, "geometry": { "type": "Point", "coordinates": [ -71.3252826, 41.4836063 ] } },
{ "type": "Feature", "properties": { "RCID": 64, "PRIM": 1, "GRUP": 2, "OBJL": 75, "RVER": 1, "AGEN": 550, "FIDN": 69510933, "FIDS": 2018, "LNAM": "02260424A71507E2", "CATLIT": [ ], "COLOUR": [ "1" ], "EXCLIT": 4, "LITCHR": 2, "SIGGRP": "(1)", "SIGPER": 6.0, "SIGSEQ": "00.6+(05.4)", "STATUS": [ "8" ], "SCAMIN": 59999, "SORDAT": "20210701", "SORIND": "US,US,reprt,1stCGD,LNM 26/21" }, "geometry": { "type": "Point", "coordinates": [ -71.392, 41.5105667 ] } },
{ "type": "Feature", "properties": { "RCID": 65, "PRIM": 1, "GRUP": 2, "OBJL": 75, "RVER": 1, "AGEN": 550, "FIDN": 19031542, "FIDS": 64375, "LNAM": "0226012265F6FB77", "CATLIT": [ ], "COLOUR": [ "4" ], "EXCLIT": 4, "LITCHR": 2, "SIGGRP": "(1)", "SIGPER": 2.5, "SIGSEQ": "00.3+(02.2)", "SCAMIN": 59999, "SORDAT": "200504", "SORIND": "US,US,graph,Chart 13223" }, "geometry": { "type": "Point", "coordinates": [ -71.3539643, 41.4773333 ] } },
{ "type": "Feature", "properties": { "RCID": 66, "PRIM": 1, "GRUP": 2, "OBJL": 75, "RVER": 1, "AGEN": 550, "FIDN": 19031533, "FIDS": 64375, "LNAM": "0226012265EDFB77", "CATLIT": [ ], "COLOUR": [ "4" ], "EXCLIT": 4, "LITCHR": 4, "SIGGRP": "(1)", "SIGPER": 1.0, "SIGSEQ": "00.3+(00.7)", "SCAMIN": 59999, "SORDAT": "200504", "SORIND": "US,US,graph,Chart 13223" }, "geometry": { "type": "Point", "coordinates": [ -71.3506132, 41.4835046 ] } },
{ "type": "Feature", "properties": { "RCID": 67, "PRIM": 1, "GRUP": 2, "OBJL": 75, "RVER": 1, "AGEN": 550, "FIDN": 19031544, "FIDS": 64375, "LNAM": "0226012265F8FB77", "CATLIT": [ ], "COLOUR": [ "3" ], "EXCLIT": 4, "LITCHR": 2, "SIGGRP": "(1)", "SIGPER": 4.0, "SIGSEQ": "00.4+(03.6)", "SCAMIN": 59999, "SORDAT": "200504", "SORIND": "US,US,graph,Chart 13223" }, "geometry": { "type": "Point", "coordinates": [ -71.3446609, 41.4945731 ] } },
{ "type": "Feature", "properties": { "RCID": 68, "PRIM": 1, "GRUP": 2, "OBJL": 75, "RVER": 1, "AGEN": 550, "FIDN": 19031511, "FIDS": 64375, "LNAM": "0226012265D7FB77", "CATLIT": [ ], "COLOUR": [ "4" ], "EXCLIT": 4, "HEIGHT": 10.1, "LITCHR": 1, "VALNMR": 9.0, "SCAMIN": 59999, "SORDAT": "20221214", "SORIND": "US,US,reprt,1stCGD,LNM 50/22" }, "geometry": { "type": "Point", "coordinates": [ -71.32706, 41.493325 ] } },
{ "type": "Feature", "properties": { "RCID": 69, "PRIM": 1, "GRUP": 2, "OBJL": 75, "RVER": 1, "AGEN": 550, "FIDN": 19031480, "FIDS": 64375, "LNAM": "0226012265B8FB77", "CATLIT": [ ], "COLOUR": [ "4" ], "EXCLIT": 4, "HEIGHT": 10.4, "LITCHR": 2, "SIGGRP": "(1)", "SIGPER": 6.0, "SIGSEQ": "00.6+(05.4)", "VALNMR": 6.0, "SCAMIN": 59999, "SORDAT": "200504", "SORIND": "US,US,graph,Chart 13223" }, "geometry": { "type": "Point", "coordinates": [ -71.3439746, 41.52947 ] } }
]
}
