{
"type": "FeatureCollection",
"name": "LNDMRK",
"crs": { "type": "name", "properties": { "name": "urn:ogc:def:crs:OGC:1.3:CRS84" } },
"features": [
{ "type": "Feature", "properties": { "RCID": 513, "PRIM": 1, "GRUP": 2, "OBJL": 74, "RVER": 1, "AGEN": 550, "FIDN": 19031568, "FIDS": 64375, "LNAM": "022601226610FB77", "LNAM_REFS": [ "0226012265D7FB77" ], "FFPT_RIND": [ 2 ], "CATLMK": [ "17" ], "COLOUR": [ "1" ], "CONVIS": 1, "FUNCTN": [ "33" ], "HEIGHT": 10.1, "NATCON": [ "1" ], "OBJNAM": "Newport Harbor Light", "STATUS": [ "1" ], "SCAMIN": 59999, "SORDAT": "20221214", "SORIND": "US,US,reprt,1stCGD,LNM 50/22" }, "geometry": { "type": "Point", "coordinates": [ -71.32706, 41.493325 ] } },
{ "type": "Feature", "properties": { "RCID": 514, "PRIM": 1, "GRUP": 2, "OBJL": 74, "RVER": 1, "AGEN": 550, "FIDN": 419250413, "FIDS": 7303, "LNAM": "022618FD40ED1C87", "CATLMK": [ "5" ], "CONVIS": 1, "SCAMIN": 59999, "SORDAT": "20140818", "SORIND": "US,US,graph,GC-11187" }, "geometry": { "type": "Point", "coordinates": [ -71.328283, 41.5070826 ] } },
{ "type": "Feature", "properties": { "RCID": 515, "PRIM": 1, "GRUP": 2, "OBJL": 74, "RVER": 1, "AGEN": 550, "FIDN": 31631894, "FIDS": 7303, "LNAM": "022601E2AA161C87", "CATLMK": [ "18" ], "CONVIS": 1, "SCAMIN": 59999, "SORDAT": "20140818", "SORIND": "US,US,graph,GC-11187" }, "geometry": { "type": "Point", "coordinates": [ -71.3741418, 41.51558 ] } },
{ "type": "Feature", "properties": { "RCID": 516, "PRIM": 1, "GRUP": 2, "OBJL": 74, "RVER": 1, "AGEN": 550, "FIDN": 944157342, "FIDS": 7303, "LNAM": "02263846B29E1C87", "CATLMK": [ "15" ], "CONVIS": 1, "FUNCTN": [ "20" ], "SCAMIN": 59999, "SORDAT": "20140818", "SORIND": "US,US,graph,GC-11187" }, "geometry": { "type": "Point", "coordinates": [ -71.37476, 41.4757147 ] } },
{ "type": "Feature", "properties": { "RCID": 517, "PRIM": 1, "GRUP": 2, "OBJL": 74, "RVER": 1, "AGEN": 550, "FIDN": 348208894, "FIDS": 7303, "LNAM": "022614C13EFE1C87", "CATLMK": [ "15" ], "CONVIS": 1, "FUNCTN": [ "20" ], "SCAMIN": 59999, "SORDAT": "20140818", "SORIND": "US,US,graph,GC-11187" }, "geometry": { "type": "Point", "coordinates": [ -71.32823, 41.5074128 ] } },
{ "type": "Feature", "properties": { "RCID": 518, "PRIM": 1, "GRUP": 2, "OBJL": 74, "RVER": 1, "AGEN": 550, "FIDN": 604845342, "FIDS": 7303, "LNAM": "0226240D351E1C87", "CATLMK": [ "15" ], "CONVIS": 1, "FUNCTN": [ "20" ], "SCAMIN": 59999, "SORDAT": "20140818", "SORIND": "US,US,graph,GC-11187" }, "geometry": { "type": "Point", "coordinates": [ -71.3295519, 41.5074288 ] } },
{ "type": "Feature", "properties": { "RCID": 519, "PRIM": 1, "GRUP": 2, "OBJL": 74, "RVER": 1, "AGEN": 550, "FIDN": 342990824, "FIDS": 7303, "LNAM": "022614719FE81C87", "CATLMK": [ "3" ], "CONVIS": 1, "SCAMIN": 59999, "SORDAT": "20050620", "SORIND": "US,US,graph,GC-10585" }, "geometry": { "type": "Point", "coordinates": [ -71.34515, 41.5308301 ] } }
]
}
