{
"type": "FeatureCollection",
"name": "LNDRGN",
"crs": { "type": "name", "properties": { "name": "urn:ogc:def:crs:OGC:1.3:CRS84" } },
"features": [
{ "type": "Feature", "properties": { "RCID": 1296, "PRIM": 3, "GRUP": 2, "OBJL": 73, "RVER": 1, "AGEN": 550, "FIDN": 177064102, "FIDS": 8691, "LNAM": "02260A8DC8A621F3", "CATLND": [ "2" ], "SCAMIN": 29999, "SORDAT": "20140818", "SORIND": "US,US,graph,GC-11187" }, "geometry": { "type": "Polygon", "coordinates": [ [ [ -71.3961367, 41.4917188 ], [ -71.3960991, 41.4913054 ], [ -71.3961815, 41.4912079 ], [ -71.3962622, 41.4905478 ], [ -71.3965892, 41.4905195 ], [ -71.3968279, 41.4903445 ], [ -71.3969244, 41.4901126 ], [ -71.3969081, 41.4898424 ], [ -71.3972002, 41.4896472 ], [ -71.3973659, 41.4893899 ], [ -71.398045, 41.4888107 ], [ -71.3980129, 41.488718 ], [ -71.3976166, 41.4884198 ], [ -71.3974339, 41.4883854 ], [ -71.3974229, 41.4883285 ], [ -71.3974024, 41.4882232 ], [ -71.3973016, 41.4881654 ], [ -71.3970303, 41.4881472 ], [ -71.3965287, 41.4884473 ], [ -71.3966044, 41.4885152 ], [ -71.3965529, 41.4888387 ], [ -71.3965485, 41.4888666 ], [ -71.3968163, 41.4889082 ], [ -71.3968841, 41.4890193 ], [ -71.3963534, 41.4895667 ], [ -71.3959664, 41.4897783 ], [ -71.3960041, 41.4899379 ], [ -71.3953989, 41.4901037 ], [ -71.3952817, 41.4903815 ], [ -71.3949854, 41.4905202 ], [ -71.394774, 41.4905204 ], [ -71.3947653, 41.4906268 ], [ -71.3945062, 41.4907187 ], [ -71.3944634, 41.4909169 ], [ -71.3943795, 41.4909607 ], [ -71.3945072, 41.4911443 ], [ -71.3942816, 41.4911001 ], [ -71.3942271, 41.4913053 ], [ -71.3944558, 41.4913515 ], [ -71.3943838, 41.491557 ], [ -71.3946032, 41.4916831 ], [ -71.394525, 41.4917282 ], [ -71.3922572, 41.4915255 ], [ -71.3917099, 41.4916526 ], [ -71.3915096, 41.4915146 ], [ -71.3914811, 41.4913805 ], [ -71.3917271, 41.4904972 ], [ -71.3918212, 41.4902493 ], [ -71.3920629, 41.4900545 ], [ -71.392117, 41.4896989 ], [ -71.3921961, 41.4895823 ], [ -71.3927733, 41.4892449 ], [ -71.3932562, 41.4892555 ], [ -71.3937941, 41.4894426 ], [ -71.3947064, 41.4892835 ], [ -71.395009, 41.4891238 ], [ -71.3953736, 41.4890592 ], [ -71.3955524, 41.4887815 ], [ -71.3958698, 41.4885667 ], [ -71.3961157, 41.4881829 ], [ -71.3964218, 41.4880185 ], [ -71.3967499, 41.4875694 ], [ -71.3969268, 41.4875442 ], [ -71.3971042, 41.487635 ], [ -71.3975902, 41.4881202 ], [ -71.3976971, 41.4883228 ], [ -71.397871, 41.488448 ], [ -71.3981662, 41.4885046 ], [ -71.3984528, 41.4887527 ], [ -71.3985784, 41.4889548 ], [ -71.3985837, 41.4891342 ], [ -71.398276, 41.4896636 ], [ -71.3972404, 41.4908813 ], [ -71.3970506, 41.4912698 ], [ -71.3966516, 41.4914583 ], [ -71.3965118, 41.4915981 ], [ -71.3967116, 41.4920898 ], [ -71.3966871, 41.4923043 ], [ -71.3963835, 41.4921338 ], [ -71.3962414, 41.4918053 ], [ -71.3961367, 41.4917188 ] ] ] } },
{ "type": "Feature", "properties": { "RCID": 1297, "PRIM": 3, "GRUP": 2, "OBJL": 73, "RVER": 1, "AGEN": 550, "FIDN": 725051611, "FIDS": 8691, "LNAM": "02262B3768DB21F3", "OBJNAM": "Bull Point", "SCAMIN": 29999, "SORDAT": "200504", "SORIND": "US,US,graph,Chart 13223" }, "geometry": { "type": "Polygon", "coordinates": [ [ [ -71.3549349, 41.4807282 ], [ -71.3547919, 41.4806207 ], [ -71.3548423, 41.4804914 ], [ -71.3547304, 41.4803694 ], [ -71.3548037, 41.4802608 ], [ -71.3548897, 41.4801334 ], [ -71.3548565, 41.4800708 ], [ -71.3548503, 41.4800592 ], [ -71.3549929, 41.4798669 ], [ -71.3553081, 41.4796604 ], [ -71.3562112, 41.4794 ], [ -71.3562326, 41.4794972 ], [ -71.356407, 41.4794888 ], [ -71.3564246, 41.4796903 ], [ -71.3565215, 41.4796162 ], [ -71.3565579, 41.479728 ], [ -71.3565884, 41.4798219 ], [ -71.356683, 41.4800381 ], [ -71.3567069, 41.4801191 ], [ -71.3567536, 41.480329 ], [ -71.3567632, 41.4803974 ], [ -71.3567728, 41.48071 ], [ -71.3567608, 41.4807811 ], [ -71.3567374, 41.4810713 ], [ -71.3567335, 41.4811197 ], [ -71.3564264, 41.4812757 ], [ -71.3559494, 41.4812874 ], [ -71.3558707, 41.4810701 ], [ -71.3556403, 41.4808348 ], [ -71.3555165, 41.4807084 ], [ -71.3550819, 41.4806581 ], [ -71.3549349, 41.4807282 ] ] ] } },
{ "type": "Feature", "properties": { "RCID": 1298, "PRIM": 3, "GRUP": 2, "OBJL": 73, "RVER": 1, "AGEN": 550, "FIDN": 559813919, "FIDS": 8691, "LNAM": "0226215E151F21F3", "OBJNAM": "Taylor Point", "SCAMIN": 29999, "SORDAT": "200504", "SORIND": "US,US,graph,Chart 13223" }, "geometry": { "type": "Polygon", "coordinates": [ [ [ -71.3586183, 41.5098749 ], [ -71.3585043, 41.5096912 ], [ -71.3582179, 41.5092294 ], [ -71.3581444, 41.5091109 ], [ -71.3579456, 41.5087905 ], [ -71.3578507, 41.5082421 ], [ -71.3621428, 41.5098443 ], [ -71.3622289, 41.5098764 ], [ -71.3620815, 41.5098462 ], [ -71.3619089, 41.5098673 ], [ -71.3617249, 41.5099016 ], [ -71.3604099, 41.5106511 ], [ -71.3598542, 41.5107902 ], [ -71.3595514, 41.5107507 ], [ -71.3593888, 41.5106635 ], [ -71.3591854, 41.5103563 ], [ -71.3590594, 41.5101661 ], [ -71.3586183, 41.5098749 ] ] ] } },
{ "type": "Feature", "properties": { "RCID": 1299, "PRIM": 3, "GRUP": 2, "OBJL": 73, "RVER": 1, "AGEN": 550, "FIDN": 606382924, "FIDS": 8691, "LNAM": "02262424AB4C21F3", "CATLND": [ "2" ], "SCAMIN": 29999, "SORDAT": "20140818", "SORIND": "US,US,graph,GC-11187" }, "geometry": { "type": "Polygon", "coordinates": [ [ [ -71.3951757, 41.4918 ], [ -71.3950752, 41.49201 ], [ -71.395096, 41.4920842 ], [ -71.3953663, 41.4921599 ], [ -71.3958639, 41.4918738 ], [ -71.3957986, 41.491735 ], [ -71.3956316, 41.491691 ], [ -71.3954725, 41.4913711 ], [ -71.3953538, 41.491412 ], [ -71.3952076, 41.4916863 ], [ -71.3953181, 41.4918309 ], [ -71.3951757, 41.4918 ] ] ] } },
{ "type": "Feature", "properties": { "RCID": 1300, "PRIM": 3, "GRUP": 2, "OBJL": 73, "RVER": 1, "AGEN": 550, "FIDN": 57724460, "FIDS": 8691, "LNAM": "02260370CE2C21F3", "OBJNAM": "Beaverhead", "SCAMIN": 29999, "SORDAT": "200504", "SORIND": "US,US,graph,Chart 13223" }, "geometry": { "type": "Polygon", "coordinates": [ [ [ -71.3961868, 41.49467 ], [ -71.3961733, 41.4947227 ], [ -71.396225, 41.4947316 ], [ -71.3965306, 41.4947839 ], [ -71.3965337, 41.4947745 ], [ -71.3966347, 41.494467 ], [ -71.3967397, 41.494385 ], [ -71.396781, 41.4942803 ], [ -71.3968114, 41.4942052 ], [ -71.3968604, 41.4940448 ], [ -71.3970101, 41.4936204 ], [ -71.3972779, 41.4932932 ], [ -71.3975423, 41.4932166 ], [ -71.3979218, 41.4932219 ], [ -71.3968335, 41.4923873 ], [ -71.3967309, 41.4925696 ], [ -71.3968507, 41.4928132 ], [ -71.3968158, 41.4932627 ], [ -71.396697, 41.493491 ], [ -71.3966631, 41.4935561 ], [ -71.3966108, 41.4936565 ], [ -71.3965937, 41.4937237 ], [ -71.3965728, 41.4938059 ], [ -71.3965474, 41.4939058 ], [ -71.3964607, 41.4942467 ], [ -71.3964799, 41.4943582 ], [ -71.3965242, 41.4944483 ], [ -71.3964549, 41.4946548 ], [ -71.396322, 41.4946321 ], [ -71.3962018, 41.4946115 ], [ -71.3961868, 41.49467 ] ] ] } },
{ "type": "Feature", "properties": { "RCID": 1301, "PRIM": 3, "GRUP": 2, "OBJL": 73, "RVER": 1, "AGEN": 550, "FIDN": 150289687, "FIDS": 8691, "LNAM": "022608F53D1721F3", "OBJNAM": "Coddington Point", "SCAMIN": 29999, "SORDAT": "200504", "SORIND": "US,US,graph,Chart 13223" }, "geometry": { "type": "Polygon", "coordinates": [ [ [ -71.325, 41.5219592 ], [ -71.325, 41.522524 ], [ -71.3253045, 41.5224245 ], [ -71.3253959, 41.5223983 ], [ -71.3251354, 41.5221457 ], [ -71.32506, 41.5220322 ], [ -71.3250169, 41.5219773 ], [ -71.325, 41.5219592 ] ] ] } },
{ "type": "Feature", "properties": { "RCID": 1302, "PRIM": 3, "GRUP": 2, "OBJL": 73, "RVER": 1, "AGEN": 550, "FIDN": 240816224, "FIDS": 8691, "LNAM": "02260E5A906021F3", "CATLND": [ "2" ], "SCAMIN": 29999, "SORDAT": "20140818", "SORIND": "US,US,graph,GC-11187" }, "geometry": { "type": "Polygon", "coordinates": [ [ [ -71.3865172, 41.4904806 ], [ -71.3863424, 41.4901525 ], [ -71.3864384, 41.490107 ], [ -71.3865112, 41.4899234 ], [ -71.3866733, 41.4899064 ], [ -71.3867378, 41.4895951 ], [ -71.3866565, 41.4895478 ], [ -71.3863372, 41.4894185 ], [ -71.3859796, 41.4888386 ], [ -71.3852486, 41.4889255 ], [ -71.3858172, 41.4884018 ], [ -71.3864536, 41.4879474 ], [ -71.3865053, 41.4883326 ], [ -71.3868642, 41.4885255 ], [ -71.3871324, 41.4889896 ], [ -71.387462, 41.4891854 ], [ -71.3876607, 41.4897651 ], [ -71.387971, 41.4898505 ], [ -71.3879821, 41.4899856 ], [ -71.387848, 41.4901872 ], [ -71.387523, 41.4911924 ], [ -71.3873465, 41.4914834 ], [ -71.387448, 41.4917514 ], [ -71.3873994, 41.4918265 ], [ -71.3867782, 41.4918404 ], [ -71.3865172, 41.4917033 ], [ -71.3864791, 41.4907237 ], [ -71.3865336, 41.4906325 ], [ -71.3865172, 41.4904806 ] ] ] } },
{ "type": "Feature", "properties": { "RCID": 1303, "PRIM": 3, "GRUP": 2, "OBJL": 73, "RVER": 1, "AGEN": 550, "FIDN": 424568938, "FIDS": 8691, "LNAM": "0226194E686A21F3", "OBJNAM": "Newport Neck", "SCAMIN": 29999, "SORDAT": "200504", "SORIND": "US,US,graph,Chart 13223" }, "geometry": { "type": "Polygon", "coordinates": [ [ [ -71.3371027, 41.4807586 ], [ -71.3370084, 41.4807907 ], [ -71.3368386, 41.4808489 ], [ -71.3367852, 41.4809168 ], [ -71.3368121, 41.4810719 ], [ -71.3368322, 41.4812178 ], [ -71.3368379, 41.4814532 ], [ -71.3366953, 41.4814591 ], [ -71.3366793, 41.4811407 ], [ -71.3366664, 41.4809025 ], [ -71.3366486, 41.4808364 ], [ -71.336625, 41.4807489 ], [ -71.3366123, 41.480702 ], [ -71.3365745, 41.4806328 ], [ -71.3365274, 41.4805465 ], [ -71.336516, 41.4805401 ], [ -71.3362147, 41.4803706 ], [ -71.3362121, 41.4803691 ], [ -71.3360906, 41.4802982 ], [ -71.3360194, 41.4801094 ], [ -71.3358589, 41.4796852 ], [ -71.335798, 41.47957 ], [ -71.335707, 41.4795044 ], [ -71.3355753, 41.4794653 ], [ -71.3354383, 41.4794521 ], [ -71.3354065, 41.4794461 ], [ -71.3353186, 41.4794297 ], [ -71.3353129, 41.479401 ], [ -71.3352911, 41.4792915 ], [ -71.3352144, 41.4789054 ], [ -71.3352072, 41.4788693 ], [ -71.3352065, 41.4788658 ], [ -71.3352957, 41.4787427 ], [ -71.3352911, 41.4786658 ], [ -71.3352837, 41.4785393 ], [ -71.3352712, 41.4784435 ], [ -71.3352604, 41.4783615 ], [ -71.3352402, 41.4781469 ], [ -71.3352333, 41.4779973 ], [ -71.3352332, 41.4779938 ], [ -71.3352325, 41.4779839 ], [ -71.3352302, 41.4779534 ], [ -71.3352115, 41.4777003 ], [ -71.3351846, 41.477388 ], [ -71.3351772, 41.4773022 ], [ -71.3351509, 41.4771108 ], [ -71.3351351, 41.4768898 ], [ -71.3350928, 41.4765435 ], [ -71.3350903, 41.4765233 ], [ -71.3350792, 41.4764134 ], [ -71.3350791, 41.4764122 ], [ -71.3350789, 41.47641 ], [ -71.3350765, 41.4763864 ], [ -71.3350712, 41.4763093 ], [ -71.3350695, 41.4762848 ], [ -71.3350763, 41.4761515 ], [ -71.3351073, 41.4760545 ], [ -71.3351766, 41.4759414 ], [ -71.3352665, 41.4758545 ], [ -71.3353519, 41.4757989 ], [ -71.3355001, 41.4757186 ], [ -71.3357402, 41.4755745 ], [ -71.3358795, 41.4754892 ], [ -71.3360143, 41.4754018 ], [ -71.3361791, 41.4752878 ], [ -71.3363489, 41.4751637 ], [ -71.3364597, 41.4750638 ], [ -71.3364967, 41.475 ], [ -71.3428827, 41.475 ], [ -71.3430148, 41.475 ], [ -71.3429614, 41.4750726 ], [ -71.3429003, 41.4751556 ], [ -71.3428907, 41.4751566 ], [ -71.3426152, 41.475185 ], [ -71.3423265, 41.4753656 ], [ -71.3420398, 41.4757063 ], [ -71.3420311, 41.4758221 ], [ -71.3417796, 41.476175 ], [ -71.3415849, 41.4762588 ], [ -71.3414992, 41.4763291 ], [ -71.3413604, 41.4764661 ], [ -71.3413411, 41.4764914 ], [ -71.3413135, 41.4765275 ], [ -71.3412034, 41.4768902 ], [ -71.3411962, 41.4770436 ], [ -71.3411689, 41.4771399 ], [ -71.3410907, 41.4772261 ], [ -71.3409793, 41.4772901 ], [ -71.3409057, 41.4773415 ], [ -71.3407481, 41.4774778 ], [ -71.3405843, 41.4776238 ], [ -71.3404891, 41.477712 ], [ -71.3403369, 41.4778661 ], [ -71.3401451, 41.4780431 ], [ -71.3400129, 41.4781961 ], [ -71.3397755, 41.4783443 ], [ -71.3396921, 41.4784001 ], [ -71.3395418, 41.4785522 ], [ -71.3394378, 41.4786401 ], [ -71.3392935, 41.4787696 ], [ -71.3389432, 41.4792016 ], [ -71.3388702, 41.4793668 ], [ -71.3386896, 41.4798248 ], [ -71.3386533, 41.479956 ], [ -71.3386219, 41.4800916 ], [ -71.3385822, 41.4801956 ], [ -71.3385335, 41.4802949 ], [ -71.3384704, 41.4804119 ], [ -71.3383519, 41.4806534 ], [ -71.3383076, 41.4807275 ], [ -71.3382063, 41.4808395 ], [ -71.338058, 41.4809356 ], [ -71.3378967, 41.4810134 ], [ -71.3377844, 41.4810821 ], [ -71.3376848, 41.4811885 ], [ -71.337641, 41.4812584 ], [ -71.3373517, 41.4817851 ], [ -71.3367047, 41.4817905 ], [ -71.3367009, 41.4816632 ], [ -71.3366983, 41.4815794 ], [ -71.3369091, 41.4815726 ], [ -71.3373076, 41.481567 ], [ -71.3374576, 41.4812745 ], [ -71.3375927, 41.4810712 ], [ -71.3376216, 41.4809186 ], [ -71.3375159, 41.4808072 ], [ -71.3371027, 41.4807586 ] ] ] } },
{ "type": "Feature", "properties": { "RCID": 1304, "PRIM": 3, "GRUP": 2, "OBJL": 73, "RVER": 1, "AGEN": 550, "FIDN": 17029232, "FIDS": 8691, "LNAM": "02260103D87021F3", "OBJNAM": "Bryer Point", "SCAMIN": 29999, "SORDAT": "201306", "SORIND": "US,US,graph,Chart 13223" }, "geometry": { "type": "Polygon", "coordinates": [ [ [ -71.3598829, 41.5031432 ], [ -71.3594928, 41.5035891 ], [ -71.3594321, 41.5037874 ], [ -71.3593736, 41.5039784 ], [ -71.3593538, 41.5040432 ], [ -71.359388, 41.5040457 ], [ -71.3594894, 41.504053 ], [ -71.3595951, 41.5040492 ], [ -71.3597411, 41.5040227 ], [ -71.3598568, 41.5039887 ], [ -71.3599877, 41.5039395 ], [ -71.3600632, 41.5038865 ], [ -71.3601286, 41.5038335 ], [ -71.3601538, 41.5037843 ], [ -71.3601689, 41.5036595 ], [ -71.3601689, 41.5034438 ], [ -71.3600984, 41.5033076 ], [ -71.3598829, 41.5031432 ] ] ] } },
{ "type": "Feature", "properties": { "RCID": 1305, "PRIM": 3, "GRUP": 2, "OBJL": 73, "RVER": 1, "AGEN": 550, "FIDN": 26472094, "FIDS": 8691, "LNAM": "02260193EE9E21F3", "OBJNAM": "Southwest Point", "SCAMIN": 29999, "SORDAT": "200504", "SORIND": "US,US,graph,Chart 13223" }, "geometry": { "type": "Polygon", "coordinates": [ [ [ -71.3729296, 41.475 ], [ -71.3727722, 41.4752605 ], [ -71.3727724, 41.4756315 ], [ -71.3728014, 41.4757089 ], [ -71.3728093, 41.4757299 ], [ -71.3728596, 41.4758642 ], [ -71.3729001, 41.4759725 ], [ -71.3729957, 41.4760345 ], [ -71.3731039, 41.4761047 ], [ -71.3730633, 41.4761346 ], [ -71.3729213, 41.4762392 ], [ -71.3729992, 41.4762839 ], [ -71.3730882, 41.4765131 ], [ -71.3731106, 41.4765709 ], [ -71.3730976, 41.4766009 ], [ -71.3730631, 41.4766803 ], [ -71.3729275, 41.4767977 ], [ -71.3728746, 41.4768436 ], [ -71.3726981, 41.4768203 ], [ -71.3726562, 41.4768148 ], [ -71.3724476, 41.4769033 ], [ -71.3722075, 41.4773768 ], [ -71.3722, 41.4773916 ], [ -71.3722809, 41.4774886 ], [ -71.3723463, 41.477567 ], [ -71.3724691, 41.4775682 ], [ -71.3764533, 41.4776048 ], [ -71.3765599, 41.4776058 ], [ -71.3765397, 41.4774386 ], [ -71.3765212, 41.4772858 ], [ -71.3764919, 41.4770435 ], [ -71.3765845, 41.4769426 ], [ -71.3768129, 41.4768905 ], [ -71.3769134, 41.4768676 ], [ -71.3769782, 41.4766111 ], [ -71.377009, 41.4764892 ], [ -71.3771238, 41.4764321 ], [ -71.3772388, 41.4763748 ], [ -71.3772578, 41.4763654 ], [ -71.3772614, 41.4763415 ], [ -71.3772834, 41.4761956 ], [ -71.3770449, 41.4760928 ], [ -71.3768226, 41.4761308 ], [ -71.3766086, 41.4761675 ], [ -71.3765011, 41.4761859 ], [ -71.3764077, 41.4762019 ], [ -71.3762863, 41.4764012 ], [ -71.3761543, 41.476378 ], [ -71.3760521, 41.4762611 ], [ -71.3759833, 41.4761824 ], [ -71.3759529, 41.4760781 ], [ -71.3758735, 41.4758059 ], [ -71.3758585, 41.4757547 ], [ -71.3758465, 41.4757134 ], [ -71.3759242, 41.4754641 ], [ -71.3762695, 41.4751823 ], [ -71.3762923, 41.4751637 ], [ -71.3764751, 41.4750145 ], [ -71.3766094, 41.4750696 ], [ -71.376621, 41.4752092 ], [ -71.3767181, 41.4751733 ], [ -71.376742, 41.4751645 ], [ -71.3767846, 41.4751111 ], [ -71.3768665, 41.4750084 ], [ -71.3768654, 41.475 ], [ -71.3763266, 41.475 ], [ -71.3738559, 41.475 ], [ -71.3733721, 41.475 ], [ -71.3730294, 41.475 ], [ -71.3729296, 41.475 ] ] ] } },
{ "type": "Feature", "properties": { "RCID": 1306, "PRIM": 3, "GRUP": 2, "OBJL": 73, "RVER": 1, "AGEN": 550, "FIDN": 917334387, "FIDS": 8691, "LNAM": "022636AD697321F3", "CATLND": [ "2" ], "SCAMIN": 29999, "SORDAT": "20140818", "SORIND": "US,US,graph,GC-11187" }, "geometry": { "type": "Polygon", "coordinates": [ [ [ -71.3812798, 41.4926652 ], [ -71.3807319, 41.4924309 ], [ -71.3807268, 41.4926303 ], [ -71.3809408, 41.4927372 ], [ -71.3819415, 41.4932083 ], [ -71.3827092, 41.4934061 ], [ -71.3839854, 41.4936275 ], [ -71.3843216, 41.4932602 ], [ -71.3840815, 41.4928744 ], [ -71.3837065, 41.4927425 ], [ -71.3831544, 41.4926705 ], [ -71.3823441, 41.492861 ], [ -71.3816211, 41.4926442 ], [ -71.3812798, 41.4926652 ] ] ] } },
{ "type": "Feature", "properties": { "RCID": 1307, "PRIM": 3, "GRUP": 2, "OBJL": 73, "RVER": 1, "AGEN": 550, "FIDN": 989451669, "FIDS": 8691, "LNAM": "02263AF9D59521F3", "CATLND": [ "2" ], "SCAMIN": 29999, "SORDAT": "20140818", "SORIND": "US,US,graph,GC-11187" }, "geometry": { "type": "Polygon", "coordinates": [ [ [ -71.3824997, 41.5105147 ], [ -71.3828388, 41.5101671 ], [ -71.3830328, 41.5097954 ], [ -71.3830353, 41.5093682 ], [ -71.3831694, 41.5095616 ], [ -71.3834111, 41.5096872 ], [ -71.3835048, 41.5098257 ], [ -71.3840063, 41.5101461 ], [ -71.3840442, 41.5103415 ], [ -71.3838234, 41.510278 ], [ -71.3834833, 41.5103684 ], [ -71.3829728, 41.5105938 ], [ -71.3826632, 41.510818 ], [ -71.3822345, 41.5107574 ], [ -71.3822382, 41.5106227 ], [ -71.3824997, 41.5105147 ] ] ] } },
{ "type": "Feature", "properties": { "RCID": 1308, "PRIM": 3, "GRUP": 2, "OBJL": 73, "RVER": 1, "AGEN": 550, "FIDN": 3798082, "FIDS": 8691, "LNAM": "02260039F44221F3", "CATLND": [ "2" ], "SCAMIN": 29999, "SORDAT": "20140818", "SORIND": "US,US,graph,GC-11187" }, "geometry": { "type": "Polygon", "coordinates": [ [ [ -71.377697, 41.5064441 ], [ -71.3774869, 41.5066076 ], [ -71.3774522, 41.5067363 ], [ -71.3773845, 41.5066512 ], [ -71.3770254, 41.5067737 ], [ -71.3769823, 41.5068576 ], [ -71.3769072, 41.5067791 ], [ -71.3764872, 41.5067667 ], [ -71.3764174, 41.5068345 ], [ -71.3762656, 41.5067456 ], [ -71.3759461, 41.5067371 ], [ -71.3758628, 41.5068747 ], [ -71.3758232, 41.5067789 ], [ -71.3754574, 41.5069313 ], [ -71.3750387, 41.5071754 ], [ -71.3754982, 41.5072932 ], [ -71.3753852, 41.5076173 ], [ -71.3753845, 41.5076191 ], [ -71.375206, 41.5076799 ], [ -71.3750263, 41.5078994 ], [ -71.3748807, 41.5079498 ], [ -71.3749391, 41.5092015 ], [ -71.3753882, 41.5091976 ], [ -71.3756789, 41.5087648 ], [ -71.3758942, 41.5089008 ], [ -71.3759793, 41.50886 ], [ -71.3760996, 41.5082701 ], [ -71.3767374, 41.507809 ], [ -71.3774037, 41.5077067 ], [ -71.3781728, 41.5074104 ], [ -71.3792358, 41.5067959 ], [ -71.3798525, 41.5068374 ], [ -71.3796427, 41.5066352 ], [ -71.3793643, 41.5065546 ], [ -71.3788323, 41.5062461 ], [ -71.3786736, 41.5062297 ], [ -71.3778803, 41.5064775 ], [ -71.377697, 41.5064441 ] ] ] } },
{ "type": "Feature", "properties": { "RCID": 1309, "PRIM": 3, "GRUP": 2, "OBJL": 73, "RVER": 1, "AGEN": 550, "FIDN": 860258122, "FIDS": 8691, "LNAM": "022633467F4A21F3", "CATLND": [ "2" ], "SCAMIN": 29999, "SORDAT": "20140818", "SORIND": "US,US,graph,GC-11187" }, "geometry": { "type": "Polygon", "coordinates": [ [ [ -71.3816526, 41.4895194 ], [ -71.3813028, 41.4896942 ], [ -71.3811612, 41.4900156 ], [ -71.3811584, 41.490022 ], [ -71.380969, 41.4904516 ], [ -71.3806993, 41.4915801 ], [ -71.3809258, 41.4920886 ], [ -71.3811056, 41.4922007 ], [ -71.3812432, 41.4924227 ], [ -71.3811268, 41.4924436 ], [ -71.3810197, 41.4923809 ], [ -71.3807319, 41.4924309 ], [ -71.380509, 41.4924664 ], [ -71.380369, 41.492405 ], [ -71.3801658, 41.491932 ], [ -71.3805303, 41.4918152 ], [ -71.3805845, 41.4917295 ], [ -71.3805643, 41.4916186 ], [ -71.3803129, 41.4913729 ], [ -71.3802705, 41.4911124 ], [ -71.3804343, 41.490761 ], [ -71.3807799, 41.4906081 ], [ -71.3807542, 41.490517 ], [ -71.3804935, 41.4903694 ], [ -71.380543, 41.4898938 ], [ -71.3806668, 41.4897309 ], [ -71.3809676, 41.4897346 ], [ -71.3807336, 41.4895813 ], [ -71.3810857, 41.4891175 ], [ -71.3816274, 41.4891861 ], [ -71.3815875, 41.4894191 ], [ -71.3816526, 41.4895194 ] ] ] } },
{ "type": "Feature", "properties": { "RCID": 1310, "PRIM": 3, "GRUP": 2, "OBJL": 73, "RVER": 1, "AGEN": 550, "FIDN": 781868727, "FIDS": 8691, "LNAM": "02262E9A5EB721F3", "OBJNAM": "Fort Wetherill", "SCAMIN": 29999, "SORDAT": "201701", "SORIND": "US,US,graph,Chart 13223" }, "geometry": { "type": "Polygon", "coordinates": [ [ [ -71.3575393, 41.4782919 ], [ -71.3572955, 41.4783029 ], [ -71.3570841, 41.4782715 ], [ -71.3569871, 41.4786034 ], [ -71.3569158, 41.4788365 ], [ -71.3568776, 41.4789614 ], [ -71.3569756, 41.4789639 ], [ -71.3570792, 41.4789665 ], [ -71.3570716, 41.4788355 ], [ -71.3571825, 41.4788382 ], [ -71.3574683, 41.4788454 ], [ -71.3574781, 41.4788456 ], [ -71.3576968, 41.4788503 ], [ -71.3577329, 41.4788617 ], [ -71.3577456, 41.4788657 ], [ -71.3578095, 41.4788857 ], [ -71.3575393, 41.4782919 ] ] ] } },
{ "type": "Feature", "properties": { "RCID": 1311, "PRIM": 3, "GRUP": 2, "OBJL": 73, "RVER": 1, "AGEN": 550, "FIDN": 120899119, "FIDS": 8691, "LNAM": "02260734C62F21F3", "CATLND": [ "2" ], "SCAMIN": 29999, "SORDAT": "20140818", "SORIND": "US,US,graph,GC-11187" }, "geometry": { "type": "Polygon", "coordinates": [ [ [ -71.3744681, 41.5067531 ], [ -71.3742679, 41.5067633 ], [ -71.3741176, 41.506867 ], [ -71.3741121, 41.506992 ], [ -71.3742379, 41.5071631 ], [ -71.3743502, 41.5075732 ], [ -71.3743523, 41.5076804 ], [ -71.374228, 41.5076924 ], [ -71.3741467, 41.5074688 ], [ -71.3740017, 41.5075523 ], [ -71.3737783, 41.5076842 ], [ -71.3735433, 41.5076475 ], [ -71.3736749, 41.507542 ], [ -71.3737148, 41.5075099 ], [ -71.3738081, 41.5075737 ], [ -71.37394, 41.5073766 ], [ -71.3738987, 41.5072524 ], [ -71.3731671, 41.5072522 ], [ -71.3726124, 41.50744 ], [ -71.3725545, 41.5073357 ], [ -71.3724219, 41.5075044 ], [ -71.3722628, 41.5075354 ], [ -71.3723471, 41.507618 ], [ -71.3722766, 41.5077282 ], [ -71.371406, 41.5084624 ], [ -71.3713366, 41.5086825 ], [ -71.371037, 41.5089622 ], [ -71.3705967, 41.5091526 ], [ -71.3702558, 41.5089838 ], [ -71.3702312, 41.5090689 ], [ -71.3703504, 41.5091335 ], [ -71.3705949, 41.5092647 ], [ -71.3710594, 41.5090573 ], [ -71.3719802, 41.5082916 ], [ -71.3723835, 41.5080512 ], [ -71.372862, 41.5080199 ], [ -71.3727118, 41.508174 ], [ -71.3723973, 41.508345 ], [ -71.372191, 41.5086072 ], [ -71.3721669, 41.5088499 ], [ -71.3719428, 41.5091565 ], [ -71.3716269, 41.5093309 ], [ -71.3716222, 41.5093851 ], [ -71.3716206, 41.5094043 ], [ -71.3717608, 41.5094678 ], [ -71.3721382, 41.5093372 ], [ -71.3722993, 41.5091514 ], [ -71.3727501, 41.5090182 ], [ -71.3730205, 41.5089946 ], [ -71.3731791, 41.5091085 ], [ -71.3733844, 41.5091076 ], [ -71.3738603, 41.5088409 ], [ -71.3739768, 41.5088723 ], [ -71.3740221, 41.5090032 ], [ -71.374045, 41.5088529 ], [ -71.3743011, 41.5087642 ], [ -71.3745117, 41.5084985 ], [ -71.3746648, 41.5084311 ], [ -71.3746522, 41.5097242 ], [ -71.3745685, 41.5098293 ], [ -71.3741497, 41.5100252 ], [ -71.3734279, 41.5101939 ], [ -71.3728196, 41.5104661 ], [ -71.3723799, 41.5107706 ], [ -71.3720126, 41.5109199 ], [ -71.370343, 41.5121969 ], [ -71.3698691, 41.5124188 ], [ -71.3697205, 41.5123826 ], [ -71.3695389, 41.5120853 ], [ -71.3693962, 41.5114681 ], [ -71.3691047, 41.5110593 ], [ -71.3688071, 41.5108808 ], [ -71.3681438, 41.5108551 ], [ -71.3678045, 41.5109274 ], [ -71.3674414, 41.5108239 ], [ -71.3676176, 41.510616 ], [ -71.3676288, 41.5103908 ], [ -71.3675509, 41.5102583 ], [ -71.3672213, 41.5100502 ], [ -71.3679965, 41.5099376 ], [ -71.3682776, 41.5100994 ], [ -71.3683895, 41.5100574 ], [ -71.3685372, 41.5097441 ], [ -71.3685169, 41.5094194 ], [ -71.368852, 41.5093011 ], [ -71.3689541, 41.5091194 ], [ -71.3693463, 41.5089305 ], [ -71.3696163, 41.5086889 ], [ -71.3699978, 41.5081168 ], [ -71.3700095, 41.5078436 ], [ -71.3701196, 41.5075796 ], [ -71.3704185, 41.5073687 ], [ -71.3709256, 41.5072392 ], [ -71.371294, 41.5069353 ], [ -71.3718085, 41.5068139 ], [ -71.372208, 41.506539 ], [ -71.3726447, 41.5063654 ], [ -71.3731052, 41.5064406 ], [ -71.3736312, 41.5061805 ], [ -71.3744026, 41.5059555 ], [ -71.3745957, 41.5060985 ], [ -71.3746086, 41.5063456 ], [ -71.3745041, 41.506423 ], [ -71.3744681, 41.5067531 ] ] ] } },
{ "type": "Feature", "properties": { "RCID": 1312, "PRIM": 3, "GRUP": 2, "OBJL": 73, "RVER": 1, "AGEN": 550, "FIDN": 195225443, "FIDS": 8691, "LNAM": "02260BA2E76321F3", "CATLND": [ "2" ], "SCAMIN": 29999, "SORDAT": "20140818", "SORIND": "US,US,graph,GC-11187" }, "geometry": { "type": "Polygon", "coordinates": [ [ [ -71.3773329, 41.5063515 ], [ -71.3771233, 41.5064433 ], [ -71.3766022, 41.5064505 ], [ -71.3765422, 41.5061878 ], [ -71.3766047, 41.5061332 ], [ -71.3764364, 41.506094 ], [ -71.3765134, 41.5060486 ], [ -71.3762527, 41.5060244 ], [ -71.376286, 41.5063339 ], [ -71.3761915, 41.5064188 ], [ -71.3757193, 41.5064712 ], [ -71.3749056, 41.506802 ], [ -71.3748873, 41.506008 ], [ -71.3749341, 41.5058685 ], [ -71.3751346, 41.5056786 ], [ -71.3760756, 41.5055503 ], [ -71.3769227, 41.5055587 ], [ -71.3771621, 41.5053927 ], [ -71.3776411, 41.5052943 ], [ -71.3779566, 41.5050859 ], [ -71.3779943, 41.5051933 ], [ -71.3775709, 41.5060003 ], [ -71.3772623, 41.506284 ], [ -71.3773329, 41.5063515 ] ] ] } },
{ "type": "Feature", "properties": { "RCID": 1446, "PRIM": 1, "GRUP": 2, "OBJL": 73, "RVER": 1, "AGEN": 550, "FIDN": 695892859, "FIDS": 7303, "LNAM": "0226297A7B7B1C87", "OBJNAM": "Windmill Hill", "SCAMIN": 29999, "SORDAT": "201701", "SORIND": "US,US,graph,Chart 13223" }, "geometry": { "type": "Point", "coordinates": [ -71.3716861, 41.5167972 ] } },
{ "type": "Feature", "properties": { "RCID": 1447, "PRIM": 1, "GRUP": 2, "OBJL": 73, "RVER": 1, "AGEN": 550, "FIDN": 400790270, "FIDS": 7303, "LNAM": "022617E392FE1C87", "OBJNAM": "Freebody Hill", "SCAMIN": 29999, "SORDAT": "201306", "SORIND": "US,US,graph,Chart 13223" }, "geometry": { "type": "Point", "coordinates": [ -71.3659238, 41.5046504 ] } },
{ "type": "Feature", "properties": { "RCID": 1448, "PRIM": 1, "GRUP": 2, "OBJL": 73, "RVER": 1, "AGEN": 550, "FIDN": 910755625, "FIDS": 7303, "LNAM": "0226364907291C87", "OBJNAM": "Old Salt Works Beach", "SCAMIN": 29999, "SORDAT": "200504", "SORIND": "US,US,graph,Chart 13223" }, "geometry": { "type": "Point", "coordinates": [ -71.3593236, 41.4816826 ] } }
]
}
