{
"type": "FeatureCollection",
"name": "MARCUL",
"crs": { "type": "name", "properties": { "name": "urn:ogc:def:crs:OGC:1.3:CRS84" } },
"features": [
{ "type": "Feature", "properties": { "RCID": 2379, "PRIM": 3, "GRUP": 2, "OBJL": 82, "RVER": 1, "AGEN": 550, "FIDN": 231690547, "FIDS": 8691, "LNAM": "02260DCF513321F3", "CATMFA": 1, "OBJNAM": "Lobster Habitat", "QUASOU": [ "6" ], "VALSOU": 3.9, "WATLEV": 3, "SCAMIN": 29999, "SORDAT": "200504", "SORIND": "US,US,graph,Chart 13223" }, "geometry": { "type": "Polygon", "coordinates": [ [ [ -71.3861841, 41.50844 ], [ -71.3853801, 41.5075709 ], [ -71.3871107, 41.5066418 ], [ -71.3882387, 41.5078676 ], [ -71.3892423, 41.5089582 ], [ -71.3895935, 41.5093399 ], [ -71.390051, 41.5098369 ], [ -71.3899098, 41.5099163 ], [ -71.3897809, 41.5099873 ], [ -71.3883467, 41.5107776 ], [ -71.3861841, 41.50844 ] ] ] } }
]
}
