{
"type": "FeatureCollection",
"name": "OBSTRN",
"crs": { "type": "name", "properties": { "name": "urn:ogc:def:crs:OGC:1.3:CRS84" } },
"features": [
{ "type": "Feature", "properties": { "RCID": 528, "PRIM": 3, "GRUP": 2, "OBJL": 86, "RVER": 1, "AGEN": 550, "FIDN": 123191462, "FIDS": 8691, "LNAM": "02260757C0A621F3", "QUASOU": [ "2" ], "WATLEV": 3, "SORDAT": "200504", "SORIND": "US,US,graph,Chart 13223" }, "geometry": { "type": "Polygon", "coordinates": [ [ [ -71.3996585, 41.4924995 ], [ -71.3984553, 41.4932293 ], [ -71.3983318, 41.4932276 ], [ -71.3982922, 41.4933288 ], [ -71.3981663, 41.4935223 ], [ -71.3981783, 41.4936421 ], [ -71.3982633, 41.4937276 ], [ -71.3984106, 41.4937834 ], [ -71.3985616, 41.4937888 ], [ -71.3988358, 41.493697 ], [ -71.3990502, 41.4935916 ], [ -71.3992921, 41.4932891 ], [ -71.3996023, 41.4930748 ], [ -71.3996442, 41.492756 ], [ -71.3996585, 41.4924995 ] ] ] } },
{ "type": "Feature", "properties": { "RCID": 529, "PRIM": 3, "GRUP": 2, "OBJL": 86, "RVER": 1, "AGEN": 550, "FIDN": 229639612, "FIDS": 8691, "LNAM": "02260DB005BC21F3", "CATOBS": 6, "QUASOU": [ "2" ], "WATLEV": 3, "SORDAT": "20140818", "SORIND": "US,US,graph,GC-11187" }, "geometry": { "type": "Polygon", "coordinates": [ [ [ -71.381187, 41.5073307 ], [ -71.3816322, 41.5068609 ], [ -71.3815154, 41.506761 ], [ -71.3810627, 41.5066782 ], [ -71.381132, 41.5063725 ], [ -71.3809406, 41.5061149 ], [ -71.3805562, 41.5060209 ], [ -71.379581, 41.506177 ], [ -71.3795949, 41.5062999 ], [ -71.3796734, 41.5063784 ], [ -71.3799881, 41.5066932 ], [ -71.3801783, 41.5067319 ], [ -71.3803261, 41.506762 ], [ -71.3804168, 41.5067804 ], [ -71.3805224, 41.5068316 ], [ -71.3807379, 41.506936 ], [ -71.3807504, 41.506947 ], [ -71.381187, 41.5073307 ] ] ] } },
{ "type": "Feature", "properties": { "RCID": 530, "PRIM": 3, "GRUP": 2, "OBJL": 86, "RVER": 1, "AGEN": 550, "FIDN": 740585568, "FIDS": 8691, "LNAM": "02262C24706021F3", "QUASOU": [ "2" ], "WATLEV": 3, "SORDAT": "201306", "SORIND": "US,US,graph,Chart 13223" }, "geometry": { "type": "Polygon", "coordinates": [ [ [ -71.3918303, 41.5161172 ], [ -71.3922576, 41.5159907 ], [ -71.3923003, 41.5156973 ], [ -71.3921198, 41.5155419 ], [ -71.3916638, 41.515601 ], [ -71.3917944, 41.515872 ], [ -71.3918303, 41.5161172 ] ] ] } },
{ "type": "Feature", "properties": { "RCID": 531, "PRIM": 3, "GRUP": 2, "OBJL": 86, "RVER": 1, "AGEN": 550, "FIDN": 329387748, "FIDS": 8691, "LNAM": "022613A20EE421F3", "QUASOU": [ "2" ], "WATLEV": 3, "SORDAT": "20140818", "SORIND": "US,US,graph,GC-11187, DD-29210(CEF)" }, "geometry": { "type": "Polygon", "coordinates": [ [ [ -71.3885003, 41.5351607 ], [ -71.3884198, 41.5353086 ], [ -71.3882504, 41.5356202 ], [ -71.3884321, 41.5356163 ], [ -71.3885914, 41.5356196 ], [ -71.3885942, 41.5356171 ], [ -71.3886927, 41.535563 ], [ -71.3887347, 41.5355102 ], [ -71.3887682, 41.5354413 ], [ -71.3887727, 41.5354268 ], [ -71.3887946, 41.5353569 ], [ -71.3888102, 41.5353005 ], [ -71.3888991, 41.535175 ], [ -71.38896, 41.5351246 ], [ -71.3893016, 41.5347209 ], [ -71.3893288, 41.5344807 ], [ -71.3892501, 41.5343134 ], [ -71.3892981, 41.5340738 ], [ -71.3896916, 41.5332158 ], [ -71.3898499, 41.5329562 ], [ -71.3898987, 41.5326515 ], [ -71.3900642, 41.5325357 ], [ -71.3900123, 41.5324462 ], [ -71.390066, 41.5321468 ], [ -71.3903163, 41.5311641 ], [ -71.3900904, 41.5306451 ], [ -71.3899254, 41.5309038 ], [ -71.3899033, 41.5309384 ], [ -71.3898908, 41.530958 ], [ -71.3898353, 41.5310451 ], [ -71.3898274, 41.5310575 ], [ -71.3897483, 41.5311814 ], [ -71.3897491, 41.5312009 ], [ -71.3897591, 41.5314412 ], [ -71.3897668, 41.5316271 ], [ -71.3897677, 41.5316479 ], [ -71.3897537, 41.5317232 ], [ -71.3896925, 41.5320516 ], [ -71.3896919, 41.5320551 ], [ -71.389689, 41.5320705 ], [ -71.3896853, 41.5320903 ], [ -71.3896256, 41.5324112 ], [ -71.3896157, 41.5324642 ], [ -71.3896102, 41.5324942 ], [ -71.3895774, 41.53267 ], [ -71.389536, 41.5328922 ], [ -71.3895349, 41.5328987 ], [ -71.3895182, 41.5329879 ], [ -71.3895168, 41.5329958 ], [ -71.3894656, 41.5331009 ], [ -71.3894383, 41.5331571 ], [ -71.3892369, 41.533571 ], [ -71.3891963, 41.5336546 ], [ -71.3891763, 41.5336958 ], [ -71.3891177, 41.5338162 ], [ -71.3890524, 41.5339504 ], [ -71.3890393, 41.533998 ], [ -71.389031, 41.534028 ], [ -71.3889927, 41.5341673 ], [ -71.3889783, 41.5342193 ], [ -71.3889276, 41.5344034 ], [ -71.3888848, 41.5345589 ], [ -71.3888836, 41.5345632 ], [ -71.3888822, 41.5345685 ], [ -71.3888737, 41.5345992 ], [ -71.3888256, 41.5346709 ], [ -71.3886902, 41.5348729 ], [ -71.3886347, 41.5349431 ], [ -71.3885811, 41.535011 ], [ -71.3885717, 41.5350285 ], [ -71.3885466, 41.5350748 ], [ -71.3885112, 41.5351404 ], [ -71.3885003, 41.5351607 ] ] ] } },
{ "type": "Feature", "properties": { "RCID": 532, "PRIM": 3, "GRUP": 2, "OBJL": 86, "RVER": 1, "AGEN": 550, "FIDN": 774091245, "FIDS": 8691, "LNAM": "02262E23B1ED21F3", "CATOBS": 6, "QUASOU": [ "2" ], "WATLEV": 3, "INFORM": "Rocks", "SORDAT": "20140818", "SORIND": "US,US,graph,GC-11187" }, "geometry": { "type": "Polygon", "coordinates": [ [ [ -71.386055, 41.4858799 ], [ -71.3860057, 41.4857978 ], [ -71.3859158, 41.4857295 ], [ -71.3858699, 41.4856946 ], [ -71.3856821, 41.4855519 ], [ -71.3855848, 41.485478 ], [ -71.3855186, 41.4854277 ], [ -71.3853737, 41.4852247 ], [ -71.3852757, 41.4853815 ], [ -71.3852091, 41.4854773 ], [ -71.3852098, 41.4856289 ], [ -71.3851843, 41.4857728 ], [ -71.3852066, 41.4858407 ], [ -71.3852212, 41.485859 ], [ -71.3853699, 41.486044 ], [ -71.3855175, 41.4862466 ], [ -71.3855315, 41.4862659 ], [ -71.3855728, 41.4863225 ], [ -71.3856365, 41.4863839 ], [ -71.3856987, 41.4864016 ], [ -71.3858094, 41.4864004 ], [ -71.3859299, 41.4864257 ], [ -71.3860066, 41.4864272 ], [ -71.3863913, 41.4864397 ], [ -71.3862933, 41.4862765 ], [ -71.3862511, 41.4862063 ], [ -71.3861716, 41.4860739 ], [ -71.3860681, 41.4859016 ], [ -71.386055, 41.4858799 ] ] ] } },
{ "type": "Feature", "properties": { "RCID": 533, "PRIM": 3, "GRUP": 2, "OBJL": 86, "RVER": 1, "AGEN": 550, "FIDN": 196109097, "FIDS": 8691, "LNAM": "02260BB0632921F3", "QUASOU": [ "2" ], "WATLEV": 3, "SORDAT": "200504", "SORIND": "US,US,graph,Chart 13223" }, "geometry": { "type": "Polygon", "coordinates": [ [ [ -71.3605944, 41.4864684 ], [ -71.3605501, 41.4864439 ], [ -71.3604751, 41.4864026 ], [ -71.3604639, 41.4862204 ], [ -71.360202, 41.4864016 ], [ -71.3600475, 41.4864874 ], [ -71.3599785, 41.4865303 ], [ -71.3599143, 41.4866233 ], [ -71.3598977, 41.4866698 ], [ -71.3599286, 41.4867592 ], [ -71.3599547, 41.4867913 ], [ -71.3600261, 41.4868503 ], [ -71.3600712, 41.4868736 ], [ -71.3601449, 41.4868789 ], [ -71.3602091, 41.48687 ], [ -71.3603019, 41.4868539 ], [ -71.3604326, 41.4867788 ], [ -71.3605468, 41.4866912 ], [ -71.3606017, 41.4866342 ], [ -71.3607264, 41.4865412 ], [ -71.3605944, 41.4864684 ] ] ] } },
{ "type": "Feature", "properties": { "RCID": 534, "PRIM": 3, "GRUP": 2, "OBJL": 86, "RVER": 1, "AGEN": 550, "FIDN": 261541625, "FIDS": 8691, "LNAM": "02260F96CEF921F3", "CATOBS": 6, "QUASOU": [ "2" ], "WATLEV": 3, "INFORM": "Rocks", "SORDAT": "20140818", "SORIND": "US,US,graph,GC-11187" }, "geometry": { "type": "Polygon", "coordinates": [ [ [ -71.3255414, 41.4774715 ], [ -71.3252184, 41.4773614 ], [ -71.3251978, 41.4773718 ], [ -71.3253655, 41.4772063 ], [ -71.3255518, 41.4774718 ], [ -71.3255414, 41.4774715 ] ] ] } },
{ "type": "Feature", "properties": { "RCID": 535, "PRIM": 3, "GRUP": 2, "OBJL": 86, "RVER": 1, "AGEN": 550, "FIDN": 266147610, "FIDS": 8691, "LNAM": "02260FDD171A21F3", "QUASOU": [ "2" ], "WATLEV": 3, "SORDAT": "200504", "SORIND": "US,US,graph,Chart 13223" }, "geometry": { "type": "Polygon", "coordinates": [ [ [ -71.3642031, 41.5003115 ], [ -71.3642004, 41.5003199 ], [ -71.3641504, 41.5004943 ], [ -71.3640833, 41.5005861 ], [ -71.3639636, 41.5006357 ], [ -71.3638138, 41.5006447 ], [ -71.3636498, 41.5005582 ], [ -71.3635485, 41.5004416 ], [ -71.3635352, 41.4999963 ], [ -71.3636458, 41.4998667 ], [ -71.3637872, 41.4998002 ], [ -71.3639375, 41.4997902 ], [ -71.3640613, 41.4998135 ], [ -71.3641453, 41.4999697 ], [ -71.3642031, 41.5003115 ] ] ] } },
{ "type": "Feature", "properties": { "RCID": 536, "PRIM": 3, "GRUP": 2, "OBJL": 86, "RVER": 1, "AGEN": 550, "FIDN": 923614560, "FIDS": 8691, "LNAM": "0226370D3D6021F3", "CATOBS": 6, "QUASOU": [ "2" ], "WATLEV": 3, "SORDAT": "20050620", "SORIND": "US,US,graph,GC-10585" }, "geometry": { "type": "Polygon", "coordinates": [ [ [ -71.3636296, 41.5183524 ], [ -71.3635065, 41.5183579 ], [ -71.3630088, 41.5190892 ], [ -71.3629754, 41.5191383 ], [ -71.3628441, 41.5195164 ], [ -71.3625118, 41.5198292 ], [ -71.3619754, 41.5199269 ], [ -71.3615449, 41.5200737 ], [ -71.3615757, 41.5202163 ], [ -71.3618319, 41.520775 ], [ -71.3618336, 41.5214606 ], [ -71.361729, 41.5219747 ], [ -71.3611305, 41.522578 ], [ -71.3609092, 41.522789 ], [ -71.3608372, 41.5229537 ], [ -71.3608217, 41.5231698 ], [ -71.3609718, 41.5240445 ], [ -71.3611949, 41.5247469 ], [ -71.3611885, 41.5250184 ], [ -71.3615637, 41.5254665 ], [ -71.3616057, 41.5255328 ], [ -71.3617122, 41.5257008 ], [ -71.3617443, 41.5256758 ], [ -71.3617545, 41.5256656 ], [ -71.3617849, 41.5256351 ], [ -71.3618517, 41.525587 ], [ -71.3618604, 41.5255752 ], [ -71.3619514, 41.525452 ], [ -71.3619378, 41.5253064 ], [ -71.3619234, 41.5252239 ], [ -71.3619122, 41.5250845 ], [ -71.3619107, 41.5249811 ], [ -71.3618801, 41.5248653 ], [ -71.3618207, 41.5247382 ], [ -71.3618082, 41.5247124 ], [ -71.3618037, 41.524704 ], [ -71.361788, 41.5246748 ], [ -71.3618926, 41.5245771 ], [ -71.361933, 41.5244515 ], [ -71.3619278, 41.5243787 ], [ -71.3619, 41.5241941 ], [ -71.3619067, 41.5241698 ], [ -71.3619256, 41.5241009 ], [ -71.3619349, 41.5238686 ], [ -71.3619174, 41.5236535 ], [ -71.3619068, 41.5233953 ], [ -71.3619082, 41.5232777 ], [ -71.3619102, 41.5231578 ], [ -71.3619245, 41.5230916 ], [ -71.3620183, 41.5229698 ], [ -71.3620527, 41.5228671 ], [ -71.3620401, 41.5226923 ], [ -71.3620252, 41.5226408 ], [ -71.3620192, 41.5226198 ], [ -71.3619349, 41.5225336 ], [ -71.3619146, 41.5224943 ], [ -71.3619303, 41.5224747 ], [ -71.3620471, 41.5224595 ], [ -71.3621135, 41.5223989 ], [ -71.3621732, 41.5223758 ], [ -71.3622958, 41.5222995 ], [ -71.3624357, 41.522189 ], [ -71.3626039, 41.5220185 ], [ -71.362656, 41.5219125 ], [ -71.3626699, 41.5217846 ], [ -71.3626896, 41.521721 ], [ -71.3626915, 41.5217131 ], [ -71.3627043, 41.52166 ], [ -71.3626938, 41.5216009 ], [ -71.3627046, 41.5215603 ], [ -71.3626924, 41.5215138 ], [ -71.3626935, 41.5214288 ], [ -71.3627177, 41.5213581 ], [ -71.3627095, 41.5212197 ], [ -71.3627056, 41.5211592 ], [ -71.3627285, 41.5210167 ], [ -71.3627339, 41.5209527 ], [ -71.3626946, 41.5208453 ], [ -71.3626771, 41.5208328 ], [ -71.3626404, 41.5208068 ], [ -71.3625532, 41.520773 ], [ -71.3624943, 41.5207534 ], [ -71.3624875, 41.5207148 ], [ -71.3625121, 41.5206745 ], [ -71.3625411, 41.5206693 ], [ -71.3626196, 41.5206532 ], [ -71.3626702, 41.5206437 ], [ -71.3627409, 41.5205883 ], [ -71.3628099, 41.5204938 ], [ -71.3628291, 41.5204038 ], [ -71.3628332, 41.520304 ], [ -71.3627405, 41.5201214 ], [ -71.3626586, 41.5200585 ], [ -71.3626014, 41.5199984 ], [ -71.3626988, 41.5199415 ], [ -71.3627671, 41.5199201 ], [ -71.3629789, 41.5198147 ], [ -71.3630662, 41.5197615 ], [ -71.3630666, 41.5196059 ], [ -71.3630998, 41.5194838 ], [ -71.3632246, 41.5193565 ], [ -71.3632287, 41.5192596 ], [ -71.3632218, 41.5191907 ], [ -71.363207, 41.519141 ], [ -71.3631945, 41.5190989 ], [ -71.3632489, 41.5190305 ], [ -71.3633025, 41.5189605 ], [ -71.3633167, 41.5189169 ], [ -71.3633608, 41.5188246 ], [ -71.3634198, 41.5187629 ], [ -71.3635122, 41.518705 ], [ -71.3634926, 41.5186316 ], [ -71.3634702, 41.5186098 ], [ -71.3634839, 41.5185759 ], [ -71.3636296, 41.5183524 ] ] ] } },
{ "type": "Feature", "properties": { "RCID": 537, "PRIM": 3, "GRUP": 2, "OBJL": 86, "RVER": 1, "AGEN": 550, "FIDN": 240158493, "FIDS": 8691, "LNAM": "02260E50871D21F3", "QUASOU": [ "2" ], "WATLEV": 3, "SORDAT": "200504", "SORIND": "US,US,graph,Chart 13223" }, "geometry": { "type": "Polygon", "coordinates": [ [ [ -71.3909685, 41.5282787 ], [ -71.3909852, 41.5281652 ], [ -71.3910243, 41.5280202 ], [ -71.391069, 41.5278682 ], [ -71.3910692, 41.5278677 ], [ -71.3912079, 41.5278726 ], [ -71.3915588, 41.5279581 ], [ -71.3916495, 41.5280147 ], [ -71.3917205, 41.5280589 ], [ -71.3917715, 41.5281974 ], [ -71.3917828, 41.5282281 ], [ -71.3917786, 41.5283258 ], [ -71.391778, 41.5283388 ], [ -71.391771, 41.5283446 ], [ -71.3917421, 41.5283685 ], [ -71.3916367, 41.5284558 ], [ -71.3915183, 41.5284782 ], [ -71.3914894, 41.5284837 ], [ -71.3911696, 41.5284198 ], [ -71.3909685, 41.5282787 ] ] ] } },
{ "type": "Feature", "properties": { "RCID": 538, "PRIM": 3, "GRUP": 2, "OBJL": 86, "RVER": 1, "AGEN": 550, "FIDN": 187916198, "FIDS": 8691, "LNAM": "02260B335FA621F3", "CATOBS": 6, "QUASOU": [ "2" ], "WATLEV": 3, "INFORM": "Rocks", "SORDAT": "20140818", "SORIND": "US,US,graph,GC-11187" }, "geometry": { "type": "Polygon", "coordinates": [ [ [ -71.376742, 41.4751645 ], [ -71.3767181, 41.4751733 ], [ -71.376621, 41.4752092 ], [ -71.3766094, 41.4750696 ], [ -71.3764751, 41.4750145 ], [ -71.3765278, 41.4752153 ], [ -71.376528, 41.475254 ], [ -71.3765281, 41.4752728 ], [ -71.3765283, 41.4753131 ], [ -71.3765283, 41.4753176 ], [ -71.376529, 41.4753243 ], [ -71.3765361, 41.4753935 ], [ -71.3765472, 41.4754148 ], [ -71.376585, 41.475437 ], [ -71.3766325, 41.4754651 ], [ -71.3766352, 41.4754672 ], [ -71.3766671, 41.4754924 ], [ -71.3766933, 41.4754946 ], [ -71.3767082, 41.475493 ], [ -71.3768118, 41.4754818 ], [ -71.3768255, 41.4754765 ], [ -71.3768353, 41.475465 ], [ -71.3768297, 41.4754415 ], [ -71.3767915, 41.4753458 ], [ -71.3767841, 41.4753273 ], [ -71.3767862, 41.4752824 ], [ -71.3767882, 41.4752383 ], [ -71.3767883, 41.4752375 ], [ -71.376742, 41.4751645 ] ] ] } },
{ "type": "Feature", "properties": { "RCID": 539, "PRIM": 3, "GRUP": 2, "OBJL": 86, "RVER": 1, "AGEN": 550, "FIDN": 988876769, "FIDS": 8691, "LNAM": "02263AF10FE121F3", "QUASOU": [ "2" ], "WATLEV": 3, "INFORM": "Shoal", "SORDAT": "20140818", "SORIND": "US,US,graph,GC-11187, DD-29210(CEF)" }, "geometry": { "type": "Polygon", "coordinates": [ [ [ -71.366661, 41.4951837 ], [ -71.3666626, 41.4951391 ], [ -71.3667414, 41.4951413 ], [ -71.3667322, 41.4952759 ], [ -71.3666495, 41.4952733 ], [ -71.366661, 41.4951837 ] ] ] } },
{ "type": "Feature", "properties": { "RCID": 540, "PRIM": 3, "GRUP": 2, "OBJL": 86, "RVER": 1, "AGEN": 550, "FIDN": 935251779, "FIDS": 8691, "LNAM": "022637BECF4321F3", "QUASOU": [ "2" ], "WATLEV": 3, "SORDAT": "200504", "SORIND": "US,US,graph,Chart 13223" }, "geometry": { "type": "Polygon", "coordinates": [ [ [ -71.3645858, 41.5385938 ], [ -71.3646336, 41.5387273 ], [ -71.364703, 41.5390564 ], [ -71.364469, 41.5392385 ], [ -71.36433, 41.5392583 ], [ -71.364202, 41.5392558 ], [ -71.3641025, 41.5391836 ], [ -71.3640809, 41.539072 ], [ -71.3640809, 41.5389668 ], [ -71.3642728, 41.5387221 ], [ -71.3644011, 41.5385969 ], [ -71.3644441, 41.5384991 ], [ -71.3645194, 41.5384888 ], [ -71.3645858, 41.5385938 ] ] ] } },
{ "type": "Feature", "properties": { "RCID": 541, "PRIM": 3, "GRUP": 2, "OBJL": 86, "RVER": 1, "AGEN": 550, "FIDN": 42755854, "FIDS": 8691, "LNAM": "0226028C670E21F3", "QUASOU": [ "2" ], "WATLEV": 3, "SORDAT": "200504", "SORIND": "US,US,graph,Chart 13223" }, "geometry": { "type": "Polygon", "coordinates": [ [ [ -71.3610928, 41.527509 ], [ -71.3609599, 41.5276073 ], [ -71.3607634, 41.5276305 ], [ -71.3606305, 41.5276053 ], [ -71.3605251, 41.5275 ], [ -71.36047, 41.5272336 ], [ -71.3604856, 41.5269942 ], [ -71.360664, 41.5268781 ], [ -71.3608029, 41.5268637 ], [ -71.3609778, 41.5269699 ], [ -71.3610269, 41.5272282 ], [ -71.3610928, 41.527509 ] ] ] } },
{ "type": "Feature", "properties": { "RCID": 542, "PRIM": 3, "GRUP": 2, "OBJL": 86, "RVER": 1, "AGEN": 550, "FIDN": 756485422, "FIDS": 8691, "LNAM": "02262D170D2E21F3", "CATOBS": 6, "QUASOU": [ "2" ], "WATLEV": 3, "INFORM": "Rocks", "SORDAT": "20140818", "SORIND": "US,US,graph,GC-11187" }, "geometry": { "type": "Polygon", "coordinates": [ [ [ -71.3427697, 41.4957025 ], [ -71.3428914, 41.49569 ], [ -71.3429372, 41.4956852 ], [ -71.3429692, 41.4956632 ], [ -71.3430308, 41.4955763 ], [ -71.3430395, 41.4955578 ], [ -71.3430496, 41.4955364 ], [ -71.3430625, 41.4955088 ], [ -71.3430408, 41.4954318 ], [ -71.3429998, 41.495359 ], [ -71.3429585, 41.4952906 ], [ -71.3429456, 41.4952731 ], [ -71.3428958, 41.4952054 ], [ -71.34286, 41.4951289 ], [ -71.342855, 41.4951183 ], [ -71.3428528, 41.4950594 ], [ -71.3428041, 41.4950044 ], [ -71.3427115, 41.4949478 ], [ -71.3426341, 41.4949264 ], [ -71.3425492, 41.4949416 ], [ -71.3424021, 41.4949956 ], [ -71.3423295, 41.4950322 ], [ -71.3423079, 41.4950431 ], [ -71.3422246, 41.4951195 ], [ -71.3422068, 41.4951726 ], [ -71.3422321, 41.4953108 ], [ -71.3422455, 41.4953876 ], [ -71.3424017, 41.495369 ], [ -71.3424973, 41.4953576 ], [ -71.3425767, 41.4953657 ], [ -71.3426435, 41.4953724 ], [ -71.3427759, 41.4953896 ], [ -71.3428045, 41.4954202 ], [ -71.3428901, 41.4955115 ], [ -71.3427903, 41.4956698 ], [ -71.3427697, 41.4957025 ] ] ] } },
{ "type": "Feature", "properties": { "RCID": 543, "PRIM": 3, "GRUP": 2, "OBJL": 86, "RVER": 1, "AGEN": 550, "FIDN": 320988198, "FIDS": 8691, "LNAM": "02261321E42621F3", "QUASOU": [ "2" ], "WATLEV": 3, "SORDAT": "200504", "SORIND": "US,US,graph,Chart 13223" }, "geometry": { "type": "Polygon", "coordinates": [ [ [ -71.3923823, 41.5180697 ], [ -71.3925174, 41.5181007 ], [ -71.3927806, 41.518275 ], [ -71.3928861, 41.5182444 ], [ -71.393025, 41.5181417 ], [ -71.3930528, 41.5180472 ], [ -71.3930194, 41.5178833 ], [ -71.3928333, 41.5174972 ], [ -71.3928389, 41.517375 ], [ -71.3926972, 41.5171944 ], [ -71.3925944, 41.5171417 ], [ -71.3924667, 41.5171333 ], [ -71.3923194, 41.51715 ], [ -71.3922658, 41.5171938 ], [ -71.3921922, 41.5172625 ], [ -71.3924085, 41.5178046 ], [ -71.3923823, 41.5180697 ] ] ] } },
{ "type": "Feature", "properties": { "RCID": 544, "PRIM": 3, "GRUP": 2, "OBJL": 86, "RVER": 1, "AGEN": 550, "FIDN": 134522595, "FIDS": 8691, "LNAM": "02260804A6E321F3", "QUASOU": [ "2" ], "WATLEV": 3, "SORDAT": "201306", "SORIND": "US,US,graph,Chart 13223" }, "geometry": { "type": "Polygon", "coordinates": [ [ [ -71.3845173, 41.4977876 ], [ -71.384705, 41.497471 ], [ -71.3846591, 41.4970296 ], [ -71.3851665, 41.4971006 ], [ -71.3852595, 41.4972562 ], [ -71.3852096, 41.4977902 ], [ -71.3849498, 41.4982253 ], [ -71.3846821, 41.4982785 ], [ -71.3843823, 41.4981833 ], [ -71.3844254, 41.4979427 ], [ -71.3845173, 41.4977876 ] ] ] } },
{ "type": "Feature", "properties": { "RCID": 545, "PRIM": 3, "GRUP": 2, "OBJL": 86, "RVER": 1, "AGEN": 550, "FIDN": 922718117, "FIDS": 8691, "LNAM": "022636FF8FA521F3", "CATOBS": 6, "QUASOU": [ "2" ], "WATLEV": 3, "INFORM": "Rocks", "SORDAT": "20140818", "SORIND": "US,US,graph,GC-11187" }, "geometry": { "type": "Polygon", "coordinates": [ [ [ -71.3791687, 41.4862057 ], [ -71.379115, 41.4861173 ], [ -71.3790857, 41.486069 ], [ -71.3790854, 41.4860686 ], [ -71.379085, 41.4860356 ], [ -71.3790845, 41.4859942 ], [ -71.3790795, 41.4856181 ], [ -71.3790789, 41.4855722 ], [ -71.3790788, 41.485563 ], [ -71.3790555, 41.4854863 ], [ -71.3790534, 41.4854795 ], [ -71.3790355, 41.4854208 ], [ -71.3790252, 41.4853867 ], [ -71.3791141, 41.4853889 ], [ -71.3792036, 41.4853997 ], [ -71.3792367, 41.4854206 ], [ -71.3792675, 41.4854623 ], [ -71.3792833, 41.4854863 ], [ -71.3792889, 41.4854948 ], [ -71.3793412, 41.4855743 ], [ -71.3793689, 41.4856163 ], [ -71.3794163, 41.4856822 ], [ -71.3794402, 41.4857426 ], [ -71.3794445, 41.485769 ], [ -71.3794533, 41.4858225 ], [ -71.3794569, 41.4858485 ], [ -71.379474, 41.4859717 ], [ -71.3794782, 41.4860018 ], [ -71.3794941, 41.4860587 ], [ -71.3795334, 41.4861323 ], [ -71.3795549, 41.4861495 ], [ -71.3796029, 41.4861877 ], [ -71.3796449, 41.4862456 ], [ -71.3796451, 41.4862458 ], [ -71.3797169, 41.4863158 ], [ -71.3798358, 41.4864 ], [ -71.3798393, 41.4864025 ], [ -71.3798724, 41.4864275 ], [ -71.3798879, 41.4864448 ], [ -71.3798923, 41.4864528 ], [ -71.3799109, 41.486487 ], [ -71.379918, 41.4865345 ], [ -71.379905, 41.4865747 ], [ -71.3798885, 41.4866085 ], [ -71.3798806, 41.4866325 ], [ -71.3798862, 41.4866413 ], [ -71.3798985, 41.4866605 ], [ -71.379966, 41.4866868 ], [ -71.3800256, 41.4866968 ], [ -71.3802248, 41.4867302 ], [ -71.3802874, 41.4867351 ], [ -71.3803293, 41.4867502 ], [ -71.3803741, 41.4867932 ], [ -71.3803848, 41.4868096 ], [ -71.3804005, 41.4868338 ], [ -71.3804146, 41.4869124 ], [ -71.3804138, 41.4869325 ], [ -71.3804106, 41.487013 ], [ -71.380421, 41.4870659 ], [ -71.3804225, 41.4870723 ], [ -71.3804316, 41.4871116 ], [ -71.3804619, 41.4871595 ], [ -71.3804657, 41.4871624 ], [ -71.380541, 41.4872192 ], [ -71.3805893, 41.4872503 ], [ -71.3806444, 41.4872859 ], [ -71.380705, 41.4873583 ], [ -71.3807222, 41.4873951 ], [ -71.3807425, 41.4874384 ], [ -71.3807499, 41.4874551 ], [ -71.3807944, 41.4875554 ], [ -71.3808358, 41.4876235 ], [ -71.3808556, 41.4876549 ], [ -71.3808756, 41.4876869 ], [ -71.3809003, 41.4877573 ], [ -71.3809111, 41.4878111 ], [ -71.3809055, 41.4878355 ], [ -71.3808924, 41.4878932 ], [ -71.3808531, 41.4879509 ], [ -71.3807316, 41.4880869 ], [ -71.3807596, 41.4879655 ], [ -71.3805078, 41.4877837 ], [ -71.3804941, 41.4876214 ], [ -71.3803736, 41.487536 ], [ -71.3803996, 41.4873671 ], [ -71.3797356, 41.4869496 ], [ -71.3796846, 41.486768 ], [ -71.3797739, 41.4865862 ], [ -71.3797714, 41.4865842 ], [ -71.3797596, 41.4865824 ], [ -71.3796819, 41.4865923 ], [ -71.3796516, 41.4865926 ], [ -71.3796242, 41.4865871 ], [ -71.3796116, 41.4865803 ], [ -71.3796025, 41.4865754 ], [ -71.3795952, 41.4865668 ], [ -71.3795888, 41.4865593 ], [ -71.37958, 41.486534 ], [ -71.3795796, 41.4865328 ], [ -71.3795753, 41.4865205 ], [ -71.3795548, 41.486493 ], [ -71.3795473, 41.4864768 ], [ -71.3795445, 41.4864642 ], [ -71.3795427, 41.486456 ], [ -71.3795431, 41.4864536 ], [ -71.3795502, 41.4864141 ], [ -71.3795478, 41.48639 ], [ -71.3795379, 41.4863663 ], [ -71.3795298, 41.4863469 ], [ -71.3794992, 41.4863006 ], [ -71.3794656, 41.4862707 ], [ -71.3794519, 41.4862626 ], [ -71.379417, 41.486242 ], [ -71.3794105, 41.4862404 ], [ -71.3794045, 41.486239 ], [ -71.379395, 41.4862367 ], [ -71.3793575, 41.4862378 ], [ -71.3793431, 41.4862363 ], [ -71.379322, 41.4862294 ], [ -71.3792965, 41.4862162 ], [ -71.3792686, 41.4862139 ], [ -71.3792082, 41.4862089 ], [ -71.3791687, 41.4862057 ] ] ] } },
{ "type": "Feature", "properties": { "RCID": 546, "PRIM": 3, "GRUP": 2, "OBJL": 86, "RVER": 1, "AGEN": 550, "FIDN": 992317546, "FIDS": 8691, "LNAM": "02263B25906A21F3", "CATOBS": 5, "EXPSOU": 1, "QUASOU": [ "6" ], "VALSOU": 2.4, "WATLEV": 3, "SORDAT": "200504", "SORIND": "US,US,graph,Chart 13223" }, "geometry": { "type": "Polygon", "coordinates": [ [ [ -71.365269, 41.4960076 ], [ -71.3653828, 41.4960058 ], [ -71.3654199, 41.4960058 ], [ -71.3654285, 41.4961322 ], [ -71.3654444, 41.4963678 ], [ -71.365445, 41.4964073 ], [ -71.3654471, 41.4964075 ], [ -71.3654534, 41.4965001 ], [ -71.3653588, 41.4965001 ], [ -71.3652942, 41.4965008 ], [ -71.36499, 41.4964982 ], [ -71.3649781, 41.4960556 ], [ -71.364977, 41.4960159 ], [ -71.365269, 41.4960076 ] ] ] } },
{ "type": "Feature", "properties": { "RCID": 547, "PRIM": 3, "GRUP": 2, "OBJL": 86, "RVER": 1, "AGEN": 550, "FIDN": 601938713, "FIDS": 8691, "LNAM": "022623E0DB1921F3", "QUASOU": [ "2" ], "WATLEV": 3, "SORDAT": "20050620", "SORIND": "US,US,graph,GC-10585" }, "geometry": { "type": "Polygon", "coordinates": [ [ [ -71.3648243, 41.5392282 ], [ -71.3645219, 41.5394866 ], [ -71.3643109, 41.5394725 ], [ -71.3641528, 41.5396056 ], [ -71.3644115, 41.5402697 ], [ -71.3642534, 41.5409302 ], [ -71.3640115, 41.5413306 ], [ -71.3637168, 41.5414809 ], [ -71.3635635, 41.5416581 ], [ -71.3635682, 41.5417571 ], [ -71.3635719, 41.5418363 ], [ -71.3636169, 41.5419057 ], [ -71.3636591, 41.5419709 ], [ -71.3636299, 41.5420527 ], [ -71.3636006, 41.5421862 ], [ -71.3635935, 41.5422727 ], [ -71.3636082, 41.5423479 ], [ -71.363673, 41.5422741 ], [ -71.3638472, 41.5421133 ], [ -71.3638916, 41.5420845 ], [ -71.3639841, 41.5420245 ], [ -71.3641149, 41.5419795 ], [ -71.3642979, 41.5418037 ], [ -71.364329, 41.5417556 ], [ -71.3646504, 41.5411969 ], [ -71.3646907, 41.5409533 ], [ -71.3648599, 41.5408284 ], [ -71.3650248, 41.5405183 ], [ -71.3649036, 41.5398167 ], [ -71.3648711, 41.5394736 ], [ -71.3648597, 41.5393535 ], [ -71.3648243, 41.5392282 ] ] ] } },
{ "type": "Feature", "properties": { "RCID": 548, "PRIM": 3, "GRUP": 2, "OBJL": 86, "RVER": 1, "AGEN": 550, "FIDN": 172087244, "FIDS": 8691, "LNAM": "02260A41D7CC21F3", "QUASOU": [ "2" ], "WATLEV": 3, "INFORM": "Rocks", "SORDAT": "20140818", "SORIND": "US,US,graph,GC-11187" }, "geometry": { "type": "Polygon", "coordinates": [ [ [ -71.3987716, 41.4862521 ], [ -71.3986991, 41.4862421 ], [ -71.398648, 41.486235 ], [ -71.3985876, 41.486198 ], [ -71.3985618, 41.4861622 ], [ -71.3985633, 41.4861323 ], [ -71.3985266, 41.4860639 ], [ -71.3984811, 41.4860338 ], [ -71.398452, 41.4860014 ], [ -71.398402, 41.4859457 ], [ -71.3983924, 41.485926 ], [ -71.3983758, 41.4858922 ], [ -71.3983444, 41.485832 ], [ -71.3983022, 41.4857979 ], [ -71.3982696, 41.4857547 ], [ -71.3982409, 41.4856993 ], [ -71.398232, 41.485682 ], [ -71.3982137, 41.4856505 ], [ -71.398204, 41.4856339 ], [ -71.398161, 41.4855911 ], [ -71.3981204, 41.4855447 ], [ -71.3980619, 41.4854777 ], [ -71.3980464, 41.485451 ], [ -71.3979782, 41.4853821 ], [ -71.3979539, 41.4854388 ], [ -71.3979444, 41.485461 ], [ -71.3977501, 41.4857671 ], [ -71.3977175, 41.4859811 ], [ -71.3979008, 41.486612 ], [ -71.3981405, 41.4866949 ], [ -71.3983003, 41.4866391 ], [ -71.3987054, 41.4862767 ], [ -71.3987108, 41.4862744 ], [ -71.3987215, 41.4862699 ], [ -71.3987382, 41.486264 ], [ -71.3987716, 41.4862521 ] ] ] } },
{ "type": "Feature", "properties": { "RCID": 549, "PRIM": 3, "GRUP": 2, "OBJL": 86, "RVER": 1, "AGEN": 550, "FIDN": 716863511, "FIDS": 8691, "LNAM": "02262ABA781721F3", "QUASOU": [ "2" ], "WATLEV": 3, "SORDAT": "200504", "SORIND": "US,US,graph,Chart 13223" }, "geometry": { "type": "Polygon", "coordinates": [ [ [ -71.392962, 41.5250121 ], [ -71.3927505, 41.525339 ], [ -71.3926355, 41.5253777 ], [ -71.3925218, 41.5253777 ], [ -71.3925149, 41.5253764 ], [ -71.3922942, 41.5253336 ], [ -71.3921952, 41.5252844 ], [ -71.3921762, 41.525275 ], [ -71.3921968, 41.5252558 ], [ -71.3921394, 41.5251737 ], [ -71.3921385, 41.5251037 ], [ -71.3921511, 41.5250789 ], [ -71.3921648, 41.5250705 ], [ -71.3922301, 41.5250686 ], [ -71.3922702, 41.5250829 ], [ -71.3923239, 41.5250537 ], [ -71.3923957, 41.5249713 ], [ -71.3924356, 41.5249049 ], [ -71.3924524, 41.5248308 ], [ -71.3924603, 41.5247701 ], [ -71.3924549, 41.5247248 ], [ -71.3924534, 41.5247122 ], [ -71.3923787, 41.5246743 ], [ -71.3923508, 41.5246526 ], [ -71.3923397, 41.524597 ], [ -71.392345, 41.5245414 ], [ -71.3923528, 41.5245136 ], [ -71.392368, 41.5244564 ], [ -71.3924115, 41.5243622 ], [ -71.3924213, 41.5243194 ], [ -71.3924297, 41.5242548 ], [ -71.3924377, 41.5241711 ], [ -71.3924714, 41.5240622 ], [ -71.3924964, 41.5240209 ], [ -71.3925079, 41.5239656 ], [ -71.3925428, 41.5238831 ], [ -71.3925839, 41.5237952 ], [ -71.3925627, 41.5237554 ], [ -71.392541, 41.523719 ], [ -71.3925055, 41.5236793 ], [ -71.3924925, 41.5236109 ], [ -71.39249, 41.5235138 ], [ -71.3924822, 41.523467 ], [ -71.3927912, 41.523467 ], [ -71.3929948, 41.5235948 ], [ -71.3930415, 41.5237001 ], [ -71.3931421, 41.5240223 ], [ -71.3931428, 41.5240644 ], [ -71.3931469, 41.5243031 ], [ -71.3930894, 41.5246136 ], [ -71.3929805, 41.5249835 ], [ -71.392962, 41.5250121 ] ] ] } },
{ "type": "Feature", "properties": { "RCID": 550, "PRIM": 3, "GRUP": 2, "OBJL": 86, "RVER": 1, "AGEN": 550, "FIDN": 292911797, "FIDS": 8691, "LNAM": "022611757AB521F3", "QUASOU": [ "2" ], "WATLEV": 3, "SORDAT": "201306", "SORIND": "US,US,graph,Chart 13223" }, "geometry": { "type": "Polygon", "coordinates": [ [ [ -71.3848981, 41.4984689 ], [ -71.3852359, 41.4984076 ], [ -71.3853399, 41.4984751 ], [ -71.3853918, 41.498642 ], [ -71.3848683, 41.4991971 ], [ -71.3845557, 41.4993309 ], [ -71.3844245, 41.4992924 ], [ -71.3843337, 41.4990575 ], [ -71.3848981, 41.4984689 ] ] ] } },
{ "type": "Feature", "properties": { "RCID": 551, "PRIM": 3, "GRUP": 2, "OBJL": 86, "RVER": 1, "AGEN": 550, "FIDN": 330029, "FIDS": 8691, "LNAM": "02260005092D21F3", "CATOBS": 6, "QUASOU": [ "2" ], "WATLEV": 3, "INFORM": "Rocks", "SORDAT": "20140818", "SORIND": "US,US,graph,GC-11187" }, "geometry": { "type": "Polygon", "coordinates": [ [ [ -71.3630659, 41.4893629 ], [ -71.363022, 41.488963 ], [ -71.3629906, 41.4890019 ], [ -71.3628939, 41.4891386 ], [ -71.362789, 41.4892702 ], [ -71.3627147, 41.4893286 ], [ -71.3626581, 41.4893732 ], [ -71.3625327, 41.4894719 ], [ -71.3624637, 41.4895452 ], [ -71.3624664, 41.4895659 ], [ -71.3624863, 41.4895855 ], [ -71.3625504, 41.4896008 ], [ -71.3627147, 41.4895933 ], [ -71.3627829, 41.4895902 ], [ -71.3629855, 41.48957 ], [ -71.3631768, 41.4895178 ], [ -71.363204, 41.489505 ], [ -71.3630684, 41.4893851 ], [ -71.3630659, 41.4893629 ] ] ] } },
{ "type": "Feature", "properties": { "RCID": 552, "PRIM": 3, "GRUP": 2, "OBJL": 86, "RVER": 1, "AGEN": 550, "FIDN": 265700733, "FIDS": 8691, "LNAM": "02260FD6457D21F3", "CATOBS": 6, "QUASOU": [ "2" ], "WATLEV": 3, "INFORM": "Rocks", "SORDAT": "20140818", "SORIND": "US,US,graph,GC-11187" }, "geometry": { "type": "Polygon", "coordinates": [ [ [ -71.3627686, 41.4881056 ], [ -71.362726, 41.4880323 ], [ -71.3626234, 41.4878556 ], [ -71.3625677, 41.4877597 ], [ -71.3625361, 41.4877052 ], [ -71.3625151, 41.4876691 ], [ -71.362472, 41.4875949 ], [ -71.3623674, 41.4875163 ], [ -71.3621769, 41.4873734 ], [ -71.3621332, 41.4874315 ], [ -71.3620849, 41.4874768 ], [ -71.3620797, 41.4875231 ], [ -71.3620955, 41.4875688 ], [ -71.3621183, 41.4876039 ], [ -71.3621257, 41.4876151 ], [ -71.3621328, 41.4876261 ], [ -71.3621341, 41.4876281 ], [ -71.362169, 41.4877088 ], [ -71.3621794, 41.4877329 ], [ -71.3621971, 41.4877738 ], [ -71.3622125, 41.4878368 ], [ -71.3622143, 41.4878412 ], [ -71.3622159, 41.487845 ], [ -71.3622348, 41.4878904 ], [ -71.3622727, 41.487947 ], [ -71.3622739, 41.4879488 ], [ -71.3622993, 41.4879866 ], [ -71.3623257, 41.488026 ], [ -71.3623431, 41.4880514 ], [ -71.3623466, 41.4880564 ], [ -71.3623481, 41.4880586 ], [ -71.3624123, 41.488152 ], [ -71.3624376, 41.4881889 ], [ -71.3624465, 41.4882004 ], [ -71.3624763, 41.488239 ], [ -71.3625283, 41.4882688 ], [ -71.3625834, 41.4882741 ], [ -71.3626767, 41.4882633 ], [ -71.3627017, 41.4882604 ], [ -71.3628273, 41.4882291 ], [ -71.3628377, 41.4882246 ], [ -71.3628053, 41.4881688 ], [ -71.362771, 41.4881098 ], [ -71.36277, 41.488108 ], [ -71.3627686, 41.4881056 ] ] ] } },
{ "type": "Feature", "properties": { "RCID": 553, "PRIM": 3, "GRUP": 2, "OBJL": 86, "RVER": 1, "AGEN": 550, "FIDN": 59881133, "FIDS": 8691, "LNAM": "02260391B6AD21F3", "CATOBS": 6, "QUASOU": [ "2" ], "WATLEV": 3, "INFORM": "Rocks", "SORDAT": "20140818", "SORIND": "US,US,graph,GC-11187" }, "geometry": { "type": "Polygon", "coordinates": [ [ [ -71.3569235, 41.4826112 ], [ -71.356833, 41.4827224 ], [ -71.3568915, 41.4827952 ], [ -71.3569518, 41.4827588 ], [ -71.3569762, 41.4827444 ], [ -71.3570744, 41.4827148 ], [ -71.3570753, 41.4827145 ], [ -71.357085, 41.4827116 ], [ -71.3571192, 41.4827094 ], [ -71.3571584, 41.482725 ], [ -71.3571897, 41.4827445 ], [ -71.3572082, 41.482756 ], [ -71.3572351, 41.4827879 ], [ -71.3572359, 41.4827991 ], [ -71.3572223, 41.4828433 ], [ -71.357218, 41.4828768 ], [ -71.3572234, 41.4828946 ], [ -71.3572259, 41.482903 ], [ -71.3572293, 41.4829145 ], [ -71.3572521, 41.4829334 ], [ -71.3572583, 41.4829385 ], [ -71.3572806, 41.4829539 ], [ -71.3573069, 41.4829572 ], [ -71.3573656, 41.4829536 ], [ -71.3574034, 41.4829432 ], [ -71.3574185, 41.4829334 ], [ -71.3574839, 41.4828913 ], [ -71.3575237, 41.4828277 ], [ -71.3575281, 41.4827679 ], [ -71.3575223, 41.4827263 ], [ -71.3575171, 41.4826887 ], [ -71.3574986, 41.4826524 ], [ -71.3574479, 41.482628 ], [ -71.3573889, 41.4826128 ], [ -71.3573333, 41.4826067 ], [ -71.3572864, 41.4826017 ], [ -71.3572131, 41.4825688 ], [ -71.3572084, 41.4825666 ], [ -71.3571831, 41.482546 ], [ -71.3571656, 41.4825375 ], [ -71.357137, 41.4825302 ], [ -71.3571116, 41.4825277 ], [ -71.3570727, 41.4825239 ], [ -71.3570447, 41.482524 ], [ -71.357004, 41.4825358 ], [ -71.3569179, 41.4825793 ], [ -71.3569235, 41.4826112 ] ] ] } },
{ "type": "Feature", "properties": { "RCID": 554, "PRIM": 3, "GRUP": 2, "OBJL": 86, "RVER": 1, "AGEN": 550, "FIDN": 38138448, "FIDS": 8691, "LNAM": "02260245F25021F3", "CATOBS": 6, "QUASOU": [ "2" ], "WATLEV": 3, "INFORM": "Rocks", "SORDAT": "20140818", "SORIND": "US,US,graph,GC-11187" }, "geometry": { "type": "Polygon", "coordinates": [ [ [ -71.3351073, 41.4760545 ], [ -71.3350763, 41.4761515 ], [ -71.3350695, 41.4762848 ], [ -71.3350712, 41.4763093 ], [ -71.3350765, 41.4763864 ], [ -71.3350789, 41.47641 ], [ -71.3350791, 41.4764122 ], [ -71.3350792, 41.4764134 ], [ -71.3349711, 41.4764339 ], [ -71.3349534, 41.4764403 ], [ -71.3348485, 41.4764785 ], [ -71.3348222, 41.4764876 ], [ -71.3347845, 41.4765007 ], [ -71.3347697, 41.4765089 ], [ -71.3347596, 41.4765145 ], [ -71.3347472, 41.4765215 ], [ -71.3347352, 41.476528 ], [ -71.334696, 41.4765492 ], [ -71.334663, 41.4765559 ], [ -71.3346398, 41.4765555 ], [ -71.3346244, 41.4765453 ], [ -71.3346149, 41.4765391 ], [ -71.3346008, 41.4765072 ], [ -71.3345901, 41.4764736 ], [ -71.3345842, 41.4764381 ], [ -71.3345866, 41.4764076 ], [ -71.3345866, 41.4764069 ], [ -71.3346073, 41.4763813 ], [ -71.3346373, 41.4763589 ], [ -71.3349417, 41.4761955 ], [ -71.3351073, 41.4760545 ] ] ] } },
{ "type": "Feature", "properties": { "RCID": 555, "PRIM": 3, "GRUP": 2, "OBJL": 86, "RVER": 1, "AGEN": 550, "FIDN": 135163608, "FIDS": 8691, "LNAM": "0226080E6ED821F3", "QUASOU": [ "2" ], "WATLEV": 3, "INFORM": "Shoal", "SORDAT": "20140818", "SORIND": "US,US,graph,GC-11187, DD-29210(CEF)" }, "geometry": { "type": "Polygon", "coordinates": [ [ [ -71.3976321, 41.4837393 ], [ -71.3976691, 41.4837304 ], [ -71.397718, 41.4837502 ], [ -71.3977603, 41.483782 ], [ -71.3977736, 41.4838148 ], [ -71.3977484, 41.4838556 ], [ -71.3977114, 41.4838665 ], [ -71.3976744, 41.4838566 ], [ -71.3976335, 41.4838347 ], [ -71.3976031, 41.4838069 ], [ -71.3976044, 41.4837711 ], [ -71.3976321, 41.4837393 ] ] ] } },
{ "type": "Feature", "properties": { "RCID": 556, "PRIM": 3, "GRUP": 2, "OBJL": 86, "RVER": 1, "AGEN": 550, "FIDN": 898926066, "FIDS": 8691, "LNAM": "0226359485F221F3", "CATOBS": 6, "QUASOU": [ "2" ], "WATLEV": 3, "SORDAT": "200504", "SORIND": "US,US,graph,Chart 13223" }, "geometry": { "type": "Polygon", "coordinates": [ [ [ -71.3963388, 41.503451 ], [ -71.3962521, 41.5033416 ], [ -71.3961704, 41.5033818 ], [ -71.3960801, 41.5034263 ], [ -71.3961415, 41.5035054 ], [ -71.3961403, 41.5035129 ], [ -71.3961152, 41.503667 ], [ -71.3961101, 41.5036984 ], [ -71.3964875, 41.5041487 ], [ -71.3964982, 41.5043208 ], [ -71.3961279, 41.5043469 ], [ -71.3959087, 41.5040201 ], [ -71.3958213, 41.503813 ], [ -71.3957962, 41.503705 ], [ -71.3957938, 41.5036789 ], [ -71.395777, 41.5034988 ], [ -71.3958033, 41.5034376 ], [ -71.3958716, 41.5033809 ], [ -71.3959581, 41.5033357 ], [ -71.3960644, 41.5032827 ], [ -71.3962656, 41.5032071 ], [ -71.3965493, 41.5034111 ], [ -71.3965109, 41.5034207 ], [ -71.3964232, 41.5034421 ], [ -71.3964002, 41.503444 ], [ -71.3963388, 41.503451 ] ] ] } },
{ "type": "Feature", "properties": { "RCID": 557, "PRIM": 3, "GRUP": 2, "OBJL": 86, "RVER": 1, "AGEN": 550, "FIDN": 577180290, "FIDS": 8691, "LNAM": "02262267128221F3", "QUASOU": [ "2" ], "WATLEV": 3, "SORDAT": "201701", "SORIND": "US,US,graph,Chart 13223" }, "geometry": { "type": "Polygon", "coordinates": [ [ [ -71.3621063, 41.5309944 ], [ -71.3621261, 41.5309434 ], [ -71.3621166, 41.530855 ], [ -71.3620636, 41.5308109 ], [ -71.3620275, 41.5307809 ], [ -71.3617891, 41.5307188 ], [ -71.3616937, 41.5306973 ], [ -71.3615379, 41.5307284 ], [ -71.3614393, 41.5308024 ], [ -71.361398, 41.5309291 ], [ -71.3614393, 41.5310485 ], [ -71.3615061, 41.5311107 ], [ -71.3617318, 41.5311417 ], [ -71.3619385, 41.5311369 ], [ -71.3620816, 41.5310581 ], [ -71.3621063, 41.5309944 ] ] ] } },
{ "type": "Feature", "properties": { "RCID": 558, "PRIM": 3, "GRUP": 2, "OBJL": 86, "RVER": 1, "AGEN": 550, "FIDN": 766467379, "FIDS": 8691, "LNAM": "02262DAF5D3321F3", "CATOBS": 6, "QUASOU": [ "2" ], "WATLEV": 3, "SORDAT": "20050620", "SORIND": "US,US,graph,GC-10585" }, "geometry": { "type": "Polygon", "coordinates": [ [ [ -71.3578572, 41.5081202 ], [ -71.3578506, 41.5082414 ], [ -71.3578507, 41.5082421 ], [ -71.3579456, 41.5087905 ], [ -71.3581444, 41.5091109 ], [ -71.3582179, 41.5092294 ], [ -71.3581084, 41.5093843 ], [ -71.3583053, 41.5097951 ], [ -71.3583538, 41.5100315 ], [ -71.3585386, 41.5101592 ], [ -71.3591854, 41.5103563 ], [ -71.3593888, 41.5106635 ], [ -71.3595514, 41.5107507 ], [ -71.3594964, 41.510757 ], [ -71.3594322, 41.510754 ], [ -71.3589742, 41.5107798 ], [ -71.3589493, 41.5107812 ], [ -71.3589166, 41.5107427 ], [ -71.3587327, 41.5105259 ], [ -71.3584948, 41.5103154 ], [ -71.3584433, 41.5102699 ], [ -71.3583216, 41.5102325 ], [ -71.3582325, 41.5101735 ], [ -71.3581827, 41.510081 ], [ -71.3580614, 41.5099117 ], [ -71.3580353, 41.5098752 ], [ -71.3578992, 41.509712 ], [ -71.3578224, 41.5095258 ], [ -71.3577075, 41.5092955 ], [ -71.357703, 41.5092734 ], [ -71.3576685, 41.5091047 ], [ -71.3575701, 41.5087068 ], [ -71.3576133, 41.508492 ], [ -71.3576099, 41.5083599 ], [ -71.3576709, 41.5081758 ], [ -71.3576956, 41.5081516 ], [ -71.3578572, 41.5081202 ] ] ] } },
{ "type": "Feature", "properties": { "RCID": 559, "PRIM": 3, "GRUP": 2, "OBJL": 86, "RVER": 1, "AGEN": 550, "FIDN": 218147958, "FIDS": 8691, "LNAM": "02260D00AC7621F3", "QUASOU": [ "2" ], "WATLEV": 3, "SORDAT": "200504", "SORIND": "US,US,graph,Chart 13223" }, "geometry": { "type": "Polygon", "coordinates": [ [ [ -71.3922608, 41.5202664 ], [ -71.3924236, 41.520299 ], [ -71.3924307, 41.5203032 ], [ -71.3926559, 41.5204526 ], [ -71.3929194, 41.5204886 ], [ -71.3930559, 41.520467 ], [ -71.3931421, 41.5203806 ], [ -71.3931673, 41.5202726 ], [ -71.392911, 41.5198333 ], [ -71.3928775, 41.519719 ], [ -71.3928775, 41.5195084 ], [ -71.392911, 41.5191609 ], [ -71.3928775, 41.5190583 ], [ -71.3927745, 41.5189557 ], [ -71.3926391, 41.5189026 ], [ -71.392511, 41.5188837 ], [ -71.3923744, 41.5189143 ], [ -71.3923234, 41.5189419 ], [ -71.3922235, 41.5189335 ], [ -71.3921086, 41.519411 ], [ -71.3921409, 41.5196962 ], [ -71.3923033, 41.5200221 ], [ -71.3922608, 41.5202664 ] ] ] } },
{ "type": "Feature", "properties": { "RCID": 560, "PRIM": 3, "GRUP": 2, "OBJL": 86, "RVER": 1, "AGEN": 550, "FIDN": 852734194, "FIDS": 8691, "LNAM": "022632D3B0F221F3", "QUASOU": [ "2" ], "WATLEV": 3, "INFORM": "Rocks", "SORDAT": "20140818", "SORIND": "US,US,graph,GC-11187" }, "geometry": { "type": "Polygon", "coordinates": [ [ [ -71.3903528, 41.4923565 ], [ -71.3900044, 41.4926942 ], [ -71.3897755, 41.4927501 ], [ -71.3892253, 41.4928846 ], [ -71.3891479, 41.4928866 ], [ -71.3890639, 41.4928889 ], [ -71.388743, 41.4928974 ], [ -71.388355, 41.492778 ], [ -71.3882181, 41.4925946 ], [ -71.3879533, 41.4922399 ], [ -71.3877538, 41.4926898 ], [ -71.3878576, 41.4929928 ], [ -71.3882343, 41.4932549 ], [ -71.3889246, 41.4935036 ], [ -71.3893318, 41.4931786 ], [ -71.390003, 41.4931294 ], [ -71.3902813, 41.4928927 ], [ -71.3906113, 41.4925986 ], [ -71.3906778, 41.4924697 ], [ -71.3905904, 41.4923441 ], [ -71.3905627, 41.4923582 ], [ -71.3905175, 41.4923618 ], [ -71.3904247, 41.4923606 ], [ -71.3903528, 41.4923565 ] ] ] } },
{ "type": "Feature", "properties": { "RCID": 561, "PRIM": 3, "GRUP": 2, "OBJL": 86, "RVER": 1, "AGEN": 550, "FIDN": 334274433, "FIDS": 8691, "LNAM": "022613EC9F8121F3", "QUASOU": [ "2" ], "WATLEV": 3, "SORDAT": "20140818", "SORIND": "US,US,graph,GC-11187, DD-29210(CEF)" }, "geometry": { "type": "Polygon", "coordinates": [ [ [ -71.3638571, 41.4766901 ], [ -71.3638855, 41.4766883 ], [ -71.3638981, 41.4766965 ], [ -71.3639027, 41.4767181 ], [ -71.3639036, 41.4767485 ], [ -71.363891, 41.4767988 ], [ -71.3638691, 41.4768193 ], [ -71.3638377, 41.4768318 ], [ -71.3638001, 41.4768318 ], [ -71.3637761, 41.4768145 ], [ -71.3637875, 41.4767147 ], [ -71.3638189, 41.4766974 ], [ -71.3638571, 41.4766901 ] ] ] } },
{ "type": "Feature", "properties": { "RCID": 562, "PRIM": 3, "GRUP": 2, "OBJL": 86, "RVER": 1, "AGEN": 550, "FIDN": 387588534, "FIDS": 8691, "LNAM": "0226171A21B621F3", "CATOBS": 6, "QUASOU": [ "2" ], "WATLEV": 3, "INFORM": "Rocks", "SORDAT": "20140818", "SORIND": "US,US,graph,GC-11187" }, "geometry": { "type": "Polygon", "coordinates": [ [ [ -71.3631712, 41.5016396 ], [ -71.3629261, 41.5017522 ], [ -71.3627898, 41.5018148 ], [ -71.3625483, 41.5019034 ], [ -71.3624002, 41.5019665 ], [ -71.3623729, 41.5019839 ], [ -71.3622219, 41.5020801 ], [ -71.3620121, 41.5022054 ], [ -71.3618524, 41.5022809 ], [ -71.3615519, 41.5023812 ], [ -71.3615406, 41.5023851 ], [ -71.3614377, 41.5023998 ], [ -71.3611657, 41.5024035 ], [ -71.3609858, 41.5024981 ], [ -71.3609542, 41.5023351 ], [ -71.3609094, 41.5021318 ], [ -71.3609066, 41.5021191 ], [ -71.3609288, 41.5020633 ], [ -71.3609763, 41.5019947 ], [ -71.361033, 41.5019405 ], [ -71.3611225, 41.5018865 ], [ -71.3611229, 41.5018863 ], [ -71.3612278, 41.5018327 ], [ -71.3613221, 41.5017977 ], [ -71.3614575, 41.5017656 ], [ -71.361512, 41.5017528 ], [ -71.361555, 41.5017535 ], [ -71.361707, 41.501756 ], [ -71.3618261, 41.501746 ], [ -71.3619756, 41.5017333 ], [ -71.3620183, 41.5017371 ], [ -71.3620621, 41.5017409 ], [ -71.3621546, 41.5017737 ], [ -71.3622238, 41.5017932 ], [ -71.3623027, 41.5017818 ], [ -71.3623122, 41.5017804 ], [ -71.3623701, 41.5017515 ], [ -71.3624404, 41.5016916 ], [ -71.3625012, 41.5016293 ], [ -71.3625669, 41.5015859 ], [ -71.3626288, 41.5015579 ], [ -71.362822, 41.5015123 ], [ -71.3628321, 41.5015106 ], [ -71.3629584, 41.5014891 ], [ -71.3630255, 41.5014809 ], [ -71.3630666, 41.5014902 ], [ -71.3630968, 41.5015119 ], [ -71.3631712, 41.5016396 ] ] ] } },
{ "type": "Feature", "properties": { "RCID": 563, "PRIM": 3, "GRUP": 2, "OBJL": 86, "RVER": 1, "AGEN": 550, "FIDN": 49700535, "FIDS": 8691, "LNAM": "022602F65EB721F3", "CATOBS": 4, "QUASOU": [ "2" ], "WATLEV": 3, "SORDAT": "200504", "SORIND": "US,US,graph,Chart 13223" }, "geometry": { "type": "Polygon", "coordinates": [ [ [ -71.3566267, 41.5075853 ], [ -71.3566291, 41.5078374 ], [ -71.3561057, 41.5078509 ], [ -71.3560961, 41.5075997 ], [ -71.3566267, 41.5075853 ] ] ] } },
{ "type": "Feature", "properties": { "RCID": 564, "PRIM": 3, "GRUP": 2, "OBJL": 86, "RVER": 1, "AGEN": 550, "FIDN": 334239211, "FIDS": 8691, "LNAM": "022613EC15EB21F3", "QUASOU": [ "2" ], "WATLEV": 3, "INFORM": "Shoal", "SORDAT": "20140818", "SORIND": "US,US,graph,GC-11187" }, "geometry": { "type": "Polygon", "coordinates": [ [ [ -71.3521173, 41.4831587 ], [ -71.3521499, 41.4831484 ], [ -71.3522026, 41.483154 ], [ -71.3522202, 41.4831644 ], [ -71.3522453, 41.4831918 ], [ -71.3522578, 41.483221 ], [ -71.3522578, 41.483254 ], [ -71.3522428, 41.4832682 ], [ -71.3522315, 41.4832766 ], [ -71.3522089, 41.4832832 ], [ -71.3521713, 41.4832748 ], [ -71.3521223, 41.4832408 ], [ -71.3520998, 41.4832106 ], [ -71.3521023, 41.4831814 ], [ -71.3521173, 41.4831587 ] ] ] } },
{ "type": "Feature", "properties": { "RCID": 565, "PRIM": 3, "GRUP": 2, "OBJL": 86, "RVER": 1, "AGEN": 550, "FIDN": 932700603, "FIDS": 8691, "LNAM": "02263797E1BB21F3", "CATOBS": 6, "QUASOU": [ "2" ], "WATLEV": 3, "INFORM": "Rocks", "SORDAT": "20140818", "SORIND": "US,US,graph,GC-11187" }, "geometry": { "type": "Polygon", "coordinates": [ [ [ -71.3409433, 41.4973206 ], [ -71.3406221, 41.4970475 ], [ -71.3405649, 41.4969989 ], [ -71.3405321, 41.4974599 ], [ -71.3403626, 41.4980318 ], [ -71.3403696, 41.4987592 ], [ -71.3401861, 41.4991423 ], [ -71.3405542, 41.4993098 ], [ -71.3405943, 41.4994749 ], [ -71.3401661, 41.5000161 ], [ -71.3401353, 41.5000566 ], [ -71.3401365, 41.5001449 ], [ -71.340138, 41.5001505 ], [ -71.3401558, 41.5002171 ], [ -71.340159, 41.5002632 ], [ -71.3401613, 41.5002953 ], [ -71.3401388, 41.5003643 ], [ -71.3401105, 41.5004497 ], [ -71.3401039, 41.5005299 ], [ -71.3400991, 41.500588 ], [ -71.3401176, 41.5006775 ], [ -71.340167, 41.5009153 ], [ -71.3402175, 41.5010052 ], [ -71.3402883, 41.5010633 ], [ -71.3403902, 41.5010535 ], [ -71.3405274, 41.5009488 ], [ -71.3405339, 41.500944 ], [ -71.3406035, 41.5008927 ], [ -71.3407, 41.5008689 ], [ -71.3408175, 41.500868 ], [ -71.3409526, 41.5008816 ], [ -71.3410926, 41.5008759 ], [ -71.3410959, 41.5008752 ], [ -71.3411469, 41.5008642 ], [ -71.3412503, 41.500842 ], [ -71.3412516, 41.5008414 ], [ -71.3413591, 41.5007971 ], [ -71.3414277, 41.5007427 ], [ -71.3415156, 41.5006749 ], [ -71.3416029, 41.500595 ], [ -71.3416619, 41.5005365 ], [ -71.3417299, 41.5004683 ], [ -71.3417471, 41.500451 ], [ -71.3418478, 41.500353 ], [ -71.3419508, 41.5002123 ], [ -71.3420472, 41.5000808 ], [ -71.3420858, 41.5000281 ], [ -71.3421243, 41.4999587 ], [ -71.3421783, 41.49973 ], [ -71.3421623, 41.4995072 ], [ -71.3421474, 41.4992993 ], [ -71.3421435, 41.4992289 ], [ -71.3421302, 41.4989932 ], [ -71.3421102, 41.4987855 ], [ -71.3420917, 41.4985933 ], [ -71.3420965, 41.4985579 ], [ -71.3421476, 41.4981803 ], [ -71.3421593, 41.497915 ], [ -71.3421655, 41.4977755 ], [ -71.3420484, 41.4975699 ], [ -71.3420283, 41.4975869 ], [ -71.34185, 41.4977373 ], [ -71.3417247, 41.497888 ], [ -71.3416489, 41.4979792 ], [ -71.3415812, 41.4980606 ], [ -71.3415704, 41.4980735 ], [ -71.3415161, 41.4981389 ], [ -71.3415109, 41.4981488 ], [ -71.3414943, 41.4981808 ], [ -71.3414592, 41.4982482 ], [ -71.3414903, 41.4983793 ], [ -71.3415006, 41.4984226 ], [ -71.3415042, 41.4984378 ], [ -71.3415098, 41.4984612 ], [ -71.3415249, 41.4985249 ], [ -71.3414884, 41.4985834 ], [ -71.3414598, 41.4986292 ], [ -71.3414567, 41.4986395 ], [ -71.3414994, 41.498826 ], [ -71.3417375, 41.4991557 ], [ -71.3416704, 41.4994283 ], [ -71.3417171, 41.4996251 ], [ -71.3414158, 41.4999893 ], [ -71.3412187, 41.5004832 ], [ -71.3409184, 41.5006623 ], [ -71.3405722, 41.5001012 ], [ -71.3405722, 41.5001009 ], [ -71.3405799, 41.5000692 ], [ -71.3405801, 41.5000684 ], [ -71.3405958, 41.5000358 ], [ -71.3406215, 41.499998 ], [ -71.3406574, 41.4999545 ], [ -71.3407012, 41.4999086 ], [ -71.3407203, 41.4998917 ], [ -71.3407244, 41.499888 ], [ -71.340803, 41.4998185 ], [ -71.3408373, 41.4997846 ], [ -71.3408715, 41.4997426 ], [ -71.3408919, 41.4997078 ], [ -71.340903, 41.4996758 ], [ -71.3409092, 41.4996387 ], [ -71.3409114, 41.4995429 ], [ -71.3409215, 41.4993793 ], [ -71.3409229, 41.4993724 ], [ -71.3409317, 41.4993287 ], [ -71.3409466, 41.4992955 ], [ -71.3409552, 41.4992856 ], [ -71.3409654, 41.4992787 ], [ -71.3409735, 41.499277 ], [ -71.3409837, 41.49928 ], [ -71.3410032, 41.4992995 ], [ -71.3410398, 41.4993598 ], [ -71.3410499, 41.4993724 ], [ -71.3410517, 41.4993746 ], [ -71.3410632, 41.4993827 ], [ -71.3411925, 41.499299 ], [ -71.3412173, 41.4989786 ], [ -71.3411079, 41.4988293 ], [ -71.3405501, 41.4986163 ], [ -71.3404695, 41.4985149 ], [ -71.3405148, 41.498383 ], [ -71.3407605, 41.4981574 ], [ -71.3409978, 41.4980948 ], [ -71.3410782, 41.497825 ], [ -71.3411225, 41.4976493 ], [ -71.3410913, 41.4975257 ], [ -71.3410245, 41.4974223 ], [ -71.3409433, 41.4973206 ] ] ] } },
{ "type": "Feature", "properties": { "RCID": 566, "PRIM": 3, "GRUP": 2, "OBJL": 86, "RVER": 1, "AGEN": 550, "FIDN": 954430257, "FIDS": 8691, "LNAM": "022638E3733121F3", "CATOBS": 6, "QUASOU": [ "2" ], "WATLEV": 3, "INFORM": "Rocks", "SORDAT": "20140818", "SORIND": "US,US,graph,GC-11187" }, "geometry": { "type": "Polygon", "coordinates": [ [ [ -71.325193, 41.4773815 ], [ -71.3252184, 41.477368 ], [ -71.32552, 41.4774703 ], [ -71.3255457, 41.4774777 ], [ -71.3253557, 41.4775253 ], [ -71.3252282, 41.4774759 ], [ -71.325193, 41.4773815 ] ] ] } },
{ "type": "Feature", "properties": { "RCID": 567, "PRIM": 3, "GRUP": 2, "OBJL": 86, "RVER": 1, "AGEN": 550, "FIDN": 964647576, "FIDS": 8691, "LNAM": "0226397F5A9821F3", "QUASOU": [ "2" ], "WATLEV": 3, "INFORM": "Rocks", "SORDAT": "20140818", "SORIND": "US,US,graph,GC-11187" }, "geometry": { "type": "Polygon", "coordinates": [ [ [ -71.3976501, 41.4841392 ], [ -71.3977779, 41.4841178 ], [ -71.3979269, 41.4840808 ], [ -71.3980488, 41.484008 ], [ -71.3980625, 41.4839915 ], [ -71.3981092, 41.4839133 ], [ -71.3981441, 41.4838872 ], [ -71.398184, 41.4838775 ], [ -71.39819, 41.4838774 ], [ -71.3982329, 41.483877 ], [ -71.3982662, 41.4838995 ], [ -71.3982925, 41.4839532 ], [ -71.3982948, 41.4840051 ], [ -71.3982868, 41.4840796 ], [ -71.3982703, 41.4841428 ], [ -71.398258, 41.484157 ], [ -71.3982292, 41.4841905 ], [ -71.3982324, 41.4842519 ], [ -71.3982306, 41.4842893 ], [ -71.3982371, 41.4843126 ], [ -71.3982365, 41.4843336 ], [ -71.3982743, 41.4844335 ], [ -71.3982965, 41.4844808 ], [ -71.3983087, 41.4845379 ], [ -71.3983087, 41.4846348 ], [ -71.3982933, 41.4847295 ], [ -71.3982316, 41.4848251 ], [ -71.3981349, 41.4849301 ], [ -71.398094, 41.4849165 ], [ -71.3979335, 41.4848635 ], [ -71.3979272, 41.4848546 ], [ -71.3977578, 41.4846136 ], [ -71.3978293, 41.4844104 ], [ -71.3976501, 41.4841392 ] ] ] } },
{ "type": "Feature", "properties": { "RCID": 570, "PRIM": 2, "GRUP": 2, "OBJL": 86, "RVER": 1, "AGEN": 550, "FIDN": 306065261, "FIDS": 8691, "LNAM": "0226123E2F6D21F3", "CATOBS": 1, "CONDTN": 2, "EXPSOU": 1, "QUASOU": [ "6" ], "VALSOU": 0.3, "WATLEV": 3, "SORDAT": "20200430", "SORIND": "US,US,graph,DD-32494" }, "geometry": { "type": "LineString", "coordinates": [ [ -71.3422502, 41.5311725 ], [ -71.3422474, 41.531198 ], [ -71.3422417, 41.5312284 ], [ -71.342239, 41.5312591 ], [ -71.3422346, 41.5312854 ], [ -71.3422269, 41.531302 ], [ -71.3422251, 41.5313193 ], [ -71.3422227, 41.5313324 ], [ -71.3422192, 41.5313461 ], [ -71.3422167, 41.5313611 ], [ -71.3422167, 41.5313748 ], [ -71.3422139, 41.5313918 ], [ -71.3422116, 41.5314122 ], [ -71.3422082, 41.5314218 ], [ -71.3422086, 41.5314307 ], [ -71.3422054, 41.5314446 ], [ -71.3422059, 41.5314503 ] ] } },
{ "type": "Feature", "properties": { "RCID": 572, "PRIM": 1, "GRUP": 2, "OBJL": 86, "RVER": 1, "AGEN": 550, "FIDN": 545072849, "FIDS": 7303, "LNAM": "0226207D26D11C87", "EXPSOU": 1, "QUASOU": [ "6" ], "VALSOU": 6.7, "WATLEV": 3, "SORDAT": "200504", "SORIND": "US,US,graph,Chart 13223" }, "geometry": { "type": "Point", "coordinates": [ -71.3967651, 41.5017071 ] } },
{ "type": "Feature", "properties": { "RCID": 573, "PRIM": 1, "GRUP": 2, "OBJL": 86, "RVER": 1, "AGEN": 550, "FIDN": 402577281, "FIDS": 7303, "LNAM": "022617FED7811C87", "CATOBS": 1, "CONDTN": 2, "QUASOU": [ "2" ], "WATLEV": 3, "SORDAT": "20140818", "SORIND": "US,US,graph,GC-11187, DD-29210(CEF)" }, "geometry": { "type": "Point", "coordinates": [ -71.3349603, 41.4771547 ] } },
{ "type": "Feature", "properties": { "RCID": 574, "PRIM": 1, "GRUP": 2, "OBJL": 86, "RVER": 1, "AGEN": 550, "FIDN": 620126377, "FIDS": 7303, "LNAM": "022624F660A91C87", "CATOBS": 6, "QUASOU": [ "2" ], "WATLEV": 3, "SORDAT": "200504", "SORIND": "US,US,graph,Chart 13223" }, "geometry": { "type": "Point", "coordinates": [ -71.3621532, 41.4880994 ] } },
{ "type": "Feature", "properties": { "RCID": 575, "PRIM": 1, "GRUP": 2, "OBJL": 86, "RVER": 1, "AGEN": 550, "FIDN": 791595414, "FIDS": 7303, "LNAM": "02262F2EC9961C87", "CATOBS": 1, "CONDTN": 2, "QUASOU": [ "2" ], "WATLEV": 3, "SORDAT": "20140818", "SORIND": "US,US,graph,GC-11187, DD-29210(CEF)" }, "geometry": { "type": "Point", "coordinates": [ -71.3835917, 41.5011334 ] } },
{ "type": "Feature", "properties": { "RCID": 576, "PRIM": 1, "GRUP": 2, "OBJL": 86, "RVER": 1, "AGEN": 550, "FIDN": 847344003, "FIDS": 7303, "LNAM": "0226328171831C87", "CATOBS": 1, "QUASOU": [ "2" ], "WATLEV": 3, "SORDAT": "20150420", "SORIND": "US,US,reprt,L 1078/16" }, "geometry": { "type": "Point", "coordinates": [ -71.3928694, 41.5262444 ] } },
{ "type": "Feature", "properties": { "RCID": 577, "PRIM": 1, "GRUP": 2, "OBJL": 86, "RVER": 1, "AGEN": 550, "FIDN": 275261157, "FIDS": 7303, "LNAM": "0226106826E51C87", "CATOBS": 1, "QUASOU": [ "2" ], "WATLEV": 3, "SORDAT": "200504", "SORIND": "US,US,graph,Chart 13223" }, "geometry": { "type": "Point", "coordinates": [ -71.3957039, 41.5041822 ] } },
{ "type": "Feature", "properties": { "RCID": 578, "PRIM": 1, "GRUP": 2, "OBJL": 86, "RVER": 1, "AGEN": 550, "FIDN": 600275143, "FIDS": 7303, "LNAM": "022623C778C71C87", "CATOBS": 6, "QUASOU": [ "2" ], "WATLEV": 3, "SORDAT": "200504", "SORIND": "US,US,graph,Chart 13223" }, "geometry": { "type": "Point", "coordinates": [ -71.3972387, 41.4773454 ] } },
{ "type": "Feature", "properties": { "RCID": 579, "PRIM": 1, "GRUP": 2, "OBJL": 86, "RVER": 1, "AGEN": 550, "FIDN": 577398203, "FIDS": 7303, "LNAM": "0226226A65BB1C87", "EXPSOU": 1, "QUASOU": [ "6" ], "VALSOU": 11.8, "WATLEV": 3, "SORDAT": "200504", "SORIND": "US,US,graph,Chart 13223" }, "geometry": { "type": "Point", "coordinates": [ -71.3443926, 41.5459536 ] } },
{ "type": "Feature", "properties": { "RCID": 580, "PRIM": 1, "GRUP": 2, "OBJL": 86, "RVER": 1, "AGEN": 550, "FIDN": 84096452, "FIDS": 7303, "LNAM": "0226050335C41C87", "CATOBS": 6, "QUASOU": [ "2" ], "WATLEV": 3, "SORDAT": "200504", "SORIND": "US,US,graph,Chart 13223" }, "geometry": { "type": "Point", "coordinates": [ -71.365334, 41.4934493 ] } },
{ "type": "Feature", "properties": { "RCID": 581, "PRIM": 1, "GRUP": 2, "OBJL": 86, "RVER": 1, "AGEN": 550, "FIDN": 383077595, "FIDS": 7303, "LNAM": "022616D54CDB1C87", "CATOBS": 1, "CONDTN": 2, "QUASOU": [ "2" ], "WATLEV": 3, "SORDAT": "20140818", "SORIND": "US,US,graph,GC-11187, DD-29210(CEF)" }, "geometry": { "type": "Point", "coordinates": [ -71.3856843, 41.4963173 ] } },
{ "type": "Feature", "properties": { "RCID": 582, "PRIM": 1, "GRUP": 2, "OBJL": 86, "RVER": 1, "AGEN": 550, "FIDN": 332583299, "FIDS": 7303, "LNAM": "022613D2D1831C87", "CATOBS": 1, "CONDTN": 2, "QUASOU": [ "2" ], "WATLEV": 3, "SORDAT": "20140818", "SORIND": "US,US,graph,GC-11187, DD-29210(CEF)" }, "geometry": { "type": "Point", "coordinates": [ -71.386006, 41.4973514 ] } },
{ "type": "Feature", "properties": { "RCID": 583, "PRIM": 1, "GRUP": 2, "OBJL": 86, "RVER": 1, "AGEN": 550, "FIDN": 510231010, "FIDS": 7303, "LNAM": "02261E6981E21C87", "CATOBS": 1, "CONDTN": 2, "QUASOU": [ "2" ], "WATLEV": 3, "SORDAT": "20140818", "SORIND": "US,US,graph,GC-11187, DD-29210(CEF)" }, "geometry": { "type": "Point", "coordinates": [ -71.3875027, 41.4965313 ] } },
{ "type": "Feature", "properties": { "RCID": 584, "PRIM": 1, "GRUP": 2, "OBJL": 86, "RVER": 1, "AGEN": 550, "FIDN": 462283396, "FIDS": 7303, "LNAM": "02261B8DE2841C87", "CATOBS": 1, "CONDTN": 2, "QUASOU": [ "2" ], "WATLEV": 3, "SORDAT": "20140818", "SORIND": "US,US,graph,GC-11187, DD-29210(CEF)" }, "geometry": { "type": "Point", "coordinates": [ -71.3344029, 41.4771685 ] } },
{ "type": "Feature", "properties": { "RCID": 585, "PRIM": 1, "GRUP": 2, "OBJL": 86, "RVER": 1, "AGEN": 550, "FIDN": 896415226, "FIDS": 7303, "LNAM": "0226356E35FA1C87", "CATOBS": 1, "CONDTN": 2, "QUASOU": [ "2" ], "WATLEV": 3, "SORDAT": "20140818", "SORIND": "US,US,graph,GC-11187, DD-29210(CEF)" }, "geometry": { "type": "Point", "coordinates": [ -71.3599514, 41.4828382 ] } },
{ "type": "Feature", "properties": { "RCID": 586, "PRIM": 1, "GRUP": 2, "OBJL": 86, "RVER": 1, "AGEN": 550, "FIDN": 601848044, "FIDS": 7303, "LNAM": "022623DF78EC1C87", "CATOBS": 1, "QUASOU": [ "2" ], "WATLEV": 3, "SORDAT": "200504", "SORIND": "US,US,graph,Chart 13223" }, "geometry": { "type": "Point", "coordinates": [ -71.3954416, 41.5042704 ] } },
{ "type": "Feature", "properties": { "RCID": 587, "PRIM": 1, "GRUP": 2, "OBJL": 86, "RVER": 1, "AGEN": 550, "FIDN": 237170024, "FIDS": 7303, "LNAM": "02260E22ED681C87", "CATOBS": 1, "CONDTN": 2, "QUASOU": [ "2" ], "WATLEV": 3, "SORDAT": "20140818", "SORIND": "US,US,graph,GC-11187, DD-29210(CEF)" }, "geometry": { "type": "Point", "coordinates": [ -71.3285322, 41.4895153 ] } },
{ "type": "Feature", "properties": { "RCID": 588, "PRIM": 1, "GRUP": 2, "OBJL": 86, "RVER": 1, "AGEN": 550, "FIDN": 35461138, "FIDS": 7303, "LNAM": "0226021D18121C87", "EXPSOU": 1, "QUASOU": [ "6" ], "VALSOU": 13.1, "WATLEV": 3, "SORDAT": "20110801", "SORIND": "US,US,reprt,L-43/12" }, "geometry": { "type": "Point", "coordinates": [ -71.3317147, 41.4928619 ] } },
{ "type": "Feature", "properties": { "RCID": 589, "PRIM": 1, "GRUP": 2, "OBJL": 86, "RVER": 1, "AGEN": 550, "FIDN": 462028612, "FIDS": 7303, "LNAM": "02261B89FF441C87", "CATOBS": 1, "CONDTN": 2, "QUASOU": [ "2" ], "WATLEV": 3, "SORDAT": "20140818", "SORIND": "US,US,graph,GC-11187, DD-29210(CEF)" }, "geometry": { "type": "Point", "coordinates": [ -71.3345953, 41.4771399 ] } },
{ "type": "Feature", "properties": { "RCID": 590, "PRIM": 1, "GRUP": 2, "OBJL": 86, "RVER": 1, "AGEN": 550, "FIDN": 915749007, "FIDS": 7303, "LNAM": "02263695388F1C87", "EXPSOU": 1, "QUASOU": [ "6" ], "VALSOU": 4.5, "WATLEV": 3, "SORDAT": "201306", "SORIND": "US,US,graph,Chart 13223" }, "geometry": { "type": "Point", "coordinates": [ -71.3355004, 41.4808007 ] } },
{ "type": "Feature", "properties": { "RCID": 591, "PRIM": 1, "GRUP": 2, "OBJL": 86, "RVER": 1, "AGEN": 550, "FIDN": 313095237, "FIDS": 7303, "LNAM": "022612A974451C87", "EXPSOU": 1, "QUASOU": [ "6" ], "VALSOU": 12.1, "WATLEV": 3, "SORDAT": "201306", "SORIND": "US,US,graph,Chart 13223" }, "geometry": { "type": "Point", "coordinates": [ -71.3380517, 41.4893071 ] } },
{ "type": "Feature", "properties": { "RCID": 592, "PRIM": 1, "GRUP": 2, "OBJL": 86, "RVER": 1, "AGEN": 550, "FIDN": 505750127, "FIDS": 7303, "LNAM": "02261E25226F1C87", "CATOBS": 6, "QUASOU": [ "2" ], "WATLEV": 3, "SORDAT": "200504", "SORIND": "US,US,graph,Chart 13223" }, "geometry": { "type": "Point", "coordinates": [ -71.3842644, 41.5089781 ] } },
{ "type": "Feature", "properties": { "RCID": 593, "PRIM": 1, "GRUP": 2, "OBJL": 86, "RVER": 1, "AGEN": 550, "FIDN": 205090292, "FIDS": 7303, "LNAM": "02260C396DF41C87", "CATOBS": 1, "CONDTN": 2, "QUASOU": [ "2" ], "WATLEV": 3, "SORDAT": "20140818", "SORIND": "US,US,graph,GC-11187, DD-29210(CEF)" }, "geometry": { "type": "Point", "coordinates": [ -71.3862135, 41.4977427 ] } },
{ "type": "Feature", "properties": { "RCID": 594, "PRIM": 1, "GRUP": 2, "OBJL": 86, "RVER": 1, "AGEN": 550, "FIDN": 568765439, "FIDS": 7303, "LNAM": "022621E6ABFF1C87", "CATOBS": 1, "CONDTN": 2, "QUASOU": [ "2" ], "WATLEV": 3, "SORDAT": "20140818", "SORIND": "US,US,graph,GC-11187, DD-29210(CEF)" }, "geometry": { "type": "Point", "coordinates": [ -71.3863962, 41.4962821 ] } },
{ "type": "Feature", "properties": { "RCID": 595, "PRIM": 1, "GRUP": 2, "OBJL": 86, "RVER": 1, "AGEN": 550, "FIDN": 858367787, "FIDS": 7303, "LNAM": "02263329A72B1C87", "CATOBS": 1, "CONDTN": 2, "QUASOU": [ "2" ], "WATLEV": 3, "SORDAT": "20140818", "SORIND": "US,US,graph,GC-11187, DD-29210(CEF)" }, "geometry": { "type": "Point", "coordinates": [ -71.386956, 41.4980346 ] } },
{ "type": "Feature", "properties": { "RCID": 596, "PRIM": 1, "GRUP": 2, "OBJL": 86, "RVER": 1, "AGEN": 550, "FIDN": 193997390, "FIDS": 7303, "LNAM": "02260B902A4E1C87", "EXPSOU": 2, "QUASOU": [ "6" ], "VALSOU": 3.6, "WATLEV": 3, "SORDAT": "200504", "SORIND": "US,US,graph,Chart 13223" }, "geometry": { "type": "Point", "coordinates": [ -71.389924, 41.5085711 ] } },
{ "type": "Feature", "properties": { "RCID": 597, "PRIM": 1, "GRUP": 2, "OBJL": 86, "RVER": 1, "AGEN": 550, "FIDN": 393501341, "FIDS": 7303, "LNAM": "022617745A9D1C87", "CATOBS": 1, "CONDTN": 2, "QUASOU": [ "2" ], "WATLEV": 3, "SORDAT": "20140818", "SORIND": "US,US,graph,GC-11187, DD-29210(CEF)" }, "geometry": { "type": "Point", "coordinates": [ -71.3263499, 41.4864451 ] } },
{ "type": "Feature", "properties": { "RCID": 598, "PRIM": 1, "GRUP": 2, "OBJL": 86, "RVER": 1, "AGEN": 550, "FIDN": 272210251, "FIDS": 7303, "LNAM": "02261039994B1C87", "EXPSOU": 1, "QUASOU": [ "6" ], "VALSOU": 12.4, "WATLEV": 3, "SORDAT": "20110801", "SORIND": "US,US,reprt,L-43/12" }, "geometry": { "type": "Point", "coordinates": [ -71.3321561, 41.4947636 ] } },
{ "type": "Feature", "properties": { "RCID": 599, "PRIM": 1, "GRUP": 2, "OBJL": 86, "RVER": 1, "AGEN": 550, "FIDN": 412773723, "FIDS": 7303, "LNAM": "0226189A6D5B1C87", "CATOBS": 1, "CONDTN": 2, "QUASOU": [ "2" ], "WATLEV": 3, "SORDAT": "20140818", "SORIND": "US,US,graph,GC-11187, DD-29210(CEF)" }, "geometry": { "type": "Point", "coordinates": [ -71.3347219, 41.4771641 ] } },
{ "type": "Feature", "properties": { "RCID": 600, "PRIM": 1, "GRUP": 2, "OBJL": 86, "RVER": 1, "AGEN": 550, "FIDN": 262697257, "FIDS": 7303, "LNAM": "02260FA871291C87", "CATOBS": 1, "CONDTN": 2, "QUASOU": [ "2" ], "WATLEV": 3, "SORDAT": "20140818", "SORIND": "US,US,graph,GC-11187, DD-29210(CEF)" }, "geometry": { "type": "Point", "coordinates": [ -71.3868741, 41.4950817 ] } },
{ "type": "Feature", "properties": { "RCID": 601, "PRIM": 1, "GRUP": 2, "OBJL": 86, "RVER": 1, "AGEN": 550, "FIDN": 620470303, "FIDS": 7303, "LNAM": "022624FBA01F1C87", "CATOBS": 1, "CONDTN": 2, "QUASOU": [ "2" ], "WATLEV": 3, "SORDAT": "20140818", "SORIND": "US,US,graph,GC-11187, DD-29210(CEF)" }, "geometry": { "type": "Point", "coordinates": [ -71.3878777, 41.4950942 ] } },
{ "type": "Feature", "properties": { "RCID": 602, "PRIM": 1, "GRUP": 2, "OBJL": 86, "RVER": 1, "AGEN": 550, "FIDN": 964487921, "FIDS": 7303, "LNAM": "0226397CEAF11C87", "CATOBS": 1, "CONDTN": 2, "QUASOU": [ "2" ], "WATLEV": 3, "SORDAT": "20140818", "SORIND": "US,US,graph,GC-11187, DD-29210(CEF)" }, "geometry": { "type": "Point", "coordinates": [ -71.3251062, 41.4771144 ] } },
{ "type": "Feature", "properties": { "RCID": 603, "PRIM": 1, "GRUP": 2, "OBJL": 86, "RVER": 1, "AGEN": 550, "FIDN": 141553428, "FIDS": 7303, "LNAM": "0226086FEF141C87", "CATOBS": 6, "QUASOU": [ "2" ], "WATLEV": 3, "SORDAT": "200504", "SORIND": "US,US,graph,Chart 13223" }, "geometry": { "type": "Point", "coordinates": [ -71.3571337, 41.4815021 ] } },
{ "type": "Feature", "properties": { "RCID": 604, "PRIM": 1, "GRUP": 2, "OBJL": 86, "RVER": 1, "AGEN": 550, "FIDN": 505808783, "FIDS": 7303, "LNAM": "02261E26078F1C87", "CATOBS": 1, "CONDTN": 2, "QUASOU": [ "2" ], "WATLEV": 3, "SORDAT": "20140818", "SORIND": "US,US,graph,GC-11187, DD-29210(CEF)" }, "geometry": { "type": "Point", "coordinates": [ -71.3859933, 41.4963101 ] } },
{ "type": "Feature", "properties": { "RCID": 605, "PRIM": 1, "GRUP": 2, "OBJL": 86, "RVER": 1, "AGEN": 550, "FIDN": 811441039, "FIDS": 7303, "LNAM": "0226305D9B8F1C87", "CATOBS": 1, "CONDTN": 2, "QUASOU": [ "2" ], "WATLEV": 3, "SORDAT": "20140818", "SORIND": "US,US,graph,GC-11187, DD-29210(CEF)" }, "geometry": { "type": "Point", "coordinates": [ -71.3862232, 41.4964321 ] } },
{ "type": "Feature", "properties": { "RCID": 606, "PRIM": 1, "GRUP": 2, "OBJL": 86, "RVER": 1, "AGEN": 550, "FIDN": 41425813, "FIDS": 7303, "LNAM": "022602781B951C87", "CATOBS": 1, "CONDTN": 2, "QUASOU": [ "2" ], "WATLEV": 3, "SORDAT": "20140818", "SORIND": "US,US,graph,GC-11187, DD-29210(CEF)" }, "geometry": { "type": "Point", "coordinates": [ -71.3863596, 41.4961515 ] } },
{ "type": "Feature", "properties": { "RCID": 607, "PRIM": 1, "GRUP": 2, "OBJL": 86, "RVER": 1, "AGEN": 550, "FIDN": 879879500, "FIDS": 7303, "LNAM": "02263471E54C1C87", "CATOBS": 1, "CONDTN": 2, "QUASOU": [ "2" ], "WATLEV": 3, "SORDAT": "20140818", "SORIND": "US,US,graph,GC-11187, DD-29210(CEF)" }, "geometry": { "type": "Point", "coordinates": [ -71.3863861, 41.4970755 ] } },
{ "type": "Feature", "properties": { "RCID": 608, "PRIM": 1, "GRUP": 2, "OBJL": 86, "RVER": 1, "AGEN": 550, "FIDN": 199548212, "FIDS": 7303, "LNAM": "02260BE4DD341C87", "CATOBS": 1, "CONDTN": 2, "QUASOU": [ "2" ], "WATLEV": 3, "SORDAT": "20140818", "SORIND": "US,US,graph,GC-11187, DD-29210(CEF)" }, "geometry": { "type": "Point", "coordinates": [ -71.3869025, 41.4972044 ] } },
{ "type": "Feature", "properties": { "RCID": 609, "PRIM": 1, "GRUP": 2, "OBJL": 86, "RVER": 1, "AGEN": 550, "FIDN": 310688859, "FIDS": 7303, "LNAM": "02261284BC5B1C87", "CATOBS": 1, "QUASOU": [ "2" ], "WATLEV": 3, "SORDAT": "20150420", "SORIND": "US,US,reprt,L 1078/16" }, "geometry": { "type": "Point", "coordinates": [ -71.3925222, 41.5261944 ] } },
{ "type": "Feature", "properties": { "RCID": 610, "PRIM": 1, "GRUP": 2, "OBJL": 86, "RVER": 1, "AGEN": 550, "FIDN": 338035204, "FIDS": 7303, "LNAM": "0226142602041C87", "CATOBS": 1, "QUASOU": [ "2" ], "WATLEV": 3, "SORDAT": "200504", "SORIND": "US,US,graph,Chart 13223" }, "geometry": { "type": "Point", "coordinates": [ -71.3955674, 41.5044315 ] } },
{ "type": "Feature", "properties": { "RCID": 611, "PRIM": 1, "GRUP": 2, "OBJL": 86, "RVER": 1, "AGEN": 550, "FIDN": 164838046, "FIDS": 7303, "LNAM": "022609D33A9E1C87", "CATOBS": 1, "QUASOU": [ "2" ], "WATLEV": 3, "SORDAT": "200504", "SORIND": "US,US,graph,Chart 13223" }, "geometry": { "type": "Point", "coordinates": [ -71.3955722, 41.5040507 ] } },
{ "type": "Feature", "properties": { "RCID": 612, "PRIM": 1, "GRUP": 2, "OBJL": 86, "RVER": 1, "AGEN": 550, "FIDN": 242967669, "FIDS": 7303, "LNAM": "02260E7B64751C87", "CATOBS": 1, "CONDTN": 2, "QUASOU": [ "2" ], "WATLEV": 3, "SORDAT": "20140818", "SORIND": "US,US,graph,GC-11187, DD-29210(CEF)" }, "geometry": { "type": "Point", "coordinates": [ -71.3264541, 41.4865987 ] } },
{ "type": "Feature", "properties": { "RCID": 613, "PRIM": 1, "GRUP": 2, "OBJL": 86, "RVER": 1, "AGEN": 550, "FIDN": 726565756, "FIDS": 7303, "LNAM": "02262B4E837C1C87", "CATOBS": 6, "QUASOU": [ "2" ], "WATLEV": 3, "SORDAT": "200504", "SORIND": "US,US,graph,Chart 13223" }, "geometry": { "type": "Point", "coordinates": [ -71.3284994, 41.5190062 ] } },
{ "type": "Feature", "properties": { "RCID": 614, "PRIM": 1, "GRUP": 2, "OBJL": 86, "RVER": 1, "AGEN": 550, "FIDN": 356385677, "FIDS": 7303, "LNAM": "0226153E038D1C87", "CATOBS": 1, "CONDTN": 2, "QUASOU": [ "2" ], "WATLEV": 3, "SORDAT": "20140818", "SORIND": "US,US,graph,GC-11187, DD-29210(CEF)" }, "geometry": { "type": "Point", "coordinates": [ -71.3286565, 41.5144271 ] } },
{ "type": "Feature", "properties": { "RCID": 615, "PRIM": 1, "GRUP": 2, "OBJL": 86, "RVER": 1, "AGEN": 550, "FIDN": 391814495, "FIDS": 7303, "LNAM": "0226175A9D5F1C87", "CATOBS": 1, "CONDTN": 2, "QUASOU": [ "2" ], "WATLEV": 3, "SORDAT": "20140818", "SORIND": "US,US,graph,GC-11187, DD-29210(CEF)" }, "geometry": { "type": "Point", "coordinates": [ -71.3305407, 41.5097488 ] } },
{ "type": "Feature", "properties": { "RCID": 616, "PRIM": 1, "GRUP": 2, "OBJL": 86, "RVER": 1, "AGEN": 550, "FIDN": 111642668, "FIDS": 7303, "LNAM": "022606A7882C1C87", "CATOBS": 1, "CONDTN": 2, "QUASOU": [ "2" ], "WATLEV": 3, "SORDAT": "20140818", "SORIND": "US,US,graph,GC-11187, DD-29210(CEF)" }, "geometry": { "type": "Point", "coordinates": [ -71.3361036, 41.4817091 ] } },
{ "type": "Feature", "properties": { "RCID": 617, "PRIM": 1, "GRUP": 2, "OBJL": 86, "RVER": 1, "AGEN": 550, "FIDN": 247489250, "FIDS": 7303, "LNAM": "02260EC062E21C87", "CATOBS": 1, "CONDTN": 2, "QUASOU": [ "2" ], "WATLEV": 3, "SORDAT": "20140818", "SORIND": "US,US,graph,GC-11187, DD-29210(CEF)" }, "geometry": { "type": "Point", "coordinates": [ -71.3857478, 41.4956709 ] } },
{ "type": "Feature", "properties": { "RCID": 618, "PRIM": 1, "GRUP": 2, "OBJL": 86, "RVER": 1, "AGEN": 550, "FIDN": 854587612, "FIDS": 7303, "LNAM": "022632EFF8DC1C87", "CATOBS": 1, "CONDTN": 2, "QUASOU": [ "2" ], "WATLEV": 3, "SORDAT": "20140818", "SORIND": "US,US,graph,GC-11187, DD-29210(CEF)" }, "geometry": { "type": "Point", "coordinates": [ -71.3875218, 41.4972976 ] } },
{ "type": "Feature", "properties": { "RCID": 619, "PRIM": 1, "GRUP": 2, "OBJL": 86, "RVER": 1, "AGEN": 550, "FIDN": 54052787, "FIDS": 7303, "LNAM": "02260338C7B31C87", "EXPSOU": 2, "QUASOU": [ "6" ], "VALSOU": 2.7, "WATLEV": 3, "SORDAT": "200504", "SORIND": "US,US,graph,Chart 13223" }, "geometry": { "type": "Point", "coordinates": [ -71.389445, 41.5056884 ] } },
{ "type": "Feature", "properties": { "RCID": 620, "PRIM": 1, "GRUP": 2, "OBJL": 86, "RVER": 1, "AGEN": 550, "FIDN": 813849406, "FIDS": 7303, "LNAM": "022630825B3E1C87", "CATOBS": 1, "QUASOU": [ "2" ], "WATLEV": 3, "SORDAT": "201701", "SORIND": "US,US,graph,Chart 13223" }, "geometry": { "type": "Point", "coordinates": [ -71.3921611, 41.5261444 ] } },
{ "type": "Feature", "properties": { "RCID": 621, "PRIM": 1, "GRUP": 2, "OBJL": 86, "RVER": 1, "AGEN": 550, "FIDN": 43844924, "FIDS": 7303, "LNAM": "0226029D053C1C87", "CATOBS": 1, "QUASOU": [ "2" ], "WATLEV": 3, "SORDAT": "200504", "SORIND": "US,US,graph,Chart 13223" }, "geometry": { "type": "Point", "coordinates": [ -71.3953291, 41.5041164 ] } },
{ "type": "Feature", "properties": { "RCID": 622, "PRIM": 1, "GRUP": 2, "OBJL": 86, "RVER": 1, "AGEN": 550, "FIDN": 652206268, "FIDS": 7303, "LNAM": "022626DFE0BC1C87", "EXPSOU": 2, "QUASOU": [ "6" ], "VALSOU": 14.3, "WATLEV": 3, "SORDAT": "20060711", "SORIND": "US,US,graph,FE-00522" }, "geometry": { "type": "Point", "coordinates": [ -71.3351546, 41.4881114 ] } },
{ "type": "Feature", "properties": { "RCID": 623, "PRIM": 1, "GRUP": 2, "OBJL": 86, "RVER": 1, "AGEN": 550, "FIDN": 402316969, "FIDS": 7303, "LNAM": "022617FADEA91C87", "CATOBS": 1, "CONDTN": 2, "QUASOU": [ "2" ], "WATLEV": 3, "SORDAT": "20140818", "SORIND": "US,US,graph,GC-11187, DD-29210(CEF)" }, "geometry": { "type": "Point", "coordinates": [ -71.3653941, 41.4937965 ] } },
{ "type": "Feature", "properties": { "RCID": 624, "PRIM": 1, "GRUP": 2, "OBJL": 86, "RVER": 1, "AGEN": 550, "FIDN": 43120056, "FIDS": 7303, "LNAM": "02260291F5B81C87", "CATOBS": 1, "CONDTN": 2, "QUASOU": [ "2" ], "WATLEV": 3, "SORDAT": "20140818", "SORIND": "US,US,graph,GC-11187, DD-29210(CEF)" }, "geometry": { "type": "Point", "coordinates": [ -71.3860691, 41.4956738 ] } },
{ "type": "Feature", "properties": { "RCID": 625, "PRIM": 1, "GRUP": 2, "OBJL": 86, "RVER": 1, "AGEN": 550, "FIDN": 686634777, "FIDS": 7303, "LNAM": "022628ED37191C87", "CATOBS": 1, "CONDTN": 2, "QUASOU": [ "2" ], "WATLEV": 3, "SORDAT": "20140818", "SORIND": "US,US,graph,GC-11187, DD-29210(CEF)" }, "geometry": { "type": "Point", "coordinates": [ -71.3861416, 41.4961658 ] } }
]
}
