{
"type": "FeatureCollection",
"name": "PILPNT",
"crs": { "type": "name", "properties": { "name": "urn:ogc:def:crs:OGC:1.3:CRS84" } },
"features": [
{ "type": "Feature", "properties": { "RCID": 2354, "PRIM": 1, "GRUP": 2, "OBJL": 90, "RVER": 1, "AGEN": 550, "FIDN": 544326700, "FIDS": 7303, "LNAM": "02262071C42C1C87", "CATPLE": 3, "SCAMIN": 89999, "SORDAT": "20140818", "SORIND": "US,US,graph,GC-11187" }, "geometry": { "type": "Point", "coordinates": [ -71.3852582, 41.4957611 ] } },
{ "type": "Feature", "properties": { "RCID": 2355, "PRIM": 1, "GRUP": 2, "OBJL": 90, "RVER": 1, "AGEN": 550, "FIDN": 857194562, "FIDS": 7303, "LNAM": "02263317C0421C87", "CATPLE": 3, "SCAMIN": 89999, "SORDAT": "20140818", "SORIND": "US,US,graph,GC-11187" }, "geometry": { "type": "Point", "coordinates": [ -71.3963116, 41.493389 ] } },
{ "type": "Feature", "properties": { "RCID": 2356, "PRIM": 1, "GRUP": 2, "OBJL": 90, "RVER": 1, "AGEN": 550, "FIDN": 5669115, "FIDS": 7303, "LNAM": "0226005680FB1C87", "CATPLE": 3, "SCAMIN": 89999, "SORDAT": "20140818", "SORIND": "US,US,graph,GC-11187" }, "geometry": { "type": "Point", "coordinates": [ -71.3960383, 41.4941313 ] } },
{ "type": "Feature", "properties": { "RCID": 2357, "PRIM": 1, "GRUP": 2, "OBJL": 90, "RVER": 1, "AGEN": 550, "FIDN": 892212975, "FIDS": 7303, "LNAM": "0226352E16EF1C87", "CATPLE": 3, "SCAMIN": 89999, "SORDAT": "20140818", "SORIND": "US,US,graph,GC-11187" }, "geometry": { "type": "Point", "coordinates": [ -71.3958461, 41.4922009 ] } },
{ "type": "Feature", "properties": { "RCID": 2358, "PRIM": 1, "GRUP": 2, "OBJL": 90, "RVER": 1, "AGEN": 550, "FIDN": 429995806, "FIDS": 7303, "LNAM": "022619A1371E1C87", "CATPLE": 3, "SCAMIN": 89999, "SORDAT": "20050620", "SORIND": "US,US,graph,GC-10585" }, "geometry": { "type": "Point", "coordinates": [ -71.3883924, 41.4958155 ] } },
{ "type": "Feature", "properties": { "RCID": 2359, "PRIM": 1, "GRUP": 2, "OBJL": 90, "RVER": 1, "AGEN": 550, "FIDN": 743791491, "FIDS": 7303, "LNAM": "02262C555B831C87", "CATPLE": 3, "SCAMIN": 89999, "SORDAT": "20140818", "SORIND": "US,US,graph,GC-11187" }, "geometry": { "type": "Point", "coordinates": [ -71.3853014, 41.4952171 ] } },
{ "type": "Feature", "properties": { "RCID": 2360, "PRIM": 1, "GRUP": 2, "OBJL": 90, "RVER": 1, "AGEN": 550, "FIDN": 2249990, "FIDS": 7303, "LNAM": "0226002255061C87", "CATPLE": 3, "SCAMIN": 89999, "SORDAT": "20140818", "SORIND": "US,US,graph,GC-11187" }, "geometry": { "type": "Point", "coordinates": [ -71.3850905, 41.4957677 ] } },
{ "type": "Feature", "properties": { "RCID": 2361, "PRIM": 1, "GRUP": 2, "OBJL": 90, "RVER": 1, "AGEN": 550, "FIDN": 733519814, "FIDS": 7303, "LNAM": "02262BB89FC61C87", "CATPLE": 3, "SCAMIN": 89999, "SORDAT": "20140818", "SORIND": "US,US,graph,GC-11187" }, "geometry": { "type": "Point", "coordinates": [ -71.3386218, 41.4949539 ] } },
{ "type": "Feature", "properties": { "RCID": 2362, "PRIM": 1, "GRUP": 2, "OBJL": 90, "RVER": 1, "AGEN": 550, "FIDN": 683510584, "FIDS": 7303, "LNAM": "022628BD8B381C87", "CATPLE": 3, "SCAMIN": 89999, "SORDAT": "200504", "SORIND": "US,US,graph,Chart 13223" }, "geometry": { "type": "Point", "coordinates": [ -71.3443734, 41.5284162 ] } },
{ "type": "Feature", "properties": { "RCID": 2363, "PRIM": 1, "GRUP": 2, "OBJL": 90, "RVER": 1, "AGEN": 550, "FIDN": 402395808, "FIDS": 7303, "LNAM": "022617FC12A01C87", "CATPLE": 3, "SCAMIN": 89999, "SORDAT": "20140818", "SORIND": "US,US,graph,GC-11187" }, "geometry": { "type": "Point", "coordinates": [ -71.3854958, 41.4957513 ] } },
{ "type": "Feature", "properties": { "RCID": 2364, "PRIM": 1, "GRUP": 2, "OBJL": 90, "RVER": 1, "AGEN": 550, "FIDN": 703781164, "FIDS": 7303, "LNAM": "022629F2D92C1C87", "CATPLE": 3, "SCAMIN": 89999, "SORDAT": "20140818", "SORIND": "US,US,graph,GC-11187" }, "geometry": { "type": "Point", "coordinates": [ -71.3961368, 41.4938823 ] } },
{ "type": "Feature", "properties": { "RCID": 2365, "PRIM": 1, "GRUP": 2, "OBJL": 90, "RVER": 1, "AGEN": 550, "FIDN": 347945293, "FIDS": 7303, "LNAM": "022614BD394D1C87", "CATPLE": 3, "SCAMIN": 89999, "SORDAT": "20140818", "SORIND": "US,US,graph,GC-11187" }, "geometry": { "type": "Point", "coordinates": [ -71.3962244, 41.4936407 ] } }
]
}
