{
"type": "FeatureCollection",
"name": "PIPARE",
"crs": { "type": "name", "properties": { "name": "urn:ogc:def:crs:OGC:1.3:CRS84" } },
"features": [
{ "type": "Feature", "properties": { "RCID": 1455, "PRIM": 3, "GRUP": 2, "OBJL": 92, "RVER": 1, "AGEN": 550, "FIDN": 110757226, "FIDS": 8691, "LNAM": "0226069A056A21F3", "RESTRN": [ "2", "6", "24" ], "SCAMIN": 59999, "SORDAT": "200504", "SORIND": "US,US,graph,Chart 13223" }, "geometry": { "type": "Polygon", "coordinates": [ [ [ -71.3353083, 41.5325254 ], [ -71.3343769, 41.5325496 ], [ -71.3334627, 41.5325733 ], [ -71.3330045, 41.5325852 ], [ -71.3294813, 41.5326766 ], [ -71.3288229, 41.5326937 ], [ -71.3275761, 41.532726 ], [ -71.325, 41.5327929 ], [ -71.325, 41.5328019 ], [ -71.325, 41.5333487 ], [ -71.325, 41.5406301 ], [ -71.3253484, 41.5405629 ], [ -71.3261214, 41.5404137 ], [ -71.3267501, 41.5402924 ], [ -71.330226, 41.5396217 ], [ -71.3342966, 41.5388362 ], [ -71.3375919, 41.5382044 ], [ -71.3382807, 41.5380724 ], [ -71.3410629, 41.5375361 ], [ -71.3419522, 41.5373634 ], [ -71.3427698, 41.5372012 ], [ -71.3428768, 41.5371751 ], [ -71.3431648, 41.5371049 ], [ -71.3434063, 41.5370461 ], [ -71.3437144, 41.536971 ], [ -71.343885, 41.5369313 ], [ -71.3438414, 41.5368867 ], [ -71.3438111, 41.5368331 ], [ -71.3437715, 41.5366527 ], [ -71.3437198, 41.536499 ], [ -71.3435961, 41.5362496 ], [ -71.3435532, 41.5361871 ], [ -71.3435301, 41.5361534 ], [ -71.3434285, 41.5360096 ], [ -71.3434212, 41.5359948 ], [ -71.3433849, 41.5359218 ], [ -71.3433793, 41.5359105 ], [ -71.3433744, 41.5359006 ], [ -71.3433709, 41.5358217 ], [ -71.3433879, 41.5357895 ], [ -71.3433971, 41.535772 ], [ -71.3434192, 41.5357375 ], [ -71.3434615, 41.5356467 ], [ -71.3434694, 41.5355952 ], [ -71.3434536, 41.5355456 ], [ -71.343418, 41.5354514 ], [ -71.3433942, 41.535382 ], [ -71.3433982, 41.5353245 ], [ -71.3434298, 41.5352898 ], [ -71.3434719, 41.5352427 ], [ -71.3434814, 41.535216 ], [ -71.3434483, 41.5351539 ], [ -71.3433863, 41.5350816 ], [ -71.3433306, 41.5347386 ], [ -71.3432996, 41.534634 ], [ -71.3432262, 41.5345056 ], [ -71.3431369, 41.5343856 ], [ -71.3430117, 41.534262 ], [ -71.3429364, 41.5341585 ], [ -71.3428709, 41.5339558 ], [ -71.3428006, 41.5334675 ], [ -71.3428066, 41.5332987 ], [ -71.3428329, 41.5331334 ], [ -71.3428132, 41.5328225 ], [ -71.3428502, 41.5327567 ], [ -71.342854, 41.5326696 ], [ -71.3427608, 41.5325954 ], [ -71.3426968, 41.5325181 ], [ -71.3425636, 41.5325255 ], [ -71.3425602, 41.5325236 ], [ -71.3424234, 41.5325236 ], [ -71.3423123, 41.5325237 ], [ -71.3422806, 41.5325237 ], [ -71.3422443, 41.5325237 ], [ -71.3421116, 41.5325237 ], [ -71.3420808, 41.5325237 ], [ -71.3415908, 41.5325177 ], [ -71.3353083, 41.5325254 ] ] ] } },
{ "type": "Feature", "properties": { "RCID": 1456, "PRIM": 3, "GRUP": 2, "OBJL": 92, "RVER": 1, "AGEN": 550, "FIDN": 891831656, "FIDS": 8691, "LNAM": "02263528456821F3", "RESTRN": [ "2", "6", "24" ], "SCAMIN": 59999, "SORDAT": "200504", "SORIND": "US,US,graph,Chart 13223" }, "geometry": { "type": "Polygon", "coordinates": [ [ [ -71.4, 41.5072596 ], [ -71.3998359, 41.5071991 ], [ -71.3990425, 41.5069079 ], [ -71.3987417, 41.5068256 ], [ -71.3985242, 41.506766 ], [ -71.4, 41.506767 ], [ -71.4, 41.5070897 ], [ -71.4, 41.5071826 ], [ -71.4, 41.5072596 ] ] ] } },
{ "type": "Feature", "properties": { "RCID": 1457, "PRIM": 3, "GRUP": 2, "OBJL": 92, "RVER": 1, "AGEN": 550, "FIDN": 307980553, "FIDS": 8691, "LNAM": "0226125B690921F3", "RESTRN": [ "2", "6", "24" ], "SCAMIN": 59999, "SORDAT": "200504", "SORIND": "US,US,graph,Chart 13223" }, "geometry": { "type": "Polygon", "coordinates": [ [ [ -71.3282814, 41.5054195 ], [ -71.328275, 41.5051436 ], [ -71.3283693, 41.5050161 ], [ -71.3283859, 41.5049352 ], [ -71.3283779, 41.5048475 ], [ -71.328336, 41.5047758 ], [ -71.3282879, 41.5047054 ], [ -71.328243, 41.5046557 ], [ -71.328197, 41.504605 ], [ -71.3281695, 41.5045513 ], [ -71.3280696, 41.504357 ], [ -71.3276629, 41.5042562 ], [ -71.3275749, 41.5042025 ], [ -71.3272027, 41.5041263 ], [ -71.3264185, 41.5039087 ], [ -71.3260888, 41.5038172 ], [ -71.3255314, 41.5032722 ], [ -71.3255306, 41.5032714 ], [ -71.325433, 41.5032973 ], [ -71.3252924, 41.5033347 ], [ -71.3256034, 41.5040692 ], [ -71.3256133, 41.5040926 ], [ -71.3257647, 41.5041744 ], [ -71.3260187, 41.5043117 ], [ -71.3260433, 41.5043241 ], [ -71.3261622, 41.504384 ], [ -71.3261665, 41.5043861 ], [ -71.3266078, 41.5046316 ], [ -71.3267307, 41.5046999 ], [ -71.3270718, 41.5048823 ], [ -71.3270777, 41.5048856 ], [ -71.3272448, 41.5049756 ], [ -71.3272607, 41.5049841 ], [ -71.3274243, 41.5050728 ], [ -71.3274553, 41.5051913 ], [ -71.327442, 41.5052196 ], [ -71.327408, 41.5052919 ], [ -71.3273757, 41.5053553 ], [ -71.3273704, 41.5053551 ], [ -71.3270185, 41.5053431 ], [ -71.326807, 41.5053359 ], [ -71.3265803, 41.5053282 ], [ -71.3265589, 41.5053275 ], [ -71.3263065, 41.5053189 ], [ -71.325356, 41.5052866 ], [ -71.3250382, 41.5052759 ], [ -71.325, 41.5052746 ], [ -71.325, 41.5048139 ], [ -71.325, 41.504094 ], [ -71.325, 41.5028358 ], [ -71.325, 41.5027594 ], [ -71.325, 41.5025841 ], [ -71.325, 41.5023328 ], [ -71.325, 41.5015538 ], [ -71.325, 41.5006959 ], [ -71.325, 41.5005452 ], [ -71.325, 41.4997406 ], [ -71.325, 41.4995806 ], [ -71.325, 41.4966245 ], [ -71.325, 41.4913983 ], [ -71.325, 41.4913358 ], [ -71.325, 41.4913294 ], [ -71.325, 41.4913104 ], [ -71.325, 41.4912317 ], [ -71.325, 41.4910667 ], [ -71.325, 41.488146 ], [ -71.3250133, 41.4881411 ], [ -71.3252429, 41.4880655 ], [ -71.3252702, 41.4880565 ], [ -71.3253047, 41.4880437 ], [ -71.3253244, 41.4880388 ], [ -71.325505, 41.4880389 ], [ -71.3255486, 41.4880389 ], [ -71.3255486, 41.4879972 ], [ -71.3255487, 41.4878546 ], [ -71.3255718, 41.4878553 ], [ -71.3257779, 41.4878617 ], [ -71.3257763, 41.4877559 ], [ -71.3259589, 41.4877685 ], [ -71.3261606, 41.4878011 ], [ -71.3262775, 41.4878198 ], [ -71.3262779, 41.4881581 ], [ -71.3263882, 41.4882999 ], [ -71.3265711, 41.488558 ], [ -71.3267396, 41.488777 ], [ -71.3267618, 41.4890693 ], [ -71.3268036, 41.4896564 ], [ -71.3268465, 41.4901577 ], [ -71.3269264, 41.4903744 ], [ -71.3269391, 41.4904745 ], [ -71.3269564, 41.4906099 ], [ -71.3269146, 41.4906635 ], [ -71.3267954, 41.490816 ], [ -71.3267461, 41.4908843 ], [ -71.3267414, 41.4912017 ], [ -71.3267411, 41.4912169 ], [ -71.3267398, 41.4913054 ], [ -71.3267398, 41.4913062 ], [ -71.3267387, 41.49138 ], [ -71.3267387, 41.4913819 ], [ -71.3267461, 41.4915858 ], [ -71.3267489, 41.4918035 ], [ -71.326749, 41.4918167 ], [ -71.326871, 41.4918087 ], [ -71.326898, 41.491807 ], [ -71.3268981, 41.4918229 ], [ -71.3268522, 41.4918226 ], [ -71.3266258, 41.4918212 ], [ -71.3265884, 41.4918261 ], [ -71.3265104, 41.4918356 ], [ -71.3265057, 41.4918362 ], [ -71.326504, 41.4918287 ], [ -71.326498, 41.4918295 ], [ -71.3262889, 41.4918576 ], [ -71.3262641, 41.4918609 ], [ -71.3260474, 41.49189 ], [ -71.3260296, 41.491815 ], [ -71.3260283, 41.4918115 ], [ -71.3260218, 41.4918089 ], [ -71.3260153, 41.4918101 ], [ -71.3260112, 41.4918143 ], [ -71.3260117, 41.4918175 ], [ -71.3260295, 41.4918925 ], [ -71.3259257, 41.4919063 ], [ -71.3259064, 41.4918253 ], [ -71.3258593, 41.4918316 ], [ -71.3258944, 41.4919797 ], [ -71.3260003, 41.4924255 ], [ -71.3260068, 41.492453 ], [ -71.3262585, 41.4925215 ], [ -71.3263164, 41.4925372 ], [ -71.3263304, 41.492541 ], [ -71.3263467, 41.4925072 ], [ -71.3263164, 41.4924989 ], [ -71.3262575, 41.4924829 ], [ -71.3260495, 41.4924264 ], [ -71.326041, 41.4923912 ], [ -71.326026, 41.4923295 ], [ -71.3260484, 41.4923246 ], [ -71.3261221, 41.4923294 ], [ -71.3262024, 41.4923345 ], [ -71.3262059, 41.4923347 ], [ -71.3262096, 41.4923334 ], [ -71.3262131, 41.4923305 ], [ -71.3262133, 41.4923268 ], [ -71.3262121, 41.492324 ], [ -71.3262077, 41.4923213 ], [ -71.3262038, 41.4923211 ], [ -71.3261352, 41.4923166 ], [ -71.3260213, 41.4923093 ], [ -71.3259956, 41.4922011 ], [ -71.3260179, 41.4921962 ], [ -71.3261728, 41.4922061 ], [ -71.3261763, 41.4922061 ], [ -71.3261802, 41.4922044 ], [ -71.3261825, 41.4922016 ], [ -71.3261829, 41.492198 ], [ -71.3261802, 41.4921942 ], [ -71.3261762, 41.4921928 ], [ -71.3261698, 41.4921924 ], [ -71.3259908, 41.4921809 ], [ -71.3259652, 41.4920726 ], [ -71.3259875, 41.4920677 ], [ -71.3261402, 41.4920775 ], [ -71.3261452, 41.4920778 ], [ -71.3261499, 41.492076 ], [ -71.3261524, 41.4920725 ], [ -71.3261519, 41.4920677 ], [ -71.3261473, 41.4920645 ], [ -71.3261394, 41.4920639 ], [ -71.3261276, 41.4920632 ], [ -71.3259604, 41.4920524 ], [ -71.3259446, 41.4919862 ], [ -71.325932, 41.4919329 ], [ -71.3262887, 41.4918852 ], [ -71.32629, 41.491885 ], [ -71.3263339, 41.4918792 ], [ -71.3263466, 41.4919325 ], [ -71.3264856, 41.4919139 ], [ -71.3264955, 41.4919125 ], [ -71.326523, 41.4919089 ], [ -71.3265091, 41.4918506 ], [ -71.3265915, 41.4918396 ], [ -71.3266274, 41.491835 ], [ -71.3268337, 41.4918362 ], [ -71.3269164, 41.4918368 ], [ -71.3269163, 41.4918109 ], [ -71.3269163, 41.4918058 ], [ -71.3269605, 41.4918029 ], [ -71.3269631, 41.4919881 ], [ -71.3270783, 41.4919806 ], [ -71.3270956, 41.4921654 ], [ -71.3270907, 41.4924398 ], [ -71.3270063, 41.4925199 ], [ -71.3269432, 41.4926679 ], [ -71.3269223, 41.4928487 ], [ -71.3269241, 41.4929345 ], [ -71.3269243, 41.4929431 ], [ -71.3269333, 41.4930821 ], [ -71.3269416, 41.4931651 ], [ -71.326958, 41.4932423 ], [ -71.3269702, 41.4933804 ], [ -71.3271534, 41.4933755 ], [ -71.3271459, 41.493243 ], [ -71.3272588, 41.4932225 ], [ -71.3273561, 41.4931964 ], [ -71.3275165, 41.4931375 ], [ -71.3276674, 41.4930501 ], [ -71.3277448, 41.4929798 ], [ -71.3278638, 41.4928466 ], [ -71.328131, 41.4925597 ], [ -71.3282285, 41.4924197 ], [ -71.328285, 41.4923151 ], [ -71.3283823, 41.4920764 ], [ -71.3284889, 41.4917996 ], [ -71.3285166, 41.4917274 ], [ -71.3285703, 41.4915873 ], [ -71.3285639, 41.4915528 ], [ -71.3285544, 41.4915027 ], [ -71.3285082, 41.4912297 ], [ -71.3284712, 41.4909915 ], [ -71.3284401, 41.4908266 ], [ -71.32841, 41.490629 ], [ -71.3283731, 41.4904089 ], [ -71.3283278, 41.4901307 ], [ -71.3283049, 41.4899878 ], [ -71.3286388, 41.4900982 ], [ -71.3286765, 41.4901106 ], [ -71.3288547, 41.4901695 ], [ -71.3290798, 41.4902439 ], [ -71.3294597, 41.4903695 ], [ -71.3301788, 41.4906071 ], [ -71.3328579, 41.4914926 ], [ -71.3374522, 41.4932107 ], [ -71.337622, 41.4932741 ], [ -71.3393982, 41.4939375 ], [ -71.339475, 41.4939662 ], [ -71.3396291, 41.4940234 ], [ -71.3396759, 41.4940409 ], [ -71.341549, 41.4947406 ], [ -71.3417409, 41.4948123 ], [ -71.3420941, 41.4949442 ], [ -71.3422939, 41.4950189 ], [ -71.3423295, 41.4950322 ], [ -71.3423429, 41.4950372 ], [ -71.3423851, 41.495053 ], [ -71.3426584, 41.4951557 ], [ -71.3426306, 41.495227 ], [ -71.3426089, 41.4952828 ], [ -71.3425767, 41.4953657 ], [ -71.3424973, 41.4953576 ], [ -71.3424017, 41.495369 ], [ -71.3422455, 41.4953876 ], [ -71.341771, 41.4954441 ], [ -71.3417592, 41.4954455 ], [ -71.3415546, 41.4954016 ], [ -71.3410305, 41.4952892 ], [ -71.3408108, 41.4951459 ], [ -71.34059, 41.4952599 ], [ -71.3398429, 41.4952889 ], [ -71.3391861, 41.4953144 ], [ -71.3391018, 41.4953176 ], [ -71.339081, 41.4953347 ], [ -71.3389717, 41.4954246 ], [ -71.3391947, 41.4957129 ], [ -71.3392201, 41.4959497 ], [ -71.3392423, 41.4961566 ], [ -71.3392232, 41.4962253 ], [ -71.339163, 41.496442 ], [ -71.3391501, 41.4964883 ], [ -71.3390821, 41.4966376 ], [ -71.3389879, 41.4968448 ], [ -71.3380408, 41.4989247 ], [ -71.3379537, 41.499116 ], [ -71.3378666, 41.4993073 ], [ -71.3377561, 41.4995501 ], [ -71.3376834, 41.4997098 ], [ -71.3375155, 41.5000784 ], [ -71.336952, 41.501316 ], [ -71.3365572, 41.5021831 ], [ -71.3365551, 41.5021877 ], [ -71.3364909, 41.5023288 ], [ -71.3364899, 41.502331 ], [ -71.3351478, 41.5052787 ], [ -71.335058, 41.5054759 ], [ -71.3340791, 41.5054754 ], [ -71.330886, 41.5054737 ], [ -71.3301849, 41.5054733 ], [ -71.3300706, 41.5054732 ], [ -71.3296762, 41.505473 ], [ -71.3296018, 41.505473 ], [ -71.3293809, 41.5054729 ], [ -71.3293382, 41.5054728 ], [ -71.3291792, 41.5054727 ], [ -71.3291289, 41.5054727 ], [ -71.3290787, 41.5054727 ], [ -71.3282814, 41.5054195 ] ], [ [ -71.3331813, 41.5026415 ], [ -71.3333204, 41.5025337 ], [ -71.3332558, 41.5024772 ], [ -71.3332002, 41.5024285 ], [ -71.3331346, 41.5024368 ], [ -71.3331153, 41.5024392 ], [ -71.3330938, 41.502442 ], [ -71.3330332, 41.5024496 ], [ -71.3330192, 41.502456 ], [ -71.3328936, 41.5025128 ], [ -71.3331813, 41.5026415 ] ], [ [ -71.3357752, 41.5020209 ], [ -71.3357697, 41.5020219 ], [ -71.3357645, 41.5020236 ], [ -71.3357598, 41.5020261 ], [ -71.3357559, 41.5020293 ], [ -71.3357529, 41.5020329 ], [ -71.3357188, 41.5021439 ], [ -71.3357194, 41.5021469 ], [ -71.3357212, 41.5021512 ], [ -71.3357241, 41.5021551 ], [ -71.3357242, 41.5021551 ], [ -71.3357279, 41.5021585 ], [ -71.3357326, 41.5021612 ], [ -71.3357379, 41.5021633 ], [ -71.3357436, 41.5021645 ], [ -71.3357473, 41.5021648 ], [ -71.3357532, 41.5021646 ], [ -71.335759, 41.5021635 ], [ -71.3357599, 41.5021632 ], [ -71.3357644, 41.5021617 ], [ -71.3357692, 41.502159 ], [ -71.3357732, 41.5021557 ], [ -71.3357763, 41.5021519 ], [ -71.3357846, 41.5021296 ], [ -71.3358078, 41.5020449 ], [ -71.335808, 41.5020423 ], [ -71.3358073, 41.502038 ], [ -71.3358056, 41.5020339 ], [ -71.3358028, 41.5020302 ], [ -71.3357992, 41.5020269 ], [ -71.3357947, 41.5020242 ], [ -71.3357896, 41.5020223 ], [ -71.3357865, 41.5020215 ], [ -71.3357809, 41.5020208 ], [ -71.3357752, 41.5020209 ] ], [ [ -71.3349104, 41.5019746 ], [ -71.3349141, 41.5019749 ], [ -71.33492, 41.5019747 ], [ -71.3349242, 41.501974 ], [ -71.3349258, 41.5019737 ], [ -71.3349312, 41.5019718 ], [ -71.3349359, 41.5019691 ], [ -71.33494, 41.5019659 ], [ -71.334943, 41.501962 ], [ -71.3349514, 41.5019398 ], [ -71.3349746, 41.501855 ], [ -71.3349748, 41.5018524 ], [ -71.3349741, 41.5018481 ], [ -71.3349724, 41.501844 ], [ -71.3349696, 41.5018403 ], [ -71.334966, 41.501837 ], [ -71.3349615, 41.5018344 ], [ -71.3349564, 41.5018324 ], [ -71.3349533, 41.5018316 ], [ -71.3349477, 41.5018309 ], [ -71.334942, 41.501831 ], [ -71.3349364, 41.501832 ], [ -71.3349312, 41.5018338 ], [ -71.3349266, 41.5018362 ], [ -71.3349227, 41.5018394 ], [ -71.3349197, 41.501843 ], [ -71.3348856, 41.5019541 ], [ -71.3348861, 41.501957 ], [ -71.334888, 41.5019613 ], [ -71.3348909, 41.5019652 ], [ -71.3348928, 41.5019668 ], [ -71.3348947, 41.5019686 ], [ -71.3348994, 41.5019713 ], [ -71.3349047, 41.5019734 ], [ -71.3349104, 41.5019746 ] ], [ [ -71.3374584, 41.4990624 ], [ -71.3374689, 41.4990662 ], [ -71.3375098, 41.4990697 ], [ -71.3375487, 41.4990597 ], [ -71.3375744, 41.4990347 ], [ -71.3375801, 41.4989876 ], [ -71.3375649, 41.4989476 ], [ -71.3375088, 41.4989047 ], [ -71.3374699, 41.4989004 ], [ -71.3374347, 41.4989068 ], [ -71.3374321, 41.4989079 ], [ -71.3374043, 41.4989197 ], [ -71.3373824, 41.498959 ], [ -71.3373767, 41.4989933 ], [ -71.3373986, 41.499029 ], [ -71.3374281, 41.4990514 ], [ -71.3374584, 41.4990624 ] ] ] } }
]
}
