{
"type": "FeatureCollection",
"name": "PIPSOL",
"crs": { "type": "name", "properties": { "name": "urn:ogc:def:crs:OGC:1.3:CRS84" } },
"features": [
{ "type": "Feature", "properties": { "RCID": 1458, "PRIM": 2, "GRUP": 2, "OBJL": 94, "RVER": 1, "AGEN": 550, "FIDN": 333605038, "FIDS": 8691, "LNAM": "022613E268AE21F3", "CATPIP": [ "4" ], "SCAMIN": 59999, "SORDAT": "200504", "SORIND": "US,US,graph,Chart 13223" }, "geometry": { "type": "LineString", "coordinates": [ [ -71.3579921, 41.5077407 ], [ -71.3579298, 41.5077401 ], [ -71.3579288, 41.5077401 ], [ -71.3578029, 41.5077387 ], [ -71.3576217, 41.5077382 ], [ -71.357537, 41.507738 ], [ -71.3575149, 41.5077379 ], [ -71.3573996, 41.5077376 ], [ -71.3573489, 41.5077375 ], [ -71.3566291, 41.5077356 ] ] } },
{ "type": "Feature", "properties": { "RCID": 1459, "PRIM": 2, "GRUP": 2, "OBJL": 94, "RVER": 1, "AGEN": 550, "FIDN": 567191153, "FIDS": 8691, "LNAM": "022621CEA67121F3", "CATPIP": [ "4" ], "SCAMIN": 59999, "SORDAT": "200504", "SORIND": "US,US,graph,Chart 13223" }, "geometry": { "type": "LineString", "coordinates": [ [ -71.3413411, 41.4764914 ], [ -71.3414007, 41.4765184 ], [ -71.3414092, 41.4765231 ], [ -71.3415861, 41.4766203 ], [ -71.3416067, 41.4766316 ], [ -71.3418424, 41.4767611 ], [ -71.3419911, 41.4768428 ], [ -71.3423003, 41.4770127 ] ] } }
]
}
