{
"type": "FeatureCollection",
"name": "PONTON",
"crs": { "type": "name", "properties": { "name": "urn:ogc:def:crs:OGC:1.3:CRS84" } },
"features": [
{ "type": "Feature", "properties": { "RCID": 2279, "PRIM": 2, "GRUP": 2, "OBJL": 95, "RVER": 1, "AGEN": 550, "FIDN": 732008688, "FIDS": 8691, "LNAM": "02262BA190F021F3", "SCAMIN": 44999, "SORDAT": "20140818", "SORIND": "US,US,graph,GC-11187" }, "geometry": { "type": "LineString", "coordinates": [ [ -71.3854545, 41.4967121 ], [ -71.385539, 41.4967412 ], [ -71.3857194, 41.4968169 ], [ -71.3858073, 41.4968537 ] ] } },
{ "type": "Feature", "properties": { "RCID": 2280, "PRIM": 2, "GRUP": 2, "OBJL": 95, "RVER": 1, "AGEN": 550, "FIDN": 443208618, "FIDS": 8691, "LNAM": "02261A6AD3AA21F3", "SCAMIN": 44999, "SORDAT": "20140818", "SORIND": "US,US,graph,GC-11187" }, "geometry": { "type": "LineString", "coordinates": [ [ -71.3657847, 41.4953179 ], [ -71.3659888, 41.4953216 ] ] } },
{ "type": "Feature", "properties": { "RCID": 2281, "PRIM": 2, "GRUP": 2, "OBJL": 95, "RVER": 1, "AGEN": 550, "FIDN": 949452745, "FIDS": 8691, "LNAM": "022638977FC921F3", "SCAMIN": 44999, "SORDAT": "20140818", "SORIND": "US,US,graph,GC-11187" }, "geometry": { "type": "LineString", "coordinates": [ [ -71.3657777, 41.4962856 ], [ -71.3655353, 41.4962798 ] ] } },
{ "type": "Feature", "properties": { "RCID": 2282, "PRIM": 2, "GRUP": 2, "OBJL": 95, "RVER": 1, "AGEN": 550, "FIDN": 287744101, "FIDS": 8691, "LNAM": "02261126A06521F3", "SCAMIN": 44999, "SORDAT": "20140818", "SORIND": "US,US,graph,GC-11187" }, "geometry": { "type": "LineString", "coordinates": [ [ -71.3655346, 41.4961642 ], [ -71.365655, 41.4961708 ], [ -71.3657841, 41.496178 ] ] } },
{ "type": "Feature", "properties": { "RCID": 2283, "PRIM": 2, "GRUP": 2, "OBJL": 95, "RVER": 1, "AGEN": 550, "FIDN": 845355879, "FIDS": 8691, "LNAM": "022632631B6721F3", "SCAMIN": 44999, "SORDAT": "20140818", "SORIND": "US,US,graph,GC-11187" }, "geometry": { "type": "LineString", "coordinates": [ [ -71.3657797, 41.4953927 ], [ -71.3654486, 41.4953825 ] ] } },
{ "type": "Feature", "properties": { "RCID": 2284, "PRIM": 2, "GRUP": 2, "OBJL": 95, "RVER": 1, "AGEN": 550, "FIDN": 717958854, "FIDS": 8691, "LNAM": "02262ACB2EC621F3", "SCAMIN": 44999, "SORDAT": "20140818", "SORIND": "US,US,graph,GC-11187" }, "geometry": { "type": "LineString", "coordinates": [ [ -71.3651868, 41.4957906 ], [ -71.3649684, 41.4957855 ] ] } },
{ "type": "Feature", "properties": { "RCID": 2285, "PRIM": 2, "GRUP": 2, "OBJL": 95, "RVER": 1, "AGEN": 550, "FIDN": 774316157, "FIDS": 8691, "LNAM": "02262E27207D21F3", "SCAMIN": 44999, "SORDAT": "20140818", "SORIND": "US,US,graph,GC-11187" }, "geometry": { "type": "LineString", "coordinates": [ [ -71.3571825, 41.4788382 ], [ -71.3571755, 41.4790141 ] ] } },
{ "type": "Feature", "properties": { "RCID": 2286, "PRIM": 2, "GRUP": 2, "OBJL": 95, "RVER": 1, "AGEN": 550, "FIDN": 49601722, "FIDS": 8691, "LNAM": "022602F4DCBA21F3", "SCAMIN": 44999, "SORDAT": "20140818", "SORIND": "US,US,graph,GC-11187" }, "geometry": { "type": "LineString", "coordinates": [ [ -71.3269146, 41.4906635 ], [ -71.3267356, 41.4905774 ] ] } },
{ "type": "Feature", "properties": { "RCID": 2287, "PRIM": 2, "GRUP": 2, "OBJL": 95, "RVER": 1, "AGEN": 550, "FIDN": 466887380, "FIDS": 8691, "LNAM": "02261BD422D421F3", "SCAMIN": 44999, "SORDAT": "20140818", "SORIND": "US,US,graph,GC-11187" }, "geometry": { "type": "LineString", "coordinates": [ [ -71.3254356, 41.4887723 ], [ -71.3255862, 41.488812 ], [ -71.3257308, 41.4888511 ] ] } },
{ "type": "Feature", "properties": { "RCID": 2288, "PRIM": 2, "GRUP": 2, "OBJL": 95, "RVER": 1, "AGEN": 550, "FIDN": 85625867, "FIDS": 8691, "LNAM": "0226051A8C0B21F3", "SCAMIN": 44999, "SORDAT": "20140818", "SORIND": "US,US,graph,GC-11187" }, "geometry": { "type": "LineString", "coordinates": [ [ -71.3256005, 41.4864851 ], [ -71.3255174, 41.4865837 ], [ -71.3254338, 41.4866789 ] ] } },
{ "type": "Feature", "properties": { "RCID": 2289, "PRIM": 2, "GRUP": 2, "OBJL": 95, "RVER": 1, "AGEN": 550, "FIDN": 298142145, "FIDS": 8691, "LNAM": "022611C549C121F3", "SCAMIN": 44999, "SORDAT": "20140818", "SORIND": "US,US,graph,GC-11187" }, "geometry": { "type": "LineString", "coordinates": [ [ -71.3251969, 41.4764955 ], [ -71.325, 41.476585 ] ] } },
{ "type": "Feature", "properties": { "RCID": 2290, "PRIM": 2, "GRUP": 2, "OBJL": 95, "RVER": 1, "AGEN": 550, "FIDN": 709128688, "FIDS": 8691, "LNAM": "02262A4471F021F3", "SCAMIN": 44999, "SORDAT": "20140818", "SORIND": "US,US,graph,GC-11187" }, "geometry": { "type": "LineString", "coordinates": [ [ -71.3254661, 41.4768355 ], [ -71.325, 41.4770455 ] ] } },
{ "type": "Feature", "properties": { "RCID": 2291, "PRIM": 2, "GRUP": 2, "OBJL": 95, "RVER": 1, "AGEN": 550, "FIDN": 19157626, "FIDS": 8691, "LNAM": "02260124527A21F3", "SCAMIN": 44999, "SORDAT": "20140818", "SORIND": "US,US,graph,GC-11187" }, "geometry": { "type": "LineString", "coordinates": [ [ -71.3271977, 41.505712 ], [ -71.3271151, 41.505689 ], [ -71.3269927, 41.5056508 ] ] } },
{ "type": "Feature", "properties": { "RCID": 2292, "PRIM": 2, "GRUP": 2, "OBJL": 95, "RVER": 1, "AGEN": 550, "FIDN": 37396143, "FIDS": 8691, "LNAM": "0226023A9EAF21F3", "SCAMIN": 44999, "SORDAT": "20140818", "SORIND": "US,US,graph,GC-11187" }, "geometry": { "type": "LineString", "coordinates": [ [ -71.3269841, 41.5061511 ], [ -71.3269149, 41.5061363 ], [ -71.3266349, 41.5060599 ] ] } },
{ "type": "Feature", "properties": { "RCID": 2293, "PRIM": 2, "GRUP": 2, "OBJL": 95, "RVER": 1, "AGEN": 550, "FIDN": 293329798, "FIDS": 8691, "LNAM": "0226117BDB8621F3", "SCAMIN": 44999, "SORDAT": "20140818", "SORIND": "US,US,graph,GC-11187" }, "geometry": { "type": "LineString", "coordinates": [ [ -71.3272857, 41.5055326 ], [ -71.3255895, 41.5050519 ] ] } },
{ "type": "Feature", "properties": { "RCID": 2294, "PRIM": 2, "GRUP": 2, "OBJL": 95, "RVER": 1, "AGEN": 550, "FIDN": 694257201, "FIDS": 8691, "LNAM": "02262961863121F3", "SCAMIN": 44999, "SORDAT": "20140818", "SORIND": "US,US,graph,GC-11187" }, "geometry": { "type": "LineString", "coordinates": [ [ -71.3664301, 41.4949669 ], [ -71.3664162, 41.4950664 ], [ -71.3664006, 41.4952765 ] ] } },
{ "type": "Feature", "properties": { "RCID": 2295, "PRIM": 2, "GRUP": 2, "OBJL": 95, "RVER": 1, "AGEN": 550, "FIDN": 793102647, "FIDS": 8691, "LNAM": "02262F45C93721F3", "SCAMIN": 44999, "SORDAT": "20140818", "SORIND": "US,US,graph,GC-11187" }, "geometry": { "type": "LineString", "coordinates": [ [ -71.3660061, 41.4950751 ], [ -71.365801, 41.4950708 ] ] } },
{ "type": "Feature", "properties": { "RCID": 2296, "PRIM": 2, "GRUP": 2, "OBJL": 95, "RVER": 1, "AGEN": 550, "FIDN": 440109091, "FIDS": 8691, "LNAM": "02261A3B882321F3", "SCAMIN": 44999, "SORDAT": "20140818", "SORIND": "US,US,graph,GC-11187" }, "geometry": { "type": "LineString", "coordinates": [ [ -71.365765, 41.4963875 ], [ -71.3657775, 41.4962902 ], [ -71.3657777, 41.4962856 ], [ -71.3657788, 41.4962682 ], [ -71.3657833, 41.4961927 ], [ -71.3657841, 41.496178 ], [ -71.3657855, 41.4961554 ], [ -71.3657912, 41.4960593 ] ] } },
{ "type": "Feature", "properties": { "RCID": 2297, "PRIM": 2, "GRUP": 2, "OBJL": 95, "RVER": 1, "AGEN": 550, "FIDN": 273751313, "FIDS": 8691, "LNAM": "022610511D1121F3", "SCAMIN": 44999, "SORDAT": "20140818", "SORIND": "US,US,graph,GC-11187" }, "geometry": { "type": "LineString", "coordinates": [ [ -71.3659559, 41.496066 ], [ -71.3657912, 41.4960593 ], [ -71.3655528, 41.496042 ] ] } },
{ "type": "Feature", "properties": { "RCID": 2298, "PRIM": 2, "GRUP": 2, "OBJL": 95, "RVER": 1, "AGEN": 550, "FIDN": 919475123, "FIDS": 8691, "LNAM": "022636CE13B321F3", "SCAMIN": 44999, "SORDAT": "20140818", "SORIND": "US,US,graph,GC-11187" }, "geometry": { "type": "LineString", "coordinates": [ [ -71.3657898, 41.4952403 ], [ -71.3654584, 41.4952331 ] ] } },
{ "type": "Feature", "properties": { "RCID": 2299, "PRIM": 2, "GRUP": 2, "OBJL": 95, "RVER": 1, "AGEN": 550, "FIDN": 628822313, "FIDS": 8691, "LNAM": "0226257B112921F3", "SCAMIN": 44999, "SORDAT": "20140818", "SORIND": "US,US,graph,GC-11187" }, "geometry": { "type": "LineString", "coordinates": [ [ -71.3657363, 41.496385 ], [ -71.365445, 41.4964073 ], [ -71.3654017, 41.4964106 ] ] } },
{ "type": "Feature", "properties": { "RCID": 2300, "PRIM": 2, "GRUP": 2, "OBJL": 95, "RVER": 1, "AGEN": 550, "FIDN": 839305179, "FIDS": 8691, "LNAM": "02263206C7DB21F3", "SCAMIN": 44999, "SORDAT": "20140818", "SORIND": "US,US,graph,GC-11187" }, "geometry": { "type": "LineString", "coordinates": [ [ -71.3653543, 41.4957964 ], [ -71.365347, 41.4958594 ], [ -71.3651067, 41.4960048 ] ] } },
{ "type": "Feature", "properties": { "RCID": 2301, "PRIM": 2, "GRUP": 2, "OBJL": 95, "RVER": 1, "AGEN": 550, "FIDN": 985885927, "FIDS": 8691, "LNAM": "02263AC36CE721F3", "SCAMIN": 44999, "SORDAT": "20180505", "SORIND": "US,US,graph,GC-11431" }, "geometry": { "type": "LineString", "coordinates": [ [ -71.3344188, 41.4782573 ], [ -71.3344035, 41.4780819 ], [ -71.3345362, 41.4780784 ], [ -71.3348848, 41.4780597 ], [ -71.3349242, 41.4780572 ], [ -71.3350028, 41.478052 ], [ -71.3349977, 41.4779923 ] ] } },
{ "type": "Feature", "properties": { "RCID": 2302, "PRIM": 2, "GRUP": 2, "OBJL": 95, "RVER": 1, "AGEN": 550, "FIDN": 706737957, "FIDS": 8691, "LNAM": "02262A1FF72521F3", "SCAMIN": 44999, "SORDAT": "20140818", "SORIND": "US,US,graph,GC-11187" }, "geometry": { "type": "LineString", "coordinates": [ [ -71.3260889, 41.4893853 ], [ -71.3263094, 41.4894583 ] ] } },
{ "type": "Feature", "properties": { "RCID": 2303, "PRIM": 2, "GRUP": 2, "OBJL": 95, "RVER": 1, "AGEN": 550, "FIDN": 87623207, "FIDS": 8691, "LNAM": "02260539062721F3", "SCAMIN": 44999, "SORDAT": "20140818", "SORIND": "US,US,graph,GC-11187" }, "geometry": { "type": "LineString", "coordinates": [ [ -71.3265098, 41.4870769 ], [ -71.3255174, 41.4865837 ] ] } },
{ "type": "Feature", "properties": { "RCID": 2304, "PRIM": 2, "GRUP": 2, "OBJL": 95, "RVER": 1, "AGEN": 550, "FIDN": 117640303, "FIDS": 8691, "LNAM": "022607030C6F21F3", "SCAMIN": 44999, "SORDAT": "20140818", "SORIND": "US,US,graph,GC-11187" }, "geometry": { "type": "LineString", "coordinates": [ [ -71.3250144, 41.4762649 ], [ -71.325, 41.4762707 ] ] } },
{ "type": "Feature", "properties": { "RCID": 2305, "PRIM": 2, "GRUP": 2, "OBJL": 95, "RVER": 1, "AGEN": 550, "FIDN": 51280554, "FIDS": 8691, "LNAM": "0226030E7AAA21F3", "SCAMIN": 44999, "SORDAT": "20140818", "SORIND": "US,US,graph,GC-11187" }, "geometry": { "type": "LineString", "coordinates": [ [ -71.3858614, 41.4958546 ], [ -71.3858245, 41.4957476 ] ] } },
{ "type": "Feature", "properties": { "RCID": 2306, "PRIM": 2, "GRUP": 2, "OBJL": 95, "RVER": 1, "AGEN": 550, "FIDN": 569366860, "FIDS": 8691, "LNAM": "022621EFD94C21F3", "SCAMIN": 44999, "SORDAT": "20140818", "SORIND": "US,US,graph,GC-11187" }, "geometry": { "type": "LineString", "coordinates": [ [ -71.3657926, 41.4951972 ], [ -71.3660052, 41.4952028 ] ] } },
{ "type": "Feature", "properties": { "RCID": 2307, "PRIM": 2, "GRUP": 2, "OBJL": 95, "RVER": 1, "AGEN": 550, "FIDN": 828003682, "FIDS": 8691, "LNAM": "0226315A556221F3", "SCAMIN": 44999, "SORDAT": "20140818", "SORIND": "US,US,graph,GC-11187" }, "geometry": { "type": "LineString", "coordinates": [ [ -71.3632115, 41.4901613 ], [ -71.3631134, 41.4901622 ], [ -71.3630032, 41.4901668 ] ] } },
{ "type": "Feature", "properties": { "RCID": 2308, "PRIM": 2, "GRUP": 2, "OBJL": 95, "RVER": 1, "AGEN": 550, "FIDN": 197648894, "FIDS": 8691, "LNAM": "02260BC7E1FE21F3", "SCAMIN": 44999, "SORDAT": "20140818", "SORIND": "US,US,graph,GC-11187" }, "geometry": { "type": "LineString", "coordinates": [ [ -71.3625794, 41.488734 ], [ -71.3625735, 41.488735 ], [ -71.3624934, 41.4887462 ], [ -71.3623479, 41.4887645 ] ] } },
{ "type": "Feature", "properties": { "RCID": 2309, "PRIM": 2, "GRUP": 2, "OBJL": 95, "RVER": 1, "AGEN": 550, "FIDN": 708692596, "FIDS": 8691, "LNAM": "02262A3DCA7421F3", "SCAMIN": 44999, "SORDAT": "20140818", "SORIND": "US,US,graph,GC-11187" }, "geometry": { "type": "LineString", "coordinates": [ [ -71.3593695, 41.4828876 ], [ -71.3592037, 41.4829799 ] ] } },
{ "type": "Feature", "properties": { "RCID": 2310, "PRIM": 2, "GRUP": 2, "OBJL": 95, "RVER": 1, "AGEN": 550, "FIDN": 873298203, "FIDS": 8691, "LNAM": "0226340D791B21F3", "SCAMIN": 44999, "SORDAT": "20140818", "SORIND": "US,US,graph,GC-11187" }, "geometry": { "type": "LineString", "coordinates": [ [ -71.3264701, 41.4906786 ], [ -71.3264348, 41.4904887 ] ] } },
{ "type": "Feature", "properties": { "RCID": 2311, "PRIM": 2, "GRUP": 2, "OBJL": 95, "RVER": 1, "AGEN": 550, "FIDN": 46808920, "FIDS": 8691, "LNAM": "022602CA3F5821F3", "SCAMIN": 44999, "SORDAT": "20140818", "SORIND": "US,US,graph,GC-11187" }, "geometry": { "type": "LineString", "coordinates": [ [ -71.327408, 41.5052919 ], [ -71.3271991, 41.5052264 ] ] } },
{ "type": "Feature", "properties": { "RCID": 2312, "PRIM": 2, "GRUP": 2, "OBJL": 95, "RVER": 1, "AGEN": 550, "FIDN": 313075862, "FIDS": 8691, "LNAM": "022612A9289621F3", "SCAMIN": 44999, "SORDAT": "20140818", "SORIND": "US,US,graph,GC-11187" }, "geometry": { "type": "LineString", "coordinates": [ [ -71.3252695, 41.5056451 ], [ -71.3253069, 41.5055683 ], [ -71.3253335, 41.5055136 ], [ -71.3254003, 41.5053747 ] ] } },
{ "type": "Feature", "properties": { "RCID": 2313, "PRIM": 2, "GRUP": 2, "OBJL": 95, "RVER": 1, "AGEN": 550, "FIDN": 321601939, "FIDS": 8691, "LNAM": "0226132B419321F3", "SCAMIN": 44999, "SORDAT": "20140818", "SORIND": "US,US,graph,GC-11187" }, "geometry": { "type": "LineString", "coordinates": [ [ -71.3665845, 41.4961892 ], [ -71.3665917, 41.4961284 ], [ -71.3665897, 41.4960157 ] ] } },
{ "type": "Feature", "properties": { "RCID": 2314, "PRIM": 2, "GRUP": 2, "OBJL": 95, "RVER": 1, "AGEN": 550, "FIDN": 212061005, "FIDS": 8691, "LNAM": "02260CA3CB4D21F3", "SCAMIN": 44999, "SORDAT": "20140818", "SORIND": "US,US,graph,GC-11187" }, "geometry": { "type": "LineString", "coordinates": [ [ -71.3662197, 41.4964282 ], [ -71.3662405, 41.4962207 ], [ -71.3662642, 41.4960211 ] ] } },
{ "type": "Feature", "properties": { "RCID": 2315, "PRIM": 2, "GRUP": 2, "OBJL": 95, "RVER": 1, "AGEN": 550, "FIDN": 171928251, "FIDS": 8691, "LNAM": "02260A3F6ABB21F3", "SCAMIN": 44999, "SORDAT": "20140818", "SORIND": "US,US,graph,GC-11187" }, "geometry": { "type": "LineString", "coordinates": [ [ -71.3368775, 41.4808295 ], [ -71.3368706, 41.4810025 ], [ -71.3368759, 41.4810713 ], [ -71.3368743, 41.4814411 ] ] } },
{ "type": "Feature", "properties": { "RCID": 2316, "PRIM": 2, "GRUP": 2, "OBJL": 95, "RVER": 1, "AGEN": 550, "FIDN": 611301229, "FIDS": 8691, "LNAM": "0226246FB76D21F3", "SCAMIN": 44999, "SORDAT": "20140818", "SORIND": "US,US,graph,GC-11187" }, "geometry": { "type": "LineString", "coordinates": [ [ -71.3266106, 41.490736 ], [ -71.3265838, 41.4905943 ] ] } },
{ "type": "Feature", "properties": { "RCID": 2317, "PRIM": 2, "GRUP": 2, "OBJL": 95, "RVER": 1, "AGEN": 550, "FIDN": 957523462, "FIDS": 8691, "LNAM": "02263912A60621F3", "SCAMIN": 44999, "SORDAT": "20140818", "SORIND": "US,US,graph,GC-11187" }, "geometry": { "type": "LineString", "coordinates": [ [ -71.3263225, 41.4906125 ], [ -71.326282, 41.4904241 ] ] } },
{ "type": "Feature", "properties": { "RCID": 2318, "PRIM": 2, "GRUP": 2, "OBJL": 95, "RVER": 1, "AGEN": 550, "FIDN": 212625561, "FIDS": 8691, "LNAM": "02260CAC689921F3", "SCAMIN": 44999, "SORDAT": "20140818", "SORIND": "US,US,graph,GC-11187" }, "geometry": { "type": "LineString", "coordinates": [ [ -71.3255718, 41.4769691 ], [ -71.3257981, 41.4768611 ] ] } },
{ "type": "Feature", "properties": { "RCID": 2319, "PRIM": 2, "GRUP": 2, "OBJL": 95, "RVER": 1, "AGEN": 550, "FIDN": 233814362, "FIDS": 8691, "LNAM": "02260DEFB95A21F3", "SCAMIN": 44999, "SORDAT": "20140818", "SORIND": "US,US,graph,GC-11187" }, "geometry": { "type": "LineString", "coordinates": [ [ -71.326976, 41.5059754 ], [ -71.3253335, 41.5055136 ] ] } },
{ "type": "Feature", "properties": { "RCID": 2320, "PRIM": 2, "GRUP": 2, "OBJL": 95, "RVER": 1, "AGEN": 550, "FIDN": 271634348, "FIDS": 8691, "LNAM": "02261030CFAC21F3", "SCAMIN": 44999, "SORDAT": "20140818", "SORIND": "US,US,graph,GC-11187" }, "geometry": { "type": "LineString", "coordinates": [ [ -71.3252626, 41.5061215 ], [ -71.3253021, 41.5060378 ], [ -71.3253514, 41.5059335 ] ] } },
{ "type": "Feature", "properties": { "RCID": 2321, "PRIM": 2, "GRUP": 2, "OBJL": 95, "RVER": 1, "AGEN": 550, "FIDN": 63914838, "FIDS": 8691, "LNAM": "022603CF435621F3", "SCAMIN": 44999, "SORDAT": "20140818", "SORIND": "US,US,graph,GC-11187" }, "geometry": { "type": "LineString", "coordinates": [ [ -71.3661403, 41.496011 ], [ -71.3662642, 41.4960211 ], [ -71.3663451, 41.4960242 ] ] } },
{ "type": "Feature", "properties": { "RCID": 2322, "PRIM": 2, "GRUP": 2, "OBJL": 95, "RVER": 1, "AGEN": 550, "FIDN": 757322183, "FIDS": 8691, "LNAM": "02262D23D1C721F3", "SCAMIN": 44999, "SORDAT": "20140818", "SORIND": "US,US,graph,GC-11187" }, "geometry": { "type": "LineString", "coordinates": [ [ -71.3658004, 41.4950789 ], [ -71.3654715, 41.4950677 ] ] } },
{ "type": "Feature", "properties": { "RCID": 2323, "PRIM": 2, "GRUP": 2, "OBJL": 95, "RVER": 1, "AGEN": 550, "FIDN": 239831247, "FIDS": 8691, "LNAM": "02260E4B88CF21F3", "SCAMIN": 44999, "SORDAT": "20140818", "SORIND": "US,US,graph,GC-11187" }, "geometry": { "type": "LineString", "coordinates": [ [ -71.365032, 41.4949952 ], [ -71.3650145, 41.4950775 ], [ -71.3648335, 41.4955703 ] ] } },
{ "type": "Feature", "properties": { "RCID": 2324, "PRIM": 2, "GRUP": 2, "OBJL": 95, "RVER": 1, "AGEN": 550, "FIDN": 92431942, "FIDS": 8691, "LNAM": "02260582664621F3", "SCAMIN": 44999, "SORDAT": "20140818", "SORIND": "US,US,graph,GC-11187" }, "geometry": { "type": "LineString", "coordinates": [ [ -71.3574781, 41.4788456 ], [ -71.3574579, 41.478975 ], [ -71.3573973, 41.4793375 ] ] } },
{ "type": "Feature", "properties": { "RCID": 2325, "PRIM": 2, "GRUP": 2, "OBJL": 95, "RVER": 1, "AGEN": 550, "FIDN": 249168374, "FIDS": 8691, "LNAM": "02260EDA01F621F3", "SCAMIN": 44999, "SORDAT": "20140818", "SORIND": "US,US,graph,GC-11187" }, "geometry": { "type": "LineString", "coordinates": [ [ -71.3350509, 41.477096 ], [ -71.3350762, 41.4773415 ], [ -71.3350814, 41.4773919 ], [ -71.3351212, 41.4779474 ] ] } },
{ "type": "Feature", "properties": { "RCID": 2326, "PRIM": 2, "GRUP": 2, "OBJL": 95, "RVER": 1, "AGEN": 550, "FIDN": 12044024, "FIDS": 8691, "LNAM": "022600B7C6F821F3", "SCAMIN": 44999, "SORDAT": "20140818", "SORIND": "US,US,graph,GC-11187" }, "geometry": { "type": "LineString", "coordinates": [ [ -71.3348401, 41.4774011 ], [ -71.3348357, 41.4773507 ], [ -71.3348142, 41.4771029 ] ] } },
{ "type": "Feature", "properties": { "RCID": 2327, "PRIM": 2, "GRUP": 2, "OBJL": 95, "RVER": 1, "AGEN": 550, "FIDN": 869532842, "FIDS": 8691, "LNAM": "022633D404AA21F3", "SCAMIN": 44999, "SORDAT": "20180505", "SORIND": "US,US,graph,GC-11431" }, "geometry": { "type": "LineString", "coordinates": [ [ -71.334549, 41.4782511 ], [ -71.3345362, 41.4780784 ] ] } },
{ "type": "Feature", "properties": { "RCID": 2328, "PRIM": 2, "GRUP": 2, "OBJL": 95, "RVER": 1, "AGEN": 550, "FIDN": 961390701, "FIDS": 8691, "LNAM": "0226394DA86D21F3", "SCAMIN": 44999, "SORDAT": "20140818", "SORIND": "US,US,graph,GC-11187" }, "geometry": { "type": "LineString", "coordinates": [ [ -71.3258179, 41.4898397 ], [ -71.3261744, 41.4899608 ] ] } },
{ "type": "Feature", "properties": { "RCID": 2329, "PRIM": 2, "GRUP": 2, "OBJL": 95, "RVER": 1, "AGEN": 550, "FIDN": 730190867, "FIDS": 8691, "LNAM": "02262B85D41321F3", "SCAMIN": 44999, "SORDAT": "20140818", "SORIND": "US,US,graph,GC-11187" }, "geometry": { "type": "LineString", "coordinates": [ [ -71.3859157, 41.4958939 ], [ -71.3861545, 41.4957777 ] ] } },
{ "type": "Feature", "properties": { "RCID": 2330, "PRIM": 2, "GRUP": 2, "OBJL": 95, "RVER": 1, "AGEN": 550, "FIDN": 433250393, "FIDS": 8691, "LNAM": "022619D2E05921F3", "SCAMIN": 44999, "SORDAT": "20140818", "SORIND": "US,US,graph,GC-11187" }, "geometry": { "type": "LineString", "coordinates": [ [ -71.3658094, 41.4949441 ], [ -71.365801, 41.4950708 ], [ -71.3658004, 41.4950789 ], [ -71.3657926, 41.4951972 ], [ -71.3657898, 41.4952403 ], [ -71.3657847, 41.4953179 ], [ -71.3657797, 41.4953927 ], [ -71.3657767, 41.4954375 ], [ -71.3657699, 41.4955409 ], [ -71.3651371, 41.4955002 ] ] } },
{ "type": "Feature", "properties": { "RCID": 2331, "PRIM": 2, "GRUP": 2, "OBJL": 95, "RVER": 1, "AGEN": 550, "FIDN": 206744204, "FIDS": 8691, "LNAM": "02260C52AA8C21F3", "SCAMIN": 44999, "SORDAT": "20140818", "SORIND": "US,US,graph,GC-11187" }, "geometry": { "type": "LineString", "coordinates": [ [ -71.3625536, 41.488454 ], [ -71.3624584, 41.4884598 ], [ -71.3623685, 41.488467 ] ] } },
{ "type": "Feature", "properties": { "RCID": 2332, "PRIM": 2, "GRUP": 2, "OBJL": 95, "RVER": 1, "AGEN": 550, "FIDN": 661638700, "FIDS": 8691, "LNAM": "0226276FCE2C21F3", "SCAMIN": 44999, "SORDAT": "20140818", "SORIND": "US,US,graph,GC-11187" }, "geometry": { "type": "LineString", "coordinates": [ [ -71.3261658, 41.4905463 ], [ -71.3261205, 41.4903874 ] ] } },
{ "type": "Feature", "properties": { "RCID": 2333, "PRIM": 2, "GRUP": 2, "OBJL": 95, "RVER": 1, "AGEN": 550, "FIDN": 429490780, "FIDS": 8691, "LNAM": "02261999825C21F3", "SCAMIN": 44999, "SORDAT": "20140818", "SORIND": "US,US,graph,GC-11187" }, "geometry": { "type": "LineString", "coordinates": [ [ -71.3255218, 41.505168 ], [ -71.3255895, 41.5050519 ], [ -71.3256372, 41.5049401 ] ] } },
{ "type": "Feature", "properties": { "RCID": 2334, "PRIM": 2, "GRUP": 2, "OBJL": 95, "RVER": 1, "AGEN": 550, "FIDN": 339551554, "FIDS": 8691, "LNAM": "0226143D254221F3", "SCAMIN": 44999, "SORDAT": "20140818", "SORIND": "US,US,graph,GC-11187" }, "geometry": { "type": "LineString", "coordinates": [ [ -71.3268211, 41.5064651 ], [ -71.3253021, 41.5060378 ] ] } },
{ "type": "Feature", "properties": { "RCID": 2335, "PRIM": 2, "GRUP": 2, "OBJL": 95, "RVER": 1, "AGEN": 550, "FIDN": 247402190, "FIDS": 8691, "LNAM": "02260EBF0ECE21F3", "SCAMIN": 44999, "SORDAT": "20140818", "SORIND": "US,US,graph,GC-11187" }, "geometry": { "type": "LineString", "coordinates": [ [ -71.3616009, 41.5015559 ], [ -71.361523, 41.5014909 ], [ -71.3612719, 41.5012745 ] ] } },
{ "type": "Feature", "properties": { "RCID": 2336, "PRIM": 2, "GRUP": 2, "OBJL": 95, "RVER": 1, "AGEN": 550, "FIDN": 816912468, "FIDS": 8691, "LNAM": "022630B1185421F3", "SCAMIN": 44999, "SORDAT": "20180505", "SORIND": "US,US,graph,GC-11431" }, "geometry": { "type": "LineString", "coordinates": [ [ -71.334907, 41.4783474 ], [ -71.3348848, 41.4780597 ] ] } },
{ "type": "Feature", "properties": { "RCID": 2337, "PRIM": 2, "GRUP": 2, "OBJL": 95, "RVER": 1, "AGEN": 550, "FIDN": 433071591, "FIDS": 8691, "LNAM": "022619D025E721F3", "SCAMIN": 44999, "SORDAT": "20140818", "SORIND": "US,US,graph,GC-11187" }, "geometry": { "type": "LineString", "coordinates": [ [ -71.3269391, 41.4904745 ], [ -71.3267473, 41.4904166 ] ] } },
{ "type": "Feature", "properties": { "RCID": 2338, "PRIM": 2, "GRUP": 2, "OBJL": 95, "RVER": 1, "AGEN": 550, "FIDN": 504533936, "FIDS": 8691, "LNAM": "02261E1293B021F3", "SCAMIN": 44999, "SORDAT": "20140818", "SORIND": "US,US,graph,GC-11187" }, "geometry": { "type": "LineString", "coordinates": [ [ -71.3260139, 41.4895181 ], [ -71.3262312, 41.4895877 ] ] } },
{ "type": "Feature", "properties": { "RCID": 2339, "PRIM": 2, "GRUP": 2, "OBJL": 95, "RVER": 1, "AGEN": 550, "FIDN": 134492915, "FIDS": 8691, "LNAM": "0226080432F321F3", "SCAMIN": 44999, "SORDAT": "20140818", "SORIND": "US,US,graph,GC-11187" }, "geometry": { "type": "LineString", "coordinates": [ [ -71.3259262, 41.4896702 ], [ -71.3262052, 41.4897627 ] ] } },
{ "type": "Feature", "properties": { "RCID": 2340, "PRIM": 2, "GRUP": 2, "OBJL": 95, "RVER": 1, "AGEN": 550, "FIDN": 809999755, "FIDS": 8691, "LNAM": "022630479D8B21F3", "SCAMIN": 44999, "SORDAT": "20140818", "SORIND": "US,US,graph,GC-11187" }, "geometry": { "type": "LineString", "coordinates": [ [ -71.3664988, 41.4956295 ], [ -71.3663854, 41.4955758 ], [ -71.3662021, 41.4954854 ] ] } },
{ "type": "Feature", "properties": { "RCID": 2341, "PRIM": 2, "GRUP": 2, "OBJL": 95, "RVER": 1, "AGEN": 550, "FIDN": 822859696, "FIDS": 8691, "LNAM": "0226310BD7B021F3", "SCAMIN": 44999, "SORDAT": "20140818", "SORIND": "US,US,graph,GC-11187" }, "geometry": { "type": "LineString", "coordinates": [ [ -71.3657767, 41.4954375 ], [ -71.365976, 41.4954433 ] ] } },
{ "type": "Feature", "properties": { "RCID": 2342, "PRIM": 2, "GRUP": 2, "OBJL": 95, "RVER": 1, "AGEN": 550, "FIDN": 595231325, "FIDS": 8691, "LNAM": "0226237A825D21F3", "SCAMIN": 44999, "SORDAT": "20140818", "SORIND": "US,US,graph,GC-11187" }, "geometry": { "type": "LineString", "coordinates": [ [ -71.3594388, 41.4829846 ], [ -71.3592827, 41.4830738 ] ] } },
{ "type": "Feature", "properties": { "RCID": 2343, "PRIM": 2, "GRUP": 2, "OBJL": 95, "RVER": 1, "AGEN": 550, "FIDN": 374478278, "FIDS": 8691, "LNAM": "0226165215C621F3", "SCAMIN": 44999, "SORDAT": "20140818", "SORIND": "US,US,graph,GC-11187" }, "geometry": { "type": "LineString", "coordinates": [ [ -71.3368759, 41.4810713 ], [ -71.3370778, 41.4810715 ], [ -71.3375927, 41.4810712 ] ] } },
{ "type": "Feature", "properties": { "RCID": 2344, "PRIM": 2, "GRUP": 2, "OBJL": 95, "RVER": 1, "AGEN": 550, "FIDN": 223739042, "FIDS": 8691, "LNAM": "02260D55FCA221F3", "SCAMIN": 44999, "SORDAT": "20140818", "SORIND": "US,US,graph,GC-11187" }, "geometry": { "type": "LineString", "coordinates": [ [ -71.3348269, 41.4774016 ], [ -71.3348584, 41.4777002 ] ] } },
{ "type": "Feature", "properties": { "RCID": 2345, "PRIM": 2, "GRUP": 2, "OBJL": 95, "RVER": 1, "AGEN": 550, "FIDN": 954665067, "FIDS": 8691, "LNAM": "022638E7086B21F3", "SCAMIN": 44999, "SORDAT": "20140818", "SORIND": "US,US,graph,GC-11187" }, "geometry": { "type": "LineString", "coordinates": [ [ -71.3261606, 41.4878011 ], [ -71.3255862, 41.488812 ] ] } },
{ "type": "Feature", "properties": { "RCID": 2346, "PRIM": 2, "GRUP": 2, "OBJL": 95, "RVER": 1, "AGEN": 550, "FIDN": 412297808, "FIDS": 8691, "LNAM": "022618932A5021F3", "SCAMIN": 44999, "SORDAT": "20140818", "SORIND": "US,US,graph,GC-11187" }, "geometry": { "type": "LineString", "coordinates": [ [ -71.3253677, 41.4767112 ], [ -71.3255821, 41.476613 ] ] } }
]
}
