{
"type": "FeatureCollection",
"name": "RECTRC",
"crs": { "type": "name", "properties": { "name": "urn:ogc:def:crs:OGC:1.3:CRS84" } },
"features": [
{ "type": "Feature", "properties": { "RCID": 2548, "PRIM": 3, "GRUP": 2, "OBJL": 109, "RVER": 1, "AGEN": 550, "FIDN": 579171546, "FIDS": 8691, "LNAM": "0226228574DA21F3", "CATTRK": 2, "OBJNAM": "Rhode Island Sound to Narragansett Bay", "TRAFIC": 4, "INFORM": "Recommended vessel routes", "SCAMIN": 59999, "TXTDSC": "US412DDC.TXT", "SORDAT": "200504", "SORIND": "US,US,graph,Chart 13223" }, "geometry": { "type": "Polygon", "coordinates": [ [ [ -71.3503533, 41.475 ], [ -71.3470983, 41.4770599 ], [ -71.3470326, 41.4771016 ], [ -71.3436995, 41.4792191 ], [ -71.3432141, 41.4795274 ], [ -71.3434317, 41.481196 ], [ -71.3435315, 41.4819609 ], [ -71.3466995, 41.5044453 ], [ -71.3467255, 41.5046361 ], [ -71.3467528, 41.5048361 ], [ -71.3462988, 41.5055284 ], [ -71.3403051, 41.5146676 ], [ -71.3391277, 41.5164629 ], [ -71.3379929, 41.5181933 ], [ -71.3364491, 41.5205472 ], [ -71.3330742, 41.5256933 ], [ -71.3321122, 41.5271601 ], [ -71.3314155, 41.5282224 ], [ -71.3294813, 41.5326766 ], [ -71.3284562, 41.5350373 ], [ -71.3261214, 41.5404137 ], [ -71.325, 41.5429961 ], [ -71.325, 41.543724 ], [ -71.325, 41.55 ], [ -71.3254601, 41.55 ], [ -71.330226, 41.5396217 ], [ -71.3328902, 41.5338201 ], [ -71.3334627, 41.5325733 ], [ -71.3344027, 41.5305264 ], [ -71.3349048, 41.529433 ], [ -71.3352136, 41.5289624 ], [ -71.3383829, 41.5241326 ], [ -71.3406749, 41.5206397 ], [ -71.3454115, 41.5134217 ], [ -71.3462218, 41.5121868 ], [ -71.3473343, 41.5104914 ], [ -71.3475924, 41.5131431 ], [ -71.3476642, 41.5138727 ], [ -71.3480832, 41.5181272 ], [ -71.3489582, 41.5270129 ], [ -71.3489994, 41.527431 ], [ -71.3490166, 41.5276061 ], [ -71.3491059, 41.5285053 ], [ -71.3491092, 41.5285387 ], [ -71.3491671, 41.5291343 ], [ -71.3491782, 41.5292469 ], [ -71.3491893, 41.5293598 ], [ -71.3495253, 41.5327508 ], [ -71.3496243, 41.5337506 ], [ -71.3497585, 41.5351216 ], [ -71.3500586, 41.5381872 ], [ -71.3505408, 41.5433991 ], [ -71.3511514, 41.55 ], [ -71.3537382, 41.55 ], [ -71.3549942, 41.55 ], [ -71.354862, 41.5485734 ], [ -71.3548308, 41.5482378 ], [ -71.3546372, 41.5461493 ], [ -71.3542609, 41.5422384 ], [ -71.3542164, 41.5417763 ], [ -71.3541968, 41.5415722 ], [ -71.3539691, 41.5392064 ], [ -71.3537389, 41.5368139 ], [ -71.3536671, 41.5360947 ], [ -71.3534368, 41.5337894 ], [ -71.3533357, 41.5327776 ], [ -71.3519018, 41.5184223 ], [ -71.3516012, 41.5152955 ], [ -71.351049, 41.5095524 ], [ -71.3509188, 41.508441 ], [ -71.3509022, 41.5082842 ], [ -71.3506108, 41.5055249 ], [ -71.3505914, 41.5053188 ], [ -71.3502973, 41.5025343 ], [ -71.3473762, 41.4818075 ], [ -71.3472399, 41.4807491 ], [ -71.3481612, 41.4801668 ], [ -71.3494026, 41.4793821 ], [ -71.3505686, 41.4786452 ], [ -71.3506247, 41.4786097 ], [ -71.355155, 41.4757392 ], [ -71.3563217, 41.475 ], [ -71.3535798, 41.475 ], [ -71.3503533, 41.475 ] ] ] } }
]
}
