{
"type": "FeatureCollection",
"name": "RIVERS",
"crs": { "type": "name", "properties": { "name": "urn:ogc:def:crs:OGC:1.3:CRS84" } },
"features": [
{ "type": "Feature", "properties": { "RCID": 1313, "PRIM": 3, "GRUP": 2, "OBJL": 114, "RVER": 1, "AGEN": 550, "FIDN": 687567054, "FIDS": 8691, "LNAM": "022628FB70CE21F3", "SCAMIN": 89999 }, "geometry": { "type": "Polygon", "coordinates": [ [ [ -71.3748355, 41.5069968 ], [ -71.3748334, 41.5068977 ], [ -71.374822, 41.5068978 ], [ -71.3746909, 41.5068995 ], [ -71.3746765, 41.5068997 ], [ -71.374666, 41.5068998 ], [ -71.3745257, 41.5067958 ], [ -71.3745049, 41.5067804 ], [ -71.3744681, 41.5067531 ], [ -71.3742679, 41.5067633 ], [ -71.3741176, 41.506867 ], [ -71.3741121, 41.506992 ], [ -71.3742379, 41.5071631 ], [ -71.3743502, 41.5075732 ], [ -71.3743523, 41.5076804 ], [ -71.374228, 41.5076924 ], [ -71.3741467, 41.5074688 ], [ -71.3740017, 41.5075523 ], [ -71.3737783, 41.5076842 ], [ -71.3735433, 41.5076475 ], [ -71.3736749, 41.507542 ], [ -71.3737148, 41.5075099 ], [ -71.3738081, 41.5075737 ], [ -71.37394, 41.5073766 ], [ -71.3738987, 41.5072524 ], [ -71.3731671, 41.5072522 ], [ -71.3726124, 41.50744 ], [ -71.3725545, 41.5073357 ], [ -71.3724219, 41.5075044 ], [ -71.3722628, 41.5075354 ], [ -71.3723471, 41.507618 ], [ -71.3722766, 41.5077282 ], [ -71.371406, 41.5084624 ], [ -71.3713366, 41.5086825 ], [ -71.371037, 41.5089622 ], [ -71.3705967, 41.5091526 ], [ -71.3702558, 41.5089838 ], [ -71.3702312, 41.5090689 ], [ -71.3703504, 41.5091335 ], [ -71.3705949, 41.5092647 ], [ -71.3710594, 41.5090573 ], [ -71.3719802, 41.5082916 ], [ -71.3723835, 41.5080512 ], [ -71.372862, 41.5080199 ], [ -71.3727118, 41.508174 ], [ -71.3723973, 41.508345 ], [ -71.372191, 41.5086072 ], [ -71.3721669, 41.5088499 ], [ -71.3719428, 41.5091565 ], [ -71.3716269, 41.5093309 ], [ -71.3716222, 41.5093851 ], [ -71.3716206, 41.5094043 ], [ -71.3717608, 41.5094678 ], [ -71.3721382, 41.5093372 ], [ -71.3722993, 41.5091514 ], [ -71.3727501, 41.5090182 ], [ -71.3730205, 41.5089946 ], [ -71.3731791, 41.5091085 ], [ -71.3733844, 41.5091076 ], [ -71.3738603, 41.5088409 ], [ -71.3739768, 41.5088723 ], [ -71.3740221, 41.5090032 ], [ -71.374045, 41.5088529 ], [ -71.3743011, 41.5087642 ], [ -71.3745117, 41.5084985 ], [ -71.3746648, 41.5084311 ], [ -71.3746669, 41.5070861 ], [ -71.3746534, 41.5070063 ], [ -71.3746721, 41.5070053 ], [ -71.3746931, 41.5070042 ], [ -71.3747295, 41.5070023 ], [ -71.3748234, 41.5069974 ], [ -71.3748355, 41.5069968 ] ] ] } },
{ "type": "Feature", "properties": { "RCID": 1357, "PRIM": 2, "GRUP": 2, "OBJL": 114, "RVER": 1, "AGEN": 550, "FIDN": 687938621, "FIDS": 8691, "LNAM": "022629011C3D21F3", "SCAMIN": 29999, "SORDAT": "20140818", "SORIND": "US,US,graph,GC-11187" }, "geometry": { "type": "LineString", "coordinates": [ [ -71.3724634, 41.5081047 ], [ -71.3726447, 41.5081021 ], [ -71.3727118, 41.508174 ] ] } },
{ "type": "Feature", "properties": { "RCID": 1358, "PRIM": 2, "GRUP": 2, "OBJL": 114, "RVER": 1, "AGEN": 550, "FIDN": 99828143, "FIDS": 8691, "LNAM": "022605F341AF21F3", "SCAMIN": 29999, "SORDAT": "20050620", "SORIND": "US,US,graph,GC-10585" }, "geometry": { "type": "LineString", "coordinates": [ [ -71.3700228, 41.5091464 ], [ -71.3699438, 41.5091959 ], [ -71.3699351, 41.5092638 ], [ -71.3699812, 41.5093107 ], [ -71.3700109, 41.5093605 ], [ -71.3700148, 41.5094442 ], [ -71.3700943, 41.5095204 ], [ -71.3701941, 41.5095689 ], [ -71.3701939, 41.5096178 ], [ -71.3701731, 41.5096876 ], [ -71.3701381, 41.5097722 ], [ -71.3700674, 41.5098845 ], [ -71.3700751, 41.5099369 ], [ -71.3700722, 41.5099888 ], [ -71.3700735, 41.5100641 ], [ -71.3701076, 41.5101313 ], [ -71.370087, 41.5102092 ], [ -71.3700854, 41.5103042 ], [ -71.3701123, 41.5103507 ], [ -71.370127, 41.5104285 ], [ -71.37013, 41.5104921 ], [ -71.3701848, 41.510535 ], [ -71.3702279, 41.5106005 ], [ -71.3702557, 41.5106538 ], [ -71.3702178, 41.5107144 ], [ -71.3702064, 41.5107537 ], [ -71.3702404, 41.5107951 ], [ -71.3702986, 41.5108016 ], [ -71.3703399, 41.5108338 ], [ -71.370343, 41.5108791 ], [ -71.3703253, 41.5109102 ], [ -71.3703001, 41.5109429 ], [ -71.3702873, 41.5109639 ] ] } },
{ "type": "Feature", "properties": { "RCID": 1359, "PRIM": 2, "GRUP": 2, "OBJL": 114, "RVER": 1, "AGEN": 550, "FIDN": 405212159, "FIDS": 8691, "LNAM": "022618270BFF21F3", "SCAMIN": 29999, "SORDAT": "20140818", "SORIND": "US,US,graph,GC-11187" }, "geometry": { "type": "LineString", "coordinates": [ [ -71.3700228, 41.5091464 ], [ -71.3702312, 41.5090689 ] ] } },
{ "type": "Feature", "properties": { "RCID": 1360, "PRIM": 2, "GRUP": 2, "OBJL": 114, "RVER": 1, "AGEN": 550, "FIDN": 196819586, "FIDS": 8691, "LNAM": "02260BBB3A8221F3", "SCAMIN": 29999, "SORDAT": "20140818", "SORIND": "US,US,graph,GC-11187" }, "geometry": { "type": "LineString", "coordinates": [ [ -71.3812883, 41.4928968 ], [ -71.3812798, 41.4926652 ] ] } },
{ "type": "Feature", "properties": { "RCID": 1361, "PRIM": 2, "GRUP": 2, "OBJL": 114, "RVER": 1, "AGEN": 550, "FIDN": 196434377, "FIDS": 8691, "LNAM": "02260BB559C921F3", "SCAMIN": 29999, "SORDAT": "20140818", "SORIND": "US,US,graph,GC-11187" }, "geometry": { "type": "LineString", "coordinates": [ [ -71.3866565, 41.4895478 ], [ -71.3870874, 41.4894147 ] ] } },
{ "type": "Feature", "properties": { "RCID": 1362, "PRIM": 2, "GRUP": 2, "OBJL": 114, "RVER": 1, "AGEN": 550, "FIDN": 110657619, "FIDS": 8691, "LNAM": "02260698805321F3", "SCAMIN": 29999, "SORDAT": "20050620", "SORIND": "US,US,graph,GC-10585" }, "geometry": { "type": "LineString", "coordinates": [ [ -71.3942816, 41.4911001 ], [ -71.3941359, 41.4910063 ], [ -71.3939942, 41.4909115 ], [ -71.393869, 41.4909191 ], [ -71.3936994, 41.490951 ], [ -71.3935788, 41.4910078 ], [ -71.3935335, 41.4910463 ], [ -71.3934212, 41.4910539 ], [ -71.3932972, 41.4910339 ], [ -71.3930354, 41.4912141 ], [ -71.3929282, 41.4913086 ], [ -71.3928624, 41.4913321 ], [ -71.3928002, 41.4913274 ], [ -71.3927682, 41.4912796 ], [ -71.3928025, 41.4911234 ], [ -71.3928067, 41.4910377 ], [ -71.3926625, 41.4909396 ] ] } },
{ "type": "Feature", "properties": { "RCID": 1363, "PRIM": 2, "GRUP": 2, "OBJL": 114, "RVER": 1, "AGEN": 550, "FIDN": 288811313, "FIDS": 8691, "LNAM": "02261136E93121F3", "SCAMIN": 29999, "SORDAT": "200504", "SORIND": "US,US,graph,Chart 13223" }, "geometry": { "type": "LineString", "coordinates": [ [ -71.3854426, 41.5401155 ], [ -71.3849549, 41.540213 ], [ -71.3845405, 41.5402535 ], [ -71.3843262, 41.5402625 ], [ -71.3842076, 41.5402751 ] ] } },
{ "type": "Feature", "properties": { "RCID": 1364, "PRIM": 2, "GRUP": 2, "OBJL": 114, "RVER": 1, "AGEN": 550, "FIDN": 216762562, "FIDS": 8691, "LNAM": "02260CEB88C221F3", "SCAMIN": 29999, "SORDAT": "200504", "SORIND": "US,US,graph,Chart 13223" }, "geometry": { "type": "LineString", "coordinates": [ [ -71.3914631, 41.5267972 ], [ -71.3912355, 41.5267269 ], [ -71.3911432, 41.5267143 ], [ -71.3910343, 41.5266954 ], [ -71.3908834, 41.5266558 ], [ -71.3908342, 41.5266504 ], [ -71.3906175, 41.5266423 ], [ -71.3904965, 41.5266459 ] ] } },
{ "type": "Feature", "properties": { "RCID": 1365, "PRIM": 2, "GRUP": 2, "OBJL": 114, "RVER": 1, "AGEN": 550, "FIDN": 502991975, "FIDS": 8691, "LNAM": "02261DFB0C6721F3", "SCAMIN": 29999, "SORDAT": "20140818", "SORIND": "US,US,graph,GC-11187" }, "geometry": { "type": "LineString", "coordinates": [ [ -71.3865172, 41.4904806 ], [ -71.3866712, 41.4906689 ] ] } },
{ "type": "Feature", "properties": { "RCID": 1366, "PRIM": 2, "GRUP": 2, "OBJL": 114, "RVER": 1, "AGEN": 550, "FIDN": 206055781, "FIDS": 8691, "LNAM": "02260C48296521F3", "SCAMIN": 29999, "SORDAT": "20140818", "SORIND": "US,US,graph,GC-11187" }, "geometry": { "type": "LineString", "coordinates": [ [ -71.3722666, 41.5098134 ], [ -71.3722013, 41.5099556 ], [ -71.3719517, 41.5100171 ], [ -71.3717608, 41.5094678 ] ] } },
{ "type": "Feature", "properties": { "RCID": 1367, "PRIM": 2, "GRUP": 2, "OBJL": 114, "RVER": 1, "AGEN": 550, "FIDN": 719949155, "FIDS": 8691, "LNAM": "02262AE98D6321F3", "SCAMIN": 29999, "SORDAT": "200504", "SORIND": "US,US,graph,Chart 13223" }, "geometry": { "type": "LineString", "coordinates": [ [ -71.3959664, 41.4897783 ], [ -71.395678, 41.4897211 ], [ -71.3955298, 41.4896911 ], [ -71.3954053, 41.489665 ] ] } },
{ "type": "Feature", "properties": { "RCID": 1368, "PRIM": 2, "GRUP": 2, "OBJL": 114, "RVER": 1, "AGEN": 550, "FIDN": 186825322, "FIDS": 8691, "LNAM": "02260B22BA6A21F3", "SCAMIN": 29999, "SORDAT": "20140818", "SORIND": "US,US,graph,GC-11187" }, "geometry": { "type": "LineString", "coordinates": [ [ -71.3640653, 41.4772998 ], [ -71.3642014, 41.4770097 ] ] } },
{ "type": "Feature", "properties": { "RCID": 1369, "PRIM": 2, "GRUP": 2, "OBJL": 114, "RVER": 1, "AGEN": 550, "FIDN": 111967797, "FIDS": 8691, "LNAM": "022606AC7E3521F3", "SCAMIN": 29999, "SORDAT": "20140818", "SORIND": "US,US,graph,GC-11187" }, "geometry": { "type": "LineString", "coordinates": [ [ -71.3713954, 41.5101322 ], [ -71.3712307, 41.510139 ], [ -71.3711447, 41.5100405 ], [ -71.3708725, 41.5100574 ], [ -71.3707608, 41.5098715 ], [ -71.3708002, 41.5095947 ], [ -71.3705448, 41.5094952 ], [ -71.3709666, 41.509473 ], [ -71.3710349, 41.5093724 ], [ -71.3714022, 41.5092927 ], [ -71.3716269, 41.5093309 ] ] } },
{ "type": "Feature", "properties": { "RCID": 1370, "PRIM": 2, "GRUP": 2, "OBJL": 114, "RVER": 1, "AGEN": 550, "FIDN": 304901942, "FIDS": 8691, "LNAM": "0226122C6F3621F3", "SCAMIN": 29999, "SORDAT": "20050620", "SORIND": "US,US,graph,GC-10585" }, "geometry": { "type": "LineString", "coordinates": [ [ -71.394774, 41.4905204 ], [ -71.3945237, 41.490327 ], [ -71.394372, 41.4902069 ], [ -71.3942655, 41.4900718 ], [ -71.394191, 41.4899597 ], [ -71.3941832, 41.489901 ], [ -71.3942093, 41.4898456 ], [ -71.3942, 41.4898457 ], [ -71.3936028, 41.4899479 ], [ -71.3933662, 41.4898988 ] ] } },
{ "type": "Feature", "properties": { "RCID": 1371, "PRIM": 2, "GRUP": 2, "OBJL": 114, "RVER": 1, "AGEN": 550, "FIDN": 808222522, "FIDS": 8691, "LNAM": "0226302C7F3A21F3", "SCAMIN": 29999, "SORDAT": "200504", "SORIND": "US,US,graph,Chart 13223" }, "geometry": { "type": "LineString", "coordinates": [ [ -71.3942, 41.4898457 ], [ -71.3947405, 41.4897099 ], [ -71.3951059, 41.4894794 ], [ -71.3958719, 41.489414 ], [ -71.395955, 41.4892133 ], [ -71.3962905, 41.4889587 ], [ -71.3965485, 41.4888666 ] ] } },
{ "type": "Feature", "properties": { "RCID": 1372, "PRIM": 2, "GRUP": 2, "OBJL": 114, "RVER": 1, "AGEN": 550, "FIDN": 391622830, "FIDS": 8691, "LNAM": "02261757B0AE21F3", "SCAMIN": 29999, "SORDAT": "20140818", "SORIND": "US,US,graph,GC-11187" }, "geometry": { "type": "LineString", "coordinates": [ [ -71.3806605, 41.4926711 ], [ -71.3807319, 41.4924309 ] ] } },
{ "type": "Feature", "properties": { "RCID": 1373, "PRIM": 2, "GRUP": 2, "OBJL": 114, "RVER": 1, "AGEN": 550, "FIDN": 457617136, "FIDS": 8691, "LNAM": "02261B46AEF021F3", "SCAMIN": 29999, "SORDAT": "20140818", "SORIND": "US,US,graph,GC-11187" }, "geometry": { "type": "LineString", "coordinates": [ [ -71.3827677, 41.5089261 ], [ -71.383187, 41.5095199 ], [ -71.3834998, 41.5097204 ], [ -71.3835161, 41.5099695 ], [ -71.3833478, 41.5099865 ], [ -71.3832716, 41.510259 ], [ -71.3829692, 41.5103742 ], [ -71.3826342, 41.5107107 ], [ -71.3825187, 41.5106951 ] ] } },
{ "type": "Feature", "properties": { "RCID": 1374, "PRIM": 2, "GRUP": 2, "OBJL": 114, "RVER": 1, "AGEN": 550, "FIDN": 667601141, "FIDS": 8691, "LNAM": "022627CAC8F521F3", "SCAMIN": 29999, "SORDAT": "200504", "SORIND": "US,US,graph,Chart 13223" }, "geometry": { "type": "LineString", "coordinates": [ [ -71.3780325, 41.4825575 ], [ -71.3778504, 41.4825986 ], [ -71.3777582, 41.4826337 ], [ -71.3775762, 41.4827157 ], [ -71.3774684, 41.482758 ], [ -71.3773738, 41.4827868 ], [ -71.3771474, 41.4828256 ] ] } },
{ "type": "Feature", "properties": { "RCID": 1375, "PRIM": 2, "GRUP": 2, "OBJL": 114, "RVER": 1, "AGEN": 550, "FIDN": 380839274, "FIDS": 8691, "LNAM": "022616B3256A21F3", "SCAMIN": 29999, "SORDAT": "20140818", "SORIND": "US,US,graph,GC-11187" }, "geometry": { "type": "LineString", "coordinates": [ [ -71.3833555, 41.4931518 ], [ -71.3832259, 41.493111 ], [ -71.3831544, 41.4926705 ] ] } },
{ "type": "Feature", "properties": { "RCID": 1376, "PRIM": 2, "GRUP": 2, "OBJL": 114, "RVER": 1, "AGEN": 550, "FIDN": 335471705, "FIDS": 8691, "LNAM": "022613FEE45921F3", "SCAMIN": 29999, "SORDAT": "200504", "SORIND": "US,US,graph,Chart 13223" }, "geometry": { "type": "LineString", "coordinates": [ [ -71.3618125, 41.4794167 ], [ -71.3618569, 41.47944 ], [ -71.3619066, 41.4794561 ], [ -71.3619515, 41.4794706 ], [ -71.3620102, 41.4795022 ], [ -71.3620221, 41.4795112 ], [ -71.3620808, 41.4795994 ], [ -71.3621395, 41.4796634 ], [ -71.3622269, 41.4797363 ] ] } },
{ "type": "Feature", "properties": { "RCID": 1377, "PRIM": 2, "GRUP": 2, "OBJL": 114, "RVER": 1, "AGEN": 550, "FIDN": 719677383, "FIDS": 8691, "LNAM": "02262AE567C721F3", "SCAMIN": 29999, "SORDAT": "20050620", "SORIND": "US,US,graph,GC-10585" }, "geometry": { "type": "LineString", "coordinates": [ [ -71.3716222, 41.5093851 ], [ -71.3715973, 41.5093745 ], [ -71.3715236, 41.5093433 ], [ -71.3714711, 41.509333 ], [ -71.3713873, 41.5093295 ], [ -71.371305, 41.5093575 ], [ -71.3712362, 41.5093834 ], [ -71.3711294, 41.5094314 ], [ -71.3710843, 41.5094828 ], [ -71.3710362, 41.5095412 ], [ -71.3709531, 41.5095503 ], [ -71.3708811, 41.5095753 ], [ -71.3708567, 41.5096586 ], [ -71.3708466, 41.5097794 ], [ -71.3708506, 41.5098833 ], [ -71.3708892, 41.5099824 ], [ -71.3709673, 41.5100145 ], [ -71.3710735, 41.5100068 ], [ -71.3711584, 41.5100068 ], [ -71.3712342, 41.5100839 ], [ -71.3712903, 41.510125 ] ] } }
]
}
