{
"type": "FeatureCollection",
"name": "SLOTOP",
"crs": { "type": "name", "properties": { "name": "urn:ogc:def:crs:OGC:1.3:CRS84" } },
"features": [
{ "type": "Feature", "properties": { "RCID": 1378, "PRIM": 2, "GRUP": 2, "OBJL": 126, "RVER": 1, "AGEN": 550, "FIDN": 353137094, "FIDS": 8691, "LNAM": "0226150C71C621F3", "CATSLO": 6, "SCAMIN": 29999, "SORDAT": "20140818", "SORIND": "US,US,graph,GC-11187" }, "geometry": { "type": "LineString", "coordinates": [ [ -71.4, 41.4900277 ], [ -71.3999803, 41.49011 ], [ -71.3999895, 41.4902024 ], [ -71.4, 41.4902403 ] ] } },
{ "type": "Feature", "properties": { "RCID": 1379, "PRIM": 2, "GRUP": 2, "OBJL": 126, "RVER": 1, "AGEN": 550, "FIDN": 570409740, "FIDS": 8691, "LNAM": "022621FFC30C21F3", "CATSLO": 6, "SCAMIN": 29999, "SORDAT": "20140818", "SORIND": "US,US,graph,GC-11187" }, "geometry": { "type": "LineString", "coordinates": [ [ -71.3690691, 41.4786144 ], [ -71.3689731, 41.4783685 ], [ -71.3678396, 41.4783114 ], [ -71.3673937, 41.4779025 ], [ -71.3670763, 41.4778436 ], [ -71.3669658, 41.4775957 ], [ -71.3670103, 41.4774562 ], [ -71.366561, 41.4777509 ], [ -71.3659865, 41.4776697 ], [ -71.3659398, 41.477574 ], [ -71.3661582, 41.4773941 ], [ -71.3661696, 41.4772425 ], [ -71.3660624, 41.4772223 ], [ -71.3657421, 41.4773979 ], [ -71.3658096, 41.4769714 ], [ -71.3653515, 41.4772317 ], [ -71.364936, 41.4768762 ], [ -71.3646174, 41.4769537 ], [ -71.3644528, 41.4768819 ], [ -71.3642539, 41.4772565 ], [ -71.364436, 41.4776255 ], [ -71.3643872, 41.4777503 ], [ -71.3636261, 41.4780397 ], [ -71.36299, 41.478374 ], [ -71.3629453, 41.4784972 ], [ -71.3626638, 41.4784437 ], [ -71.362764, 41.4789834 ], [ -71.3625351, 41.4790939 ], [ -71.3623368, 41.4793186 ], [ -71.3621034, 41.4793225 ], [ -71.3619006, 41.4792026 ], [ -71.3618373, 41.4792682 ], [ -71.3619066, 41.4794561 ], [ -71.361909, 41.4794697 ], [ -71.3619038, 41.479501 ], [ -71.3618785, 41.4795403 ], [ -71.361831, 41.4795852 ], [ -71.3617136, 41.4796542 ], [ -71.36162, 41.4796834 ], [ -71.3615131, 41.4796998 ], [ -71.3614226, 41.4797082 ], [ -71.3613586, 41.4796999 ], [ -71.3612788, 41.4796786 ], [ -71.3611427, 41.4796309 ], [ -71.36106, 41.4796019 ], [ -71.3609796, 41.4795532 ], [ -71.3609221, 41.4795042 ], [ -71.360882, 41.4794689 ], [ -71.3608547, 41.4794354 ] ] } },
{ "type": "Feature", "properties": { "RCID": 1380, "PRIM": 2, "GRUP": 2, "OBJL": 126, "RVER": 1, "AGEN": 550, "FIDN": 52884262, "FIDS": 8691, "LNAM": "02260326F32621F3", "CATSLO": 6, "SCAMIN": 29999, "SORDAT": "20140818", "SORIND": "US,US,graph,GC-11187" }, "geometry": { "type": "LineString", "coordinates": [ [ -71.3894826, 41.5326814 ], [ -71.389585, 41.5321897 ], [ -71.3895893, 41.5312376 ], [ -71.3897086, 41.5310318 ] ] } },
{ "type": "Feature", "properties": { "RCID": 1381, "PRIM": 2, "GRUP": 2, "OBJL": 126, "RVER": 1, "AGEN": 550, "FIDN": 416718205, "FIDS": 8691, "LNAM": "022618D69D7D21F3", "CATSLO": 6, "SCAMIN": 29999, "SORDAT": "20140818", "SORIND": "US,US,graph,GC-11187" }, "geometry": { "type": "LineString", "coordinates": [ [ -71.3579609, 41.4795068 ], [ -71.3578016, 41.4796799 ], [ -71.3576782, 41.4798069 ], [ -71.3576355, 41.4798757 ], [ -71.3576169, 41.4799224 ] ] } },
{ "type": "Feature", "properties": { "RCID": 1382, "PRIM": 2, "GRUP": 2, "OBJL": 126, "RVER": 1, "AGEN": 550, "FIDN": 390748942, "FIDS": 8691, "LNAM": "0226174A5B0E21F3", "CATSLO": 6, "SCAMIN": 29999, "SORDAT": "20140818", "SORIND": "US,US,graph,GC-11187" }, "geometry": { "type": "LineString", "coordinates": [ [ -71.3303218, 41.5105641 ], [ -71.3302887, 41.510707 ], [ -71.33028, 41.5107716 ], [ -71.3302813, 41.5108177 ], [ -71.3302849, 41.5108694 ], [ -71.3302839, 41.5108976 ], [ -71.3302799, 41.510925 ], [ -71.3302615, 41.5109597 ], [ -71.3302343, 41.5110141 ], [ -71.3302265, 41.5110458 ], [ -71.3302358, 41.5110888 ], [ -71.3302588, 41.5111438 ], [ -71.3302675, 41.5111664 ], [ -71.3302645, 41.51118 ], [ -71.3302508, 41.5112035 ], [ -71.3302313, 41.5112282 ], [ -71.3301902, 41.5112487 ], [ -71.3301814, 41.5112588 ], [ -71.3301787, 41.511554 ], [ -71.3301883, 41.5116084 ], [ -71.3302171, 41.5116486 ], [ -71.3302258, 41.5116552 ], [ -71.3302352, 41.5116663 ], [ -71.3302394, 41.5116987 ], [ -71.3302504, 41.5117273 ], [ -71.3302532, 41.5117507 ], [ -71.3302185, 41.5117969 ], [ -71.3302123, 41.5118522 ], [ -71.330233, 41.5118849 ], [ -71.3302391, 41.5119006 ], [ -71.3302248, 41.5119277 ], [ -71.3302159, 41.511942 ], [ -71.330177, 41.5119722 ], [ -71.3301142, 41.5120044 ], [ -71.3300653, 41.5120274 ], [ -71.3300173, 41.5120471 ], [ -71.3299969, 41.5120585 ], [ -71.3299674, 41.5120781 ], [ -71.3299343, 41.5121286 ], [ -71.3298484, 41.5122481 ], [ -71.3297485, 41.5123821 ], [ -71.329709, 41.512475 ], [ -71.3296759, 41.5125532 ] ] } },
{ "type": "Feature", "properties": { "RCID": 1383, "PRIM": 2, "GRUP": 2, "OBJL": 126, "RVER": 1, "AGEN": 550, "FIDN": 34477184, "FIDS": 8691, "LNAM": "0226020E148021F3", "CATSLO": 6, "SCAMIN": 29999, "SORDAT": "20140818", "SORIND": "US,US,graph,GC-11187" }, "geometry": { "type": "LineString", "coordinates": [ [ -71.3972281, 41.475 ], [ -71.3972462, 41.475086 ], [ -71.397241, 41.4751993 ], [ -71.3971944, 41.475308 ], [ -71.3971628, 41.4754265 ], [ -71.3971698, 41.4755088 ], [ -71.3971697, 41.4756195 ], [ -71.3972149, 41.4757714 ], [ -71.3972371, 41.4759 ], [ -71.3972203, 41.4759769 ], [ -71.3971832, 41.4761269 ], [ -71.3971792, 41.476222 ], [ -71.3971691, 41.4763273 ], [ -71.3971522, 41.4765489 ], [ -71.3971581, 41.476591 ], [ -71.3971537, 41.4766428 ], [ -71.397135, 41.4767201 ], [ -71.3970639, 41.476822 ], [ -71.3970027, 41.4769501 ], [ -71.3969295, 41.477076 ], [ -71.3968003, 41.4773144 ], [ -71.3966836, 41.47767 ], [ -71.396556, 41.4779869 ], [ -71.3965013, 41.4782375 ], [ -71.3965024, 41.4784847 ], [ -71.3964984, 41.4787034 ], [ -71.3965066, 41.4787757 ], [ -71.3965515, 41.4788355 ], [ -71.3965889, 41.4788762 ], [ -71.3965899, 41.4789145 ], [ -71.3966005, 41.4790486 ], [ -71.3965462, 41.4792086 ], [ -71.396548, 41.4793712 ], [ -71.3965531, 41.4795524 ], [ -71.3965382, 41.4796105 ], [ -71.3965099, 41.4796952 ], [ -71.3965107, 41.479784 ], [ -71.3964985, 41.4799052 ], [ -71.3965302, 41.4799768 ], [ -71.3965895, 41.4801401 ], [ -71.3967402, 41.4804746 ], [ -71.3968, 41.4806419 ], [ -71.3968681, 41.4809044 ], [ -71.3968922, 41.4811039 ], [ -71.3969002, 41.4812112 ], [ -71.3968909, 41.4813197 ], [ -71.3968437, 41.4815175 ], [ -71.3968452, 41.4816355 ] ] } },
{ "type": "Feature", "properties": { "RCID": 1384, "PRIM": 2, "GRUP": 2, "OBJL": 126, "RVER": 1, "AGEN": 550, "FIDN": 997809439, "FIDS": 8691, "LNAM": "02263B795D1F21F3", "CATSLO": 6, "SCAMIN": 29999, "SORDAT": "20140818", "SORIND": "US,US,graph,GC-11187" }, "geometry": { "type": "LineString", "coordinates": [ [ -71.4, 41.4915926 ], [ -71.399982, 41.4916127 ], [ -71.3998913, 41.4916958 ], [ -71.3998598, 41.4917524 ], [ -71.3998489, 41.4917884 ], [ -71.399842, 41.4918758 ], [ -71.3998449, 41.4920295 ], [ -71.3998213, 41.4921067 ], [ -71.399785, 41.4921416 ], [ -71.3997321, 41.4921936 ], [ -71.3997002, 41.4922489 ], [ -71.3996336, 41.4923482 ], [ -71.3996014, 41.4924211 ], [ -71.3995614, 41.4924648 ], [ -71.3995168, 41.4925243 ], [ -71.3994652, 41.4925612 ], [ -71.3994165, 41.4925921 ], [ -71.3993685, 41.4926108 ], [ -71.3993336, 41.4926265 ], [ -71.3991349, 41.4927921 ], [ -71.3990668, 41.4928358 ], [ -71.3990185, 41.4928554 ], [ -71.3989782, 41.4928694 ], [ -71.3989188, 41.4928647 ], [ -71.398824, 41.4928763 ], [ -71.3987882, 41.4928893 ], [ -71.3987719, 41.4929082 ], [ -71.3986465, 41.4930484 ], [ -71.3985815, 41.4930908 ], [ -71.3985434, 41.4931325 ], [ -71.3983434, 41.4931866 ], [ -71.3981898, 41.4931708 ], [ -71.3980308, 41.493173 ], [ -71.3979244, 41.4931629 ], [ -71.397798, 41.4931342 ], [ -71.397737, 41.4931296 ] ] } },
{ "type": "Feature", "properties": { "RCID": 1385, "PRIM": 2, "GRUP": 2, "OBJL": 126, "RVER": 1, "AGEN": 550, "FIDN": 38827650, "FIDS": 8691, "LNAM": "02260250768221F3", "CATSLO": 6, "SCAMIN": 29999, "SORDAT": "20140818", "SORIND": "US,US,graph,GC-11187" }, "geometry": { "type": "LineString", "coordinates": [ [ -71.3760022, 41.4752046 ], [ -71.3760622, 41.4751427 ], [ -71.3760924, 41.4751298 ], [ -71.3761559, 41.4751065 ], [ -71.3762405, 41.4750871 ], [ -71.3762946, 41.4750741 ], [ -71.3763173, 41.4750233 ], [ -71.3763266, 41.475 ] ] } },
{ "type": "Feature", "properties": { "RCID": 1386, "PRIM": 2, "GRUP": 2, "OBJL": 126, "RVER": 1, "AGEN": 550, "FIDN": 441196956, "FIDS": 8691, "LNAM": "02261A4C219C21F3", "CATSLO": 6, "SCAMIN": 29999, "SORDAT": "20140818", "SORIND": "US,US,graph,GC-11187" }, "geometry": { "type": "LineString", "coordinates": [ [ -71.3844853, 41.4969835 ], [ -71.3845417, 41.4973858 ], [ -71.38465, 41.4975388 ], [ -71.384517, 41.497586 ], [ -71.3843657, 41.4977746 ], [ -71.3842651, 41.4980638 ], [ -71.3843162, 41.4982065 ], [ -71.3842767, 41.4985488 ], [ -71.3836896, 41.499404 ], [ -71.3836314, 41.5001915 ], [ -71.3833843, 41.5004019 ], [ -71.3830961, 41.5008412 ], [ -71.3827695, 41.5011704 ], [ -71.3827235, 41.5014081 ], [ -71.382236, 41.5019605 ], [ -71.3819599, 41.5025064 ], [ -71.3816287, 41.5026535 ], [ -71.3814412, 41.5028806 ], [ -71.3811985, 41.5029762 ], [ -71.3811535, 41.503095 ], [ -71.380769, 41.5033422 ], [ -71.3799278, 41.5038006 ] ] } },
{ "type": "Feature", "properties": { "RCID": 1387, "PRIM": 2, "GRUP": 2, "OBJL": 126, "RVER": 1, "AGEN": 550, "FIDN": 216331371, "FIDS": 8691, "LNAM": "02260CE4F46B21F3", "CATSLO": 6, "SCAMIN": 29999, "SORDAT": "20140818", "SORIND": "US,US,graph,GC-11187" }, "geometry": { "type": "LineString", "coordinates": [ [ -71.3530145, 41.4821424 ], [ -71.3529997, 41.4821205 ], [ -71.3529809, 41.4820623 ], [ -71.3529974, 41.4820274 ], [ -71.3530652, 41.4819896 ], [ -71.3531001, 41.4819608 ], [ -71.3531159, 41.4819496 ], [ -71.3531667, 41.4819404 ], [ -71.3532012, 41.4819489 ], [ -71.3532078, 41.4819589 ] ] } },
{ "type": "Feature", "properties": { "RCID": 1388, "PRIM": 2, "GRUP": 2, "OBJL": 126, "RVER": 1, "AGEN": 550, "FIDN": 318863771, "FIDS": 8691, "LNAM": "02261301799B21F3", "CATSLO": 6, "SCAMIN": 29999, "SORDAT": "20140818", "SORIND": "US,US,graph,GC-11187" }, "geometry": { "type": "LineString", "coordinates": [ [ -71.3779102, 41.4822505 ], [ -71.3779646, 41.4818472 ], [ -71.3777234, 41.481307 ], [ -71.3780439, 41.480942 ], [ -71.3782298, 41.4804668 ], [ -71.3781539, 41.4803518 ], [ -71.3778529, 41.4803977 ], [ -71.3777578, 41.4801807 ], [ -71.3778465, 41.4800051 ], [ -71.3778197, 41.47979 ], [ -71.3780586, 41.4793837 ], [ -71.3776895, 41.4792579 ], [ -71.377525, 41.4789743 ], [ -71.3771435, 41.4790978 ], [ -71.3769867, 41.4787123 ], [ -71.3766787, 41.4789897 ], [ -71.3765267, 41.4789959 ], [ -71.3764157, 41.4789161 ], [ -71.3764285, 41.4788007 ], [ -71.376589, 41.4787025 ], [ -71.3764276, 41.478614 ], [ -71.3763628, 41.4784859 ], [ -71.3765177, 41.478158 ], [ -71.3764337, 41.4779245 ], [ -71.3764533, 41.4776048 ], [ -71.3763144, 41.4773252 ], [ -71.3763604, 41.4769226 ], [ -71.3762915, 41.4767683 ], [ -71.3763575, 41.4767328 ], [ -71.3766219, 41.4768633 ], [ -71.376846, 41.4768508 ], [ -71.3769104, 41.4767647 ], [ -71.3768778, 41.4764177 ], [ -71.3771253, 41.4763635 ], [ -71.3770501, 41.4761845 ], [ -71.3766604, 41.4763206 ], [ -71.3764734, 41.4762939 ], [ -71.3763837, 41.4765595 ], [ -71.3761442, 41.4765309 ], [ -71.3759571, 41.4763797 ], [ -71.375802, 41.4759859 ], [ -71.3754169, 41.475554 ], [ -71.3753222, 41.4752838 ], [ -71.3749353, 41.4750143 ], [ -71.3744358, 41.475089 ], [ -71.3742739, 41.4750256 ], [ -71.3740376, 41.4751728 ], [ -71.3739262, 41.4754389 ], [ -71.3737031, 41.4755053 ] ] } },
{ "type": "Feature", "properties": { "RCID": 1389, "PRIM": 2, "GRUP": 2, "OBJL": 126, "RVER": 1, "AGEN": 550, "FIDN": 572623581, "FIDS": 8691, "LNAM": "022622218ADD21F3", "CATSLO": 6, "SCAMIN": 29999, "SORDAT": "20140818", "SORIND": "US,US,graph,GC-11187" }, "geometry": { "type": "LineString", "coordinates": [ [ -71.391348, 41.5268272 ], [ -71.39088, 41.5278736 ], [ -71.3904822, 41.5293396 ], [ -71.3899873, 41.5303257 ], [ -71.3900217, 41.5306149 ], [ -71.3897276, 41.5309561 ] ] } },
{ "type": "Feature", "properties": { "RCID": 1390, "PRIM": 2, "GRUP": 2, "OBJL": 126, "RVER": 1, "AGEN": 550, "FIDN": 673701914, "FIDS": 8691, "LNAM": "02262827E01A21F3", "CATSLO": 6, "SCAMIN": 29999, "SORDAT": "20140818", "SORIND": "US,US,graph,GC-11187" }, "geometry": { "type": "LineString", "coordinates": [ [ -71.3586008, 41.4785872 ], [ -71.3588916, 41.4783013 ], [ -71.3591376, 41.4782353 ], [ -71.359476, 41.4780182 ], [ -71.3594607, 41.477874 ], [ -71.3593074, 41.4780248 ], [ -71.3590854, 41.4778525 ], [ -71.3592419, 41.4775504 ], [ -71.3591849, 41.4774631 ], [ -71.3592662, 41.4773643 ], [ -71.3591955, 41.4772379 ], [ -71.3590747, 41.477244 ], [ -71.3590925, 41.4774297 ], [ -71.3589734, 41.4775467 ] ] } },
{ "type": "Feature", "properties": { "RCID": 1391, "PRIM": 2, "GRUP": 2, "OBJL": 126, "RVER": 1, "AGEN": 550, "FIDN": 702636259, "FIDS": 8691, "LNAM": "022629E160E321F3", "CATSLO": 6, "SCAMIN": 29999, "SORDAT": "20140818", "SORIND": "US,US,graph,GC-11187" }, "geometry": { "type": "LineString", "coordinates": [ [ -71.3573415, 41.4799128 ], [ -71.3569629, 41.4798084 ], [ -71.3567557, 41.4795074 ], [ -71.3565579, 41.479728 ], [ -71.3563436, 41.4797631 ], [ -71.3563599, 41.4795161 ], [ -71.3557611, 41.4796212 ], [ -71.3555198, 41.4797858 ], [ -71.355064, 41.4799512 ], [ -71.3548643, 41.4803912 ], [ -71.3549648, 41.4806327 ], [ -71.3553474, 41.4805976 ], [ -71.3556104, 41.480685 ], [ -71.3560416, 41.4811669 ], [ -71.3565172, 41.4811728 ], [ -71.3567374, 41.4810713 ], [ -71.3567407, 41.4810695 ], [ -71.3568954, 41.4809898 ], [ -71.3569654, 41.4809505 ], [ -71.3569866, 41.4809122 ] ] } },
{ "type": "Feature", "properties": { "RCID": 1392, "PRIM": 2, "GRUP": 2, "OBJL": 126, "RVER": 1, "AGEN": 550, "FIDN": 956672896, "FIDS": 8691, "LNAM": "02263905AB8021F3", "CATSLO": 6, "SCAMIN": 29999, "SORDAT": "20140818", "SORIND": "US,US,graph,GC-11187" }, "geometry": { "type": "LineString", "coordinates": [ [ -71.3645318, 41.4907275 ], [ -71.3649772, 41.491412 ], [ -71.3649912, 41.4917366 ], [ -71.365365, 41.4922146 ], [ -71.3654102, 41.4922733 ], [ -71.3654314, 41.492317 ] ] } },
{ "type": "Feature", "properties": { "RCID": 1393, "PRIM": 2, "GRUP": 2, "OBJL": 126, "RVER": 1, "AGEN": 550, "FIDN": 6855630, "FIDS": 8691, "LNAM": "022600689BCE21F3", "CATSLO": 6, "SCAMIN": 29999, "SORDAT": "20140818", "SORIND": "US,US,graph,GC-11187" }, "geometry": { "type": "LineString", "coordinates": [ [ -71.3355869, 41.476366 ], [ -71.3357085, 41.4766744 ], [ -71.3358398, 41.4770257 ], [ -71.3359422, 41.4772961 ], [ -71.3360911, 41.4777642 ], [ -71.3363557, 41.4784295 ] ] } },
{ "type": "Feature", "properties": { "RCID": 1394, "PRIM": 2, "GRUP": 2, "OBJL": 126, "RVER": 1, "AGEN": 550, "FIDN": 449247490, "FIDS": 8691, "LNAM": "02261AC6F90221F3", "CATSLO": 6, "SCAMIN": 29999, "SORDAT": "20140818", "SORIND": "US,US,graph,GC-11187" }, "geometry": { "type": "LineString", "coordinates": [ [ -71.3922792, 41.5178236 ], [ -71.3922989, 41.5179024 ], [ -71.3922845, 41.5179807 ], [ -71.3922333, 41.5180977 ], [ -71.3921977, 41.5181766 ], [ -71.3922297, 41.5182594 ], [ -71.3922687, 41.5183421 ], [ -71.3922938, 41.5184023 ], [ -71.3922979, 41.5184356 ], [ -71.3922536, 41.5186386 ], [ -71.3922102, 41.518705 ], [ -71.3921782, 41.5187282 ], [ -71.3921259, 41.518855 ], [ -71.3921002, 41.5190394 ], [ -71.3920351, 41.5191998 ], [ -71.3919718, 41.5193096 ] ] } },
{ "type": "Feature", "properties": { "RCID": 1395, "PRIM": 2, "GRUP": 2, "OBJL": 126, "RVER": 1, "AGEN": 550, "FIDN": 416686040, "FIDS": 8691, "LNAM": "022618D61FD821F3", "CATSLO": 6, "SCAMIN": 29999, "SORDAT": "20140818", "SORIND": "US,US,graph,GC-11187" }, "geometry": { "type": "LineString", "coordinates": [ [ -71.3730294, 41.475 ], [ -71.372916, 41.4751299 ], [ -71.3729249, 41.4755723 ], [ -71.3730486, 41.4759515 ], [ -71.3733207, 41.4759701 ], [ -71.3732306, 41.4762318 ], [ -71.3732404, 41.4764815 ], [ -71.3731631, 41.4768184 ], [ -71.3729453, 41.4769074 ], [ -71.3728285, 41.4770729 ], [ -71.3724934, 41.4770661 ], [ -71.3724517, 41.4769703 ], [ -71.3723741, 41.4770866 ], [ -71.3723726, 41.4774054 ], [ -71.3724691, 41.4775682 ], [ -71.3724838, 41.4776798 ], [ -71.3720432, 41.4777634 ], [ -71.3717927, 41.4780571 ], [ -71.3710599, 41.4780288 ], [ -71.3711178, 41.4781439 ], [ -71.3709259, 41.4783025 ], [ -71.3706261, 41.4783158 ], [ -71.3708005, 41.4782027 ], [ -71.3706749, 41.4780375 ], [ -71.3706749, 41.4781928 ], [ -71.3706177, 41.4782157 ], [ -71.3703908, 41.4780351 ], [ -71.3703781, 41.4781307 ], [ -71.3699849, 41.4781544 ], [ -71.3699597, 41.4780681 ], [ -71.3696896, 41.4779451 ], [ -71.3693285, 41.4781555 ] ] } },
{ "type": "Feature", "properties": { "RCID": 1396, "PRIM": 2, "GRUP": 2, "OBJL": 126, "RVER": 1, "AGEN": 550, "FIDN": 485216790, "FIDS": 8691, "LNAM": "02261CEBD21621F3", "CATSLO": 6, "SCAMIN": 29999, "SORDAT": "20140818", "SORIND": "US,US,graph,GC-11187" }, "geometry": { "type": "LineString", "coordinates": [ [ -71.3608339, 41.4860919 ], [ -71.3607864, 41.4860868 ], [ -71.3607501, 41.4860698 ], [ -71.360725, 41.4860558 ], [ -71.360709, 41.4860205 ], [ -71.3607235, 41.4859521 ], [ -71.3607934, 41.4858946 ], [ -71.3608125, 41.4858616 ], [ -71.3608136, 41.4858067 ], [ -71.3608264, 41.4857761 ], [ -71.3608642, 41.4857436 ], [ -71.3608818, 41.4857217 ], [ -71.3609031, 41.4856754 ] ] } },
{ "type": "Feature", "properties": { "RCID": 1397, "PRIM": 2, "GRUP": 2, "OBJL": 126, "RVER": 1, "AGEN": 550, "FIDN": 16559769, "FIDS": 8691, "LNAM": "022600FCAE9921F3", "CATSLO": 6, "SCAMIN": 29999, "SORDAT": "20140818", "SORIND": "US,US,graph,GC-11187" }, "geometry": { "type": "LineString", "coordinates": [ [ -71.399915, 41.5009456 ], [ -71.3997403, 41.5011379 ], [ -71.3995856, 41.5012907 ], [ -71.3994321, 41.5014343 ], [ -71.3993407, 41.5014932 ], [ -71.3992581, 41.501531 ], [ -71.3990409, 41.5015971 ], [ -71.3989239, 41.5016399 ], [ -71.3988944, 41.501662 ], [ -71.3988609, 41.5017019 ], [ -71.3988391, 41.5017531 ], [ -71.3987709, 41.5018458 ], [ -71.3985758, 41.5019753 ], [ -71.3984015, 41.5021199 ], [ -71.3982637, 41.5022612 ], [ -71.3982538, 41.5022996 ], [ -71.3982397, 41.5023878 ], [ -71.3982056, 41.5024665 ], [ -71.3981011, 41.5025918 ], [ -71.3980109, 41.5026539 ], [ -71.3979377, 41.5026886 ], [ -71.397878, 41.5027068 ], [ -71.3977204, 41.5027501 ], [ -71.3975687, 41.5028013 ], [ -71.3974229, 41.5028683 ], [ -71.3973488, 41.5029168 ], [ -71.3972814, 41.5029832 ], [ -71.3971957, 41.5031511 ], [ -71.3970975, 41.50335 ], [ -71.397033, 41.5034408 ], [ -71.396957, 41.5035124 ], [ -71.3968536, 41.5036 ] ] } },
{ "type": "Feature", "properties": { "RCID": 1398, "PRIM": 2, "GRUP": 2, "OBJL": 126, "RVER": 1, "AGEN": 550, "FIDN": 969696202, "FIDS": 8691, "LNAM": "022639CC63CA21F3", "CATSLO": 6, "SCAMIN": 29999, "SORDAT": "20140818", "SORIND": "US,US,graph,GC-11187" }, "geometry": { "type": "LineString", "coordinates": [ [ -71.3780452, 41.4827913 ], [ -71.3787024, 41.4841867 ], [ -71.3787807, 41.4846757 ], [ -71.3787067, 41.4849142 ], [ -71.3789741, 41.485714 ], [ -71.3789062, 41.486027 ], [ -71.3790201, 41.4863331 ], [ -71.379397, 41.4867173 ], [ -71.3795646, 41.4871128 ], [ -71.3798673, 41.4873267 ], [ -71.3802274, 41.487948 ], [ -71.380911, 41.488604 ], [ -71.3810814, 41.4888754 ] ] } },
{ "type": "Feature", "properties": { "RCID": 1399, "PRIM": 2, "GRUP": 2, "OBJL": 126, "RVER": 1, "AGEN": 550, "FIDN": 76679657, "FIDS": 8691, "LNAM": "0226049209E921F3", "CATSLO": 6, "SCAMIN": 29999, "SORDAT": "20140818", "SORIND": "US,US,graph,GC-11187" }, "geometry": { "type": "LineString", "coordinates": [ [ -71.3589007, 41.4815134 ], [ -71.3589769, 41.4815613 ], [ -71.3590961, 41.4815682 ], [ -71.3591365, 41.4815946 ], [ -71.3591837, 41.4816575 ], [ -71.3591936, 41.4817163 ], [ -71.3592114, 41.4817535 ], [ -71.3592558, 41.4817969 ], [ -71.3593092, 41.4818266 ], [ -71.3593381, 41.4818435 ], [ -71.3593589, 41.481896 ], [ -71.3593786, 41.4819348 ], [ -71.3593957, 41.4819631 ], [ -71.3594198, 41.481985 ], [ -71.359467, 41.4819801 ], [ -71.3595217, 41.4819666 ], [ -71.3595661, 41.4819433 ], [ -71.3595996, 41.4819263 ] ] } },
{ "type": "Feature", "properties": { "RCID": 1400, "PRIM": 2, "GRUP": 2, "OBJL": 126, "RVER": 1, "AGEN": 550, "FIDN": 19872984, "FIDS": 8691, "LNAM": "0226012F3CD821F3", "CATSLO": 6, "SCAMIN": 29999, "SORDAT": "20140818", "SORIND": "US,US,graph,GC-11187" }, "geometry": { "type": "LineString", "coordinates": [ [ -71.3835252, 41.475 ], [ -71.3835503, 41.4750239 ], [ -71.3835937, 41.4750729 ], [ -71.3836067, 41.4751101 ], [ -71.3836027, 41.475137 ], [ -71.3835751, 41.4751625 ], [ -71.3835485, 41.4751868 ], [ -71.3835356, 41.4752167 ], [ -71.3835433, 41.475255 ], [ -71.3835876, 41.4753212 ], [ -71.3836204, 41.4753725 ], [ -71.3836763, 41.4754165 ], [ -71.3837493, 41.4754861 ], [ -71.383782, 41.4755298 ], [ -71.3838159, 41.4756025 ], [ -71.3838747, 41.4757359 ], [ -71.3839291, 41.4758355 ], [ -71.3839425, 41.4758889 ], [ -71.3839601, 41.4759901 ], [ -71.3839838, 41.4760401 ], [ -71.3840191, 41.4760941 ], [ -71.3840363, 41.4761835 ], [ -71.3840887, 41.476237 ], [ -71.384129, 41.4762964 ], [ -71.3841618, 41.4763552 ], [ -71.3841867, 41.4763823 ], [ -71.3842266, 41.4764147 ], [ -71.3842746, 41.4764421 ], [ -71.3843618, 41.4765075 ], [ -71.3844079, 41.4765559 ], [ -71.3844406, 41.476592 ], [ -71.3844683, 41.4766412 ], [ -71.3844781, 41.4766889 ], [ -71.3844816, 41.4767314 ], [ -71.3844617, 41.4767693 ], [ -71.3844461, 41.4767998 ], [ -71.3844294, 41.4768533 ], [ -71.3844243, 41.4768923 ], [ -71.3844146, 41.4769193 ], [ -71.3843762, 41.4769353 ], [ -71.3843438, 41.4769446 ], [ -71.3843228, 41.4769611 ], [ -71.3843096, 41.4770051 ], [ -71.3843131, 41.4770552 ], [ -71.3843231, 41.477092 ], [ -71.3843376, 41.4771073 ], [ -71.3843868, 41.4771117 ], [ -71.38442, 41.477138 ], [ -71.3844463, 41.4771723 ], [ -71.3844658, 41.4772005 ], [ -71.3845104, 41.4772265 ], [ -71.3845098, 41.4772472 ], [ -71.3844961, 41.4772751 ], [ -71.3844722, 41.4773063 ], [ -71.3844432, 41.4773505 ], [ -71.3844242, 41.477398 ], [ -71.3844148, 41.4774445 ], [ -71.3844179, 41.477486 ], [ -71.3844217, 41.477522 ], [ -71.3844577, 41.4776224 ], [ -71.384484, 41.4776903 ], [ -71.3845131, 41.4777359 ], [ -71.3845306, 41.477796 ], [ -71.3845305, 41.4778144 ], [ -71.3845169, 41.4778423 ], [ -71.3844852, 41.4778535 ], [ -71.3844396, 41.4778473 ], [ -71.3843939, 41.4778519 ], [ -71.3843877, 41.4778695 ], [ -71.3844172, 41.4779009 ], [ -71.3844346, 41.4779198 ], [ -71.3844639, 41.4779362 ], [ -71.3844859, 41.4779671 ], [ -71.3845021, 41.4780014 ], [ -71.3845017, 41.4780524 ], [ -71.3844944, 41.4781266 ], [ -71.3844947, 41.478198 ], [ -71.3845065, 41.4782398 ], [ -71.384554, 41.478277 ], [ -71.3846174, 41.4783217 ], [ -71.3846661, 41.4783619 ], [ -71.3846961, 41.4783986 ], [ -71.3847008, 41.4784517 ], [ -71.3846945, 41.4784986 ], [ -71.3847014, 41.4785426 ], [ -71.3847372, 41.4785867 ], [ -71.3847654, 41.478626 ], [ -71.3847789, 41.4786685 ], [ -71.3847876, 41.4787132 ], [ -71.3847808, 41.4787515 ], [ -71.3847734, 41.478803 ], [ -71.3847866, 41.4788261 ], [ -71.3848187, 41.4788569 ], [ -71.3848499, 41.4788891 ], [ -71.3848733, 41.4789273 ], [ -71.3848834, 41.4789608 ], [ -71.3848718, 41.4789904 ], [ -71.3848385, 41.4790161 ], [ -71.3848406, 41.4790774 ], [ -71.384831, 41.479138 ], [ -71.3848388, 41.4791806 ], [ -71.3848505, 41.4792257 ], [ -71.3848529, 41.4792653 ], [ -71.38485, 41.4792951 ], [ -71.3848303, 41.4794413 ], [ -71.384851, 41.4795061 ], [ -71.3848995, 41.4796016 ], [ -71.3849135, 41.4797793 ], [ -71.3849172, 41.4798522 ], [ -71.3848964, 41.4799434 ], [ -71.3848882, 41.4800339 ], [ -71.3848938, 41.4801531 ], [ -71.3849294, 41.4803661 ], [ -71.3849349, 41.4804753 ], [ -71.3849336, 41.4805403 ], [ -71.3849346, 41.4806048 ], [ -71.3849347, 41.4806931 ], [ -71.3849384, 41.480778 ], [ -71.3849339, 41.4808246 ], [ -71.3849465, 41.4808748 ], [ -71.3849518, 41.4809019 ], [ -71.3849306, 41.4809328 ], [ -71.384924, 41.4809706 ], [ -71.3849237, 41.4811001 ], [ -71.3849301, 41.4811434 ], [ -71.3849375, 41.4811893 ], [ -71.3849228, 41.4812343 ], [ -71.3848995, 41.4812729 ], [ -71.3848953, 41.4813039 ], [ -71.3849012, 41.4813327 ], [ -71.3849048, 41.4813684 ], [ -71.3849082, 41.4814005 ], [ -71.3849451, 41.4815322 ], [ -71.3849509, 41.481613 ], [ -71.3849438, 41.4817111 ], [ -71.3849419, 41.4818136 ], [ -71.38494, 41.4818832 ], [ -71.3849439, 41.4819426 ], [ -71.3849717, 41.4820434 ], [ -71.3849852, 41.4821709 ], [ -71.384978, 41.4822526 ], [ -71.3849454, 41.4823114 ], [ -71.3849411, 41.4823424 ], [ -71.3849545, 41.4824207 ], [ -71.3849698, 41.482504 ], [ -71.38497, 41.4825404 ], [ -71.3849689, 41.4825735 ], [ -71.3849801, 41.4826067 ], [ -71.3850009, 41.4826561 ], [ -71.3849893, 41.4827032 ], [ -71.3849814, 41.482734 ], [ -71.3849874, 41.4827728 ], [ -71.3850047, 41.4828649 ], [ -71.3850276, 41.4829494 ], [ -71.3850391, 41.4829934 ], [ -71.3850671, 41.4830587 ], [ -71.3850618, 41.4830935 ], [ -71.385049, 41.4831308 ], [ -71.3850518, 41.483174 ], [ -71.3850733, 41.4832187 ], [ -71.3851292, 41.4832844 ], [ -71.3851795, 41.483374 ], [ -71.385208, 41.4834473 ], [ -71.3852358, 41.4835026 ], [ -71.3852848, 41.4835852 ], [ -71.3853329, 41.483669 ], [ -71.3853521, 41.4837041 ], [ -71.3853797, 41.4837621 ], [ -71.3854069, 41.4838156 ], [ -71.3854355, 41.4838926 ], [ -71.3854737, 41.4840148 ], [ -71.3854969, 41.4840902 ], [ -71.3855049, 41.4841377 ], [ -71.3855106, 41.4841757 ], [ -71.3855101, 41.4842004 ], [ -71.3855243, 41.4843396 ], [ -71.3855273, 41.4844356 ], [ -71.3855192, 41.4844464 ], [ -71.385519, 41.484472 ], [ -71.3855168, 41.484528 ], [ -71.3855394, 41.4846017 ], [ -71.3855524, 41.4846563 ], [ -71.3855575, 41.4847318 ], [ -71.3855627, 41.4847881 ], [ -71.3855518, 41.4848369 ], [ -71.3855419, 41.4848919 ], [ -71.3855378, 41.4849428 ], [ -71.38554, 41.4849779 ], [ -71.3855499, 41.4850078 ], [ -71.3855664, 41.4850553 ], [ -71.3855886, 41.4851217 ], [ -71.3855885, 41.4851701 ], [ -71.385571, 41.4851947 ], [ -71.3855645, 41.4852198 ], [ -71.3855651, 41.4852506 ], [ -71.3855772, 41.4852864 ], [ -71.3855996, 41.4853172 ], [ -71.3856996, 41.4853873 ], [ -71.3858258, 41.4854756 ], [ -71.3860203, 41.4856434 ], [ -71.3861246, 41.4857381 ], [ -71.38624, 41.4858852 ], [ -71.3862699, 41.4859427 ], [ -71.3863923, 41.4860992 ], [ -71.3864246, 41.4861434 ], [ -71.3864772, 41.4862035 ], [ -71.3864999, 41.4862579 ], [ -71.3865051, 41.4863143 ], [ -71.3865089, 41.4864155 ] ] } },
{ "type": "Feature", "properties": { "RCID": 1401, "PRIM": 2, "GRUP": 2, "OBJL": 126, "RVER": 1, "AGEN": 550, "FIDN": 939611746, "FIDS": 8691, "LNAM": "02263801566221F3", "CATSLO": 6, "SCAMIN": 29999, "SORDAT": "20140818", "SORIND": "US,US,graph,GC-11187" }, "geometry": { "type": "LineString", "coordinates": [ [ -71.3733756, 41.4751723 ], [ -71.3733556, 41.4751418 ], [ -71.3733486, 41.4751151 ], [ -71.3733589, 41.4750653 ], [ -71.3733721, 41.475 ] ] } },
{ "type": "Feature", "properties": { "RCID": 1402, "PRIM": 2, "GRUP": 2, "OBJL": 126, "RVER": 1, "AGEN": 550, "FIDN": 693939287, "FIDS": 8691, "LNAM": "0226295CAC5721F3", "CATSLO": 6, "SCAMIN": 29999, "SORDAT": "20140818", "SORIND": "US,US,graph,GC-11187" }, "geometry": { "type": "LineString", "coordinates": [ [ -71.3608152, 41.4791411 ], [ -71.3613066, 41.4787359 ], [ -71.3613566, 41.4785688 ], [ -71.3613138, 41.4784526 ], [ -71.3615428, 41.4781384 ], [ -71.361472, 41.4779349 ], [ -71.3611067, 41.4779813 ], [ -71.3612824, 41.4776531 ], [ -71.361074, 41.4777103 ], [ -71.3607744, 41.477935 ], [ -71.3604786, 41.4789503 ], [ -71.3601553, 41.4790673 ], [ -71.3599625, 41.4789658 ], [ -71.3597246, 41.4791859 ], [ -71.3591549, 41.4792941 ], [ -71.3590223, 41.4792684 ], [ -71.3588974, 41.4790829 ], [ -71.3588097, 41.4791017 ] ] } },
{ "type": "Feature", "properties": { "RCID": 1403, "PRIM": 2, "GRUP": 2, "OBJL": 126, "RVER": 1, "AGEN": 550, "FIDN": 161568557, "FIDS": 8691, "LNAM": "022609A1572D21F3", "CATSLO": 6, "SCAMIN": 29999, "SORDAT": "20140818", "SORIND": "US,US,graph,GC-11187" }, "geometry": { "type": "LineString", "coordinates": [ [ -71.3589876, 41.477801 ], [ -71.3588437, 41.4776844 ], [ -71.3581783, 41.4775181 ], [ -71.3577901, 41.477921 ], [ -71.3577026, 41.4782061 ], [ -71.3577687, 41.4783076 ] ] } },
{ "type": "Feature", "properties": { "RCID": 1404, "PRIM": 2, "GRUP": 2, "OBJL": 126, "RVER": 1, "AGEN": 550, "FIDN": 364170914, "FIDS": 8691, "LNAM": "022615B4CEA221F3", "CATSLO": 6, "SCAMIN": 29999, "SORDAT": "20140818", "SORIND": "US,US,graph,GC-11187" }, "geometry": { "type": "LineString", "coordinates": [ [ -71.3605207, 41.4837293 ], [ -71.3604706, 41.4837664 ], [ -71.3604111, 41.4837995 ], [ -71.3603812, 41.4838203 ], [ -71.360363, 41.4838636 ], [ -71.3603353, 41.4839423 ], [ -71.3603217, 41.4839734 ], [ -71.3602066, 41.4840394 ], [ -71.3601877, 41.4840622 ], [ -71.3601666, 41.4840761 ], [ -71.3601702, 41.484095 ], [ -71.3601822, 41.4841825 ], [ -71.360194, 41.4842512 ], [ -71.3601961, 41.4843091 ], [ -71.360193, 41.484343 ], [ -71.3601714, 41.4844015 ], [ -71.3601579, 41.4844695 ], [ -71.3601576, 41.484515 ], [ -71.3601643, 41.4845513 ], [ -71.3601757, 41.4845789 ], [ -71.3601899, 41.4846051 ], [ -71.3602046, 41.484626 ], [ -71.3602581, 41.4846421 ], [ -71.3603137, 41.4846536 ] ] } },
{ "type": "Feature", "properties": { "RCID": 1405, "PRIM": 2, "GRUP": 2, "OBJL": 126, "RVER": 1, "AGEN": 550, "FIDN": 62144833, "FIDS": 8691, "LNAM": "022603B4414121F3", "CATSLO": 6, "SCAMIN": 29999, "SORDAT": "20140818", "SORIND": "US,US,graph,GC-11187" }, "geometry": { "type": "LineString", "coordinates": [ [ -71.3997083, 41.4890266 ], [ -71.3997492, 41.4890444 ], [ -71.3997962, 41.4890595 ], [ -71.3998553, 41.4890693 ], [ -71.3998969, 41.4890614 ], [ -71.3999589, 41.4890101 ], [ -71.3999957, 41.4889899 ], [ -71.4, 41.4889885 ] ] } },
{ "type": "Feature", "properties": { "RCID": 1406, "PRIM": 2, "GRUP": 2, "OBJL": 126, "RVER": 1, "AGEN": 550, "FIDN": 756655293, "FIDS": 8691, "LNAM": "02262D19A4BD21F3", "CATSLO": 6, "SCAMIN": 29999, "SORDAT": "20140818", "SORIND": "US,US,graph,GC-11187" }, "geometry": { "type": "LineString", "coordinates": [ [ -71.3736635, 41.4754747 ], [ -71.3736583, 41.4753554 ], [ -71.3736498, 41.4753125 ], [ -71.3736367, 41.4753057 ], [ -71.3736143, 41.4753024 ], [ -71.3735409, 41.4753019 ], [ -71.3734976, 41.4753023 ], [ -71.3734666, 41.4753104 ], [ -71.373449, 41.4753228 ], [ -71.3734068, 41.4753461 ], [ -71.3733781, 41.4753545 ], [ -71.3733505, 41.4753603 ], [ -71.3733069, 41.4753599 ], [ -71.3732024, 41.4753468 ] ] } },
{ "type": "Feature", "properties": { "RCID": 1407, "PRIM": 2, "GRUP": 2, "OBJL": 126, "RVER": 1, "AGEN": 550, "FIDN": 468547599, "FIDS": 8691, "LNAM": "02261BED780F21F3", "CATSLO": 6, "SCAMIN": 29999, "SORDAT": "20140818", "SORIND": "US,US,graph,GC-11187" }, "geometry": { "type": "LineString", "coordinates": [ [ -71.3922542, 41.5212713 ], [ -71.3922004, 41.5215105 ], [ -71.3921831, 41.5216272 ], [ -71.3921842, 41.5217081 ], [ -71.3921881, 41.5217272 ], [ -71.3921957, 41.5217461 ], [ -71.3922496, 41.5218322 ], [ -71.3922829, 41.5219144 ], [ -71.3922951, 41.5219447 ], [ -71.3922962, 41.52196 ], [ -71.3922853, 41.521985 ], [ -71.3922809, 41.5220683 ], [ -71.3922781, 41.5221393 ], [ -71.3922879, 41.5222469 ], [ -71.3923056, 41.5223667 ], [ -71.392326, 41.5224648 ], [ -71.3923274, 41.5225218 ], [ -71.3923159, 41.5226197 ], [ -71.3922955, 41.5227148 ], [ -71.3922763, 41.5227782 ], [ -71.3922579, 41.5228908 ], [ -71.3922555, 41.5229629 ], [ -71.3922568, 41.5231225 ], [ -71.3922533, 41.523301 ], [ -71.3922493, 41.523488 ], [ -71.392232, 41.5236429 ], [ -71.3922111, 41.5237739 ], [ -71.3921992, 41.5238993 ], [ -71.3921664, 41.5241239 ], [ -71.3921409, 41.5243704 ], [ -71.3921268, 41.524515 ], [ -71.3921012, 41.5246542 ], [ -71.3920761, 41.5247456 ], [ -71.3920537, 41.5248149 ], [ -71.3919505, 41.5249956 ], [ -71.3918848, 41.5251626 ], [ -71.3918124, 41.525411 ], [ -71.3917109, 41.525684 ], [ -71.3916461, 41.5258615 ], [ -71.3915783, 41.5260465 ] ] } },
{ "type": "Feature", "properties": { "RCID": 1408, "PRIM": 2, "GRUP": 2, "OBJL": 126, "RVER": 1, "AGEN": 550, "FIDN": 669795760, "FIDS": 8691, "LNAM": "022627EC45B021F3", "CATSLO": 6, "SCAMIN": 29999, "SORDAT": "20140818", "SORIND": "US,US,graph,GC-11187" }, "geometry": { "type": "LineString", "coordinates": [ [ -71.3738559, 41.475 ], [ -71.3738488, 41.4750061 ], [ -71.3737945, 41.4750608 ] ] } },
{ "type": "Feature", "properties": { "RCID": 1409, "PRIM": 2, "GRUP": 2, "OBJL": 126, "RVER": 1, "AGEN": 550, "FIDN": 915340657, "FIDS": 8691, "LNAM": "0226368EFD7121F3", "CATSLO": 6, "SCAMIN": 29999, "SORDAT": "20140818", "SORIND": "US,US,graph,GC-11187" }, "geometry": { "type": "LineString", "coordinates": [ [ -71.3428827, 41.475 ], [ -71.3428736, 41.4750046 ], [ -71.3427434, 41.4750588 ], [ -71.3425505, 41.4751296 ], [ -71.3423527, 41.4752213 ], [ -71.3422188, 41.4753093 ], [ -71.3421031, 41.4754042 ], [ -71.3419984, 41.4755248 ], [ -71.3419297, 41.4756327 ], [ -71.3419204, 41.475661 ], [ -71.3419272, 41.4756848 ], [ -71.3419603, 41.4757085 ], [ -71.3420127, 41.475741 ], [ -71.3420155, 41.4757622 ], [ -71.3420092, 41.4758089 ], [ -71.3419828, 41.4758496 ], [ -71.3419455, 41.4758971 ], [ -71.3419222, 41.47594 ], [ -71.3419004, 41.4759634 ], [ -71.3418647, 41.4759816 ], [ -71.3418455, 41.4759954 ], [ -71.3418384, 41.476016 ] ] } },
{ "type": "Feature", "properties": { "RCID": 1410, "PRIM": 2, "GRUP": 2, "OBJL": 126, "RVER": 1, "AGEN": 550, "FIDN": 583908517, "FIDS": 8691, "LNAM": "022622CDBCA521F3", "CATSLO": 6, "SCAMIN": 29999, "SORDAT": "20140818", "SORIND": "US,US,graph,GC-11187" }, "geometry": { "type": "LineString", "coordinates": [ [ -71.3304609, 41.5071452 ], [ -71.3305133, 41.5072069 ], [ -71.3305777, 41.5072876 ], [ -71.3306128, 41.5073291 ], [ -71.3306272, 41.5073583 ], [ -71.3306486, 41.5074471 ], [ -71.330653, 41.5075499 ], [ -71.3306314, 41.5076265 ], [ -71.3306056, 41.5076836 ], [ -71.3305741, 41.5077635 ], [ -71.3305279, 41.5078215 ], [ -71.3304563, 41.5079256 ], [ -71.3303505, 41.5081003 ], [ -71.3303271, 41.5082045 ], [ -71.3303207, 41.5084039 ], [ -71.3303078, 41.5085699 ], [ -71.3302521, 41.5088779 ], [ -71.3302058, 41.5092353 ] ] } }
]
}
