{
"type": "FeatureCollection",
"name": "SOUNDG",
"crs": { "type": "name", "properties": { "name": "urn:ogc:def:crs:OGC:1.3:CRS84" } },
"features": [
{ "type": "Feature", "properties": { "RCID": 2520, "PRIM": 1, "GRUP": 2, "OBJL": 129, "RVER": 1, "AGEN": 550, "FIDN": -1990607187, "FIDS": 48674, "LNAM": "02268959BEADBE22", "SCAMIN": 29999, "SORDAT": "19950101", "SORIND": "US,US,graph,H-10641" }, "geometry": { "type": "MultiPoint", "coordinates": [ [ -71.3999284, 41.4973705, 12.2 ], [ -71.3998635, 41.4800433, 10.0 ], [ -71.3998556, 41.4759365, 13.4 ], [ -71.399766, 41.5176204, 24.9 ], [ -71.3996907, 41.4779574, 13.0 ], [ -71.3996294, 41.4840831, 5.8 ], [ -71.3994533, 41.5208332, 26.6 ], [ -71.3991317, 41.4965585, 14.7 ], [ -71.3991308, 41.4822562, 6.3 ], [ -71.399109, 41.4998373, 13.5 ], [ -71.3988476, 41.4797763, 8.9 ], [ -71.3988213, 41.5231881, 22.3 ], [ -71.3984823, 41.5101178, 9.0 ], [ -71.398369, 41.5161365, 20.0 ], [ -71.3982494, 41.5128966, 13.5 ], [ -71.3978761, 41.4975934, 10.0 ], [ -71.3975947, 41.5185303, 19.7 ], [ -71.3968697, 41.5157714, 11.5 ], [ -71.3962653, 41.4993923, 11.5 ], [ -71.3961458, 41.4961524, 8.1 ], [ -71.3955962, 41.5202292, 14.4 ], [ -71.3954837, 41.5106847, 6.3 ], [ -71.3954593, 41.5178183, 12.0 ], [ -71.3952249, 41.5023681, 8.1 ], [ -71.3950221, 41.5098657, 4.8 ], [ -71.3948393, 41.5010071, 13.0 ], [ -71.394402, 41.4982422, 7.2 ], [ -71.3942099, 41.5190332, 8.1 ], [ -71.3937402, 41.5049929, 5.2 ], [ -71.3934492, 41.5153023, 8.5 ], [ -71.3932889, 41.5083527, 6.0 ], [ -71.3928324, 41.5102716, 7.3 ], [ -71.3927591, 41.500474, 8.8 ], [ -71.3924916, 41.5127284, 10.0 ], [ -71.3921174, 41.5051708, 13.5 ], [ -71.3921071, 41.5022889, 8.9 ], [ -71.3916195, 41.4981561, 5.7 ], [ -71.3908893, 41.5069616, 6.5 ], [ -71.3908836, 41.5002969, 5.9 ], [ -71.3907127, 41.5047677, 6.1 ] ] } },
{ "type": "Feature", "properties": { "RCID": 2521, "PRIM": 1, "GRUP": 2, "OBJL": 129, "RVER": 1, "AGEN": 550, "FIDN": -1350865969, "FIDS": 48674, "LNAM": "0226AF7B6BCFBE22", "EXPSOU": 3, "SCAMIN": 29999, "SORDAT": "19950101", "SORIND": "US,US,graph,H-10641" }, "geometry": { "type": "MultiPoint", "coordinates": [ [ -71.3976012, 41.5213042, 20.3 ], [ -71.3943084, 41.503504, 10.4 ], [ -71.3942615, 41.521734, 10.1 ] ] } },
{ "type": "Feature", "properties": { "RCID": 2522, "PRIM": 1, "GRUP": 2, "OBJL": 129, "RVER": 1, "AGEN": 550, "FIDN": 697217670, "FIDS": 48674, "LNAM": "0226298EB286BE22", "SCAMIN": 29999, "SORDAT": "20040728", "SORIND": "US,US,graph,H-11310" }, "geometry": { "type": "MultiPoint", "coordinates": [ [ -71.3999898, 41.5379342, 9.5 ], [ -71.3999034, 41.5433759, 9.1 ], [ -71.3995612, 41.5354214, 10.0 ], [ -71.3994283, 41.5499785, 11.3 ], [ -71.3993736, 41.5446119, 12.5 ], [ -71.3993378, 41.5475307, 16.3 ], [ -71.3990543, 41.5489416, 16.5 ], [ -71.3990289, 41.5391792, 10.8 ], [ -71.3988319, 41.5338515, 11.6 ], [ -71.3986842, 41.5311526, 8.9 ], [ -71.3986509, 41.5289558, 8.6 ], [ -71.3986203, 41.5462848, 16.8 ], [ -71.3984513, 41.54301, 13.0 ], [ -71.3979601, 41.5478837, 14.5 ], [ -71.3973012, 41.5495186, 9.4 ], [ -71.3972682, 41.5343524, 20.0 ], [ -71.3971415, 41.5451988, 12.5 ], [ -71.3969313, 41.5408081, 15.3 ], [ -71.3966735, 41.5299337, 20.0 ], [ -71.3963629, 41.5435939, 12.5 ], [ -71.395853, 41.5479636, 8.0 ], [ -71.395817, 41.5495856, 8.6 ], [ -71.3956341, 41.5329455, 20.8 ], [ -71.3955469, 41.5461687, 8.6 ], [ -71.3954448, 41.5382092, 18.5 ], [ -71.395195, 41.5314416, 16.6 ], [ -71.3951259, 41.5295697, 12.9 ], [ -71.3948403, 41.5426169, 12.7 ], [ -71.3946625, 41.5339024, 9.3 ], [ -71.3946132, 41.5351643, 12.5 ], [ -71.3946019, 41.5452518, 12.0 ], [ -71.3943887, 41.5498675, 11.1 ], [ -71.3943369, 41.5484636, 11.8 ], [ -71.3942493, 41.5253009, 10.0 ], [ -71.3940686, 41.539895, 13.5 ], [ -71.3939517, 41.5367272, 8.2 ], [ -71.3933094, 41.5310125, 10.1 ], [ -71.393087, 41.5327824, 12.4 ], [ -71.3929648, 41.5294706, 8.2 ], [ -71.3929051, 41.5278506, 8.2 ], [ -71.3928303, 41.5453247, 14.8 ], [ -71.3927573, 41.5433448, 5.5 ], [ -71.3925514, 41.539062, 6.4 ], [ -71.3922311, 41.5485795, 12.6 ], [ -71.3920917, 41.5447997, 7.9 ], [ -71.3919847, 41.5366961, 5.4 ], [ -71.3916723, 41.5334243, 7.7 ], [ -71.3916406, 41.5312634, 7.0 ], [ -71.3912495, 41.5297584, 2.9 ], [ -71.3910031, 41.5321773, 4.7 ], [ -71.3905643, 41.5397879, 4.6 ], [ -71.3893983, 41.5497912, 6.0 ] ] } },
{ "type": "Feature", "properties": { "RCID": 2523, "PRIM": 1, "GRUP": 2, "OBJL": 129, "RVER": 1, "AGEN": 550, "FIDN": 1626848342, "FIDS": 48674, "LNAM": "022660F7BC56BE22", "SCAMIN": 29999, "SORDAT": "20050401", "SORIND": "US,US,graph,Chart 13223" }, "geometry": { "type": "MultiPoint", "coordinates": [ [ -71.3992366, 41.5084809, 7.0 ], [ -71.3992197, 41.487262, 3.3 ], [ -71.3988337, 41.4988704, 9.1 ], [ -71.3982553, 41.4948836, 2.4 ], [ -71.3980765, 41.4783514, 7.3 ], [ -71.3966372, 41.5081748, 6.0 ], [ -71.3958497, 41.5089118, 4.8 ], [ -71.3956199, 41.523471, 10.3 ], [ -71.3952175, 41.5125636, 8.5 ], [ -71.3951395, 41.5065489, 4.5 ], [ -71.3948755, 41.5136875, 10.6 ], [ -71.3944304, 41.5237119, 7.6 ], [ -71.3937146, 41.522502, 3.0 ], [ -71.3936068, 41.4961693, 5.7 ], [ -71.3929381, 41.4936254, 2.7 ], [ -71.3922134, 41.5142833, 2.7 ], [ -71.3915667, 41.4954192, 4.5 ], [ -71.3900479, 41.5114463, 4.8 ], [ -71.3897938, 41.5032377, 4.2 ], [ -71.3891155, 41.495218, 4.2 ], [ -71.3890259, 41.4979938, 4.5 ], [ -71.389, 41.5012007, 4.2 ], [ -71.3886346, 41.5472853, 2.7 ], [ -71.3878712, 41.5434824, 2.7 ], [ -71.387578, 41.5459383, 1.2 ], [ -71.3873085, 41.5060273, 4.5 ], [ -71.3869754, 41.4956587, 3.0 ], [ -71.38695, 41.5445103, 1.2 ], [ -71.386578, 41.5409155, 0.3 ], [ -71.3861866, 41.548525, 0.9 ], [ -71.3853768, 41.506932, 4.2 ], [ -71.3853655, 41.5040141, 4.2 ], [ -71.3853537, 41.5089139, 2.4 ], [ -71.3840197, 41.502601, 4.5 ], [ -71.3830705, 41.4858686, 2.1 ], [ -71.3823733, 41.5060576, 2.7 ], [ -71.3807436, 41.4851243, 2.4 ], [ -71.3652676, 41.4943061, 3.3 ], [ -71.3647978, 41.4971979, 4.5 ], [ -71.3640745, 41.5405159, 1.5 ], [ -71.3636064, 41.5131819, 4.8 ], [ -71.3634274, 41.5385478, 4.5 ], [ -71.3634238, 41.5160677, 4.8 ], [ -71.3633092, 41.4931575, 7.0 ], [ -71.363213, 41.4984193, 7.0 ], [ -71.3631049, 41.5178396, 0.3 ], [ -71.3630472, 41.5425905, 0.9 ], [ -71.3629583, 41.5348828, 2.1 ], [ -71.3621358, 41.5004229, 3.3 ], [ -71.3619359, 41.5146933, 8.2 ], [ -71.361719, 41.5192731, 1.2 ], [ -71.3615534, 41.5318495, 2.7 ], [ -71.361377, 41.4927289, 13.7 ], [ -71.3612911, 41.5206869, 1.2 ], [ -71.3612624, 41.4908939, 7.9 ], [ -71.3611104, 41.4893479, 4.8 ], [ -71.3610098, 41.5261325, 0.3 ], [ -71.3609355, 41.4990425, 12.1 ], [ -71.3609347, 41.5293404, 2.4 ], [ -71.3609136, 41.5221717, 0.9 ], [ -71.3607757, 41.5236516, 1.8 ], [ -71.3606369, 41.5132429, 10.0 ], [ -71.3595061, 41.4900294, 14.6 ], [ -71.3594791, 41.501162, 7.9 ], [ -71.3588436, 41.4862962, 4.5 ], [ -71.3581816, 41.4838961, 0.3 ], [ -71.3579328, 41.5021304, 12.4 ], [ -71.3578298, 41.511175, 3.9 ], [ -71.3577789, 41.5137339, 11.2 ], [ -71.3571971, 41.4844927, 3.0 ], [ -71.3567562, 41.4855465, 8.2 ], [ -71.3554206, 41.484385, 7.6 ], [ -71.3543491, 41.4839026, 3.3 ], [ -71.3542329, 41.4846615, 10.9 ], [ -71.3537041, 41.4912291, 31.3 ], [ -71.3462335, 41.5351174, 0.6 ], [ -71.3461075, 41.5329584, 0.3 ], [ -71.3456784, 41.5303733, 0.3 ], [ -71.3450489, 41.528873, 0.9 ], [ -71.3431884, 41.5291271, 0.6 ], [ -71.3428951, 41.5342848, 0.3 ], [ -71.3426502, 41.5328128, 0.3 ], [ -71.3399985, 41.5018123, 0.9 ], [ -71.3399129, 41.4994364, 1.2 ], [ -71.3377088, 41.4981122, 0.9 ], [ -71.3293027, 41.5175928, 0.3 ], [ -71.328978, 41.5152217, 0.9 ], [ -71.3279885, 41.519709, 0.3 ], [ -71.3277216, 41.5216238, 0.6 ], [ -71.3276045, 41.5156818, 2.4 ], [ -71.326947, 41.5147224, 0.3 ], [ -71.3260262, 41.5171188, 0.6 ], [ -71.3259566, 41.5151748, 2.7 ], [ -71.3257167, 41.4763434, 1.2 ], [ -71.3256073, 41.5228194, 0.6 ] ] } },
{ "type": "Feature", "properties": { "RCID": 2524, "PRIM": 1, "GRUP": 2, "OBJL": 129, "RVER": 1, "AGEN": 550, "FIDN": 693226498, "FIDS": 48674, "LNAM": "02262951CC02BE22", "SCAMIN": 29999, "SORDAT": "20110919", "SORIND": "US,US,graph,H-11930" }, "geometry": { "type": "MultiPoint", "coordinates": [ [ -71.396679, 41.52489, 6.8 ], [ -71.3840643, 41.4842268, 2.1 ], [ -71.3839125, 41.480087, 4.7 ], [ -71.3825358, 41.4817367, 5.7 ], [ -71.3823393, 41.4763729, 7.2 ], [ -71.3818292, 41.4833725, 4.3 ], [ -71.3816793, 41.4779717, 9.7 ], [ -71.3815817, 41.4753078, 9.0 ], [ -71.3810404, 41.4801465, 7.6 ], [ -71.3807372, 41.4757936, 11.9 ], [ -71.3802828, 41.4790814, 9.0 ], [ -71.3797707, 41.4834151, 4.3 ], [ -71.3797114, 41.4817952, 6.0 ], [ -71.3794576, 41.4774773, 10.8 ], [ -71.3789143, 41.4796501, 8.5 ], [ -71.3774164, 41.4779879, 4.4 ], [ -71.3766673, 41.4758418, 3.7 ], [ -71.3718951, 41.4763367, 5.4 ], [ -71.3712604, 41.4773225, 4.4 ], [ -71.3695352, 41.475989, 2.6 ], [ -71.3686958, 41.4766188, 11.9 ], [ -71.3679582, 41.4760936, 16.4 ], [ -71.3658717, 41.4766769, 13.3 ], [ -71.365117, 41.4756837, 20.0 ], [ -71.3632384, 41.4753981, 32.0 ], [ -71.3628403, 41.476307, 20.0 ], [ -71.362307, 41.4787677, 1.7 ], [ -71.3617954, 41.5437691, 4.5 ], [ -71.3617155, 41.5415731, 8.9 ], [ -71.361582, 41.544494, 2.0 ], [ -71.361161, 41.4762334, 28.8 ], [ -71.3611166, 41.4750094, 34.0 ], [ -71.3610767, 41.5437838, 7.5 ], [ -71.3605297, 41.5458846, 1.2 ], [ -71.3600763, 41.4780209, 9.8 ], [ -71.3596342, 41.5476322, 1.6 ], [ -71.3592349, 41.549838, 1.9 ], [ -71.3590382, 41.547068, 8.9 ], [ -71.359007, 41.4762776, 34.3 ], [ -71.3589989, 41.5459881, 12.5 ], [ -71.3587246, 41.4750945, 35.0 ], [ -71.3583587, 41.5481627, 11.9 ], [ -71.3576006, 41.5470975, 18.2 ], [ -71.3569361, 41.4772928, 20.0 ], [ -71.3568484, 41.5065838, 12.8 ], [ -71.356502, 41.549858, 20.0 ], [ -71.3562293, 41.5093345, 14.1 ], [ -71.356184, 41.547703, 20.2 ], [ -71.3557999, 41.4763434, 32.4 ], [ -71.3541591, 41.4799796, 20.0 ], [ -71.354133, 41.5493302, 19.1 ], [ -71.3540396, 41.4780006, 27.5 ], [ -71.3540167, 41.5461262, 18.7 ], [ -71.3528253, 41.480187, 14.4 ], [ -71.3526335, 41.478858, 36.8 ], [ -71.3525384, 41.47623, 41.2 ], [ -71.3520199, 41.4830856, 2.2 ], [ -71.3516125, 41.4837424, 20.0 ], [ -71.3515911, 41.4805005, 28.3 ], [ -71.3512948, 41.5477671, 17.0 ], [ -71.3509355, 41.4994636, 36.7 ], [ -71.3507501, 41.5499398, 16.0 ], [ -71.3506629, 41.483978, 46.3 ], [ -71.3505548, 41.48099, 42.2 ], [ -71.3505348, 41.5387041, 18.7 ], [ -71.3504276, 41.5450108, 17.9 ], [ -71.3496997, 41.5341819, 17.9 ], [ -71.3493026, 41.4755036, 48.8 ], [ -71.3492743, 41.5422965, 18.3 ], [ -71.3491242, 41.4891252, 38.6 ], [ -71.3489423, 41.4787894, 48.7 ], [ -71.348795, 41.4932749, 39.9 ], [ -71.3487094, 41.5465591, 16.3 ], [ -71.3485187, 41.4829771, 47.0 ], [ -71.3484602, 41.4813571, 51.3 ], [ -71.3484157, 41.4854289, 44.4 ], [ -71.3483278, 41.5373442, 17.6 ], [ -71.3481186, 41.5024033, 39.2 ], [ -71.3480334, 41.5292084, 18.7 ], [ -71.3478977, 41.4976164, 40.3 ], [ -71.3476275, 41.5444917, 17.2 ], [ -71.3473734, 41.5493964, 15.1 ], [ -71.3472017, 41.5062048, 34.4 ], [ -71.3471751, 41.5359628, 10.7 ], [ -71.3470917, 41.5336588, 10.0 ], [ -71.3470006, 41.5311389, 10.6 ], [ -71.3464121, 41.5413822, 18.3 ], [ -71.346293, 41.4810411, 45.8 ], [ -71.3458191, 41.5276324, 14.6 ], [ -71.3457286, 41.5131879, 29.3 ], [ -71.3455323, 41.4904954, 38.0 ], [ -71.3453977, 41.5464826, 14.9 ], [ -71.345353, 41.4855275, 36.7 ], [ -71.3453467, 41.5437457, 15.0 ], [ -71.3450309, 41.4765996, 29.3 ], [ -71.344952, 41.5049537, 25.8 ], [ -71.3448543, 41.5009208, 28.2 ], [ -71.3446452, 41.4951249, 20.0 ], [ -71.3444956, 41.4989467, 20.0 ], [ -71.3439604, 41.5398831, 12.1 ], [ -71.3438696, 41.5386961, 4.1 ], [ -71.343714, 41.4998633, 12.8 ], [ -71.3436673, 41.5370791, 2.2 ], [ -71.3436376, 41.4764839, 20.0 ], [ -71.3435984, 41.4966593, 7.4 ], [ -71.3435675, 41.5276784, 7.8 ], [ -71.3435004, 41.5098829, 26.9 ], [ -71.3434595, 41.4928074, 25.1 ], [ -71.3432947, 41.4882354, 31.8 ], [ -71.3431402, 41.4839514, 33.5 ], [ -71.3430967, 41.5491594, 12.2 ], [ -71.3430931, 41.5025779, 17.5 ], [ -71.3430306, 41.499517, 4.0 ], [ -71.3429936, 41.4798835, 27.9 ], [ -71.3429178, 41.497718, 3.4 ], [ -71.3428658, 41.5374557, 10.0 ], [ -71.3424551, 41.5260799, 29.4 ], [ -71.3422172, 41.4782781, 18.2 ], [ -71.3421783, 41.4771981, 8.9 ], [ -71.3421016, 41.5016614, 0.9 ], [ -71.3420597, 41.5430201, 11.6 ], [ -71.3420205, 41.5180189, 31.3 ], [ -71.3418794, 41.5406821, 12.4 ], [ -71.3418259, 41.5139519, 29.3 ], [ -71.3417311, 41.5352452, 18.0 ], [ -71.3414519, 41.5275053, 19.9 ], [ -71.3413868, 41.4804926, 20.0 ], [ -71.3413796, 41.504234, 10.4 ], [ -71.3413751, 41.5466367, 12.4 ], [ -71.3413048, 41.4915183, 20.0 ], [ -71.3412739, 41.4933202, 10.1 ], [ -71.3411882, 41.4896113, 24.2 ], [ -71.3411239, 41.4944761, 3.2 ], [ -71.3410637, 41.4861553, 23.8 ], [ -71.3409463, 41.4908771, 16.3 ], [ -71.3407976, 41.5226552, 30.7 ], [ -71.3404518, 41.5064145, 19.5 ], [ -71.3404495, 41.5382615, 15.3 ], [ -71.3403877, 41.5285718, 32.5 ], [ -71.3401797, 41.481562, 14.7 ], [ -71.3399023, 41.544361, 13.0 ], [ -71.3398729, 41.5342383, 24.4 ], [ -71.3398595, 41.4939615, 2.3 ], [ -71.3397933, 41.510751, 25.5 ], [ -71.3397367, 41.5317913, 25.9 ], [ -71.3395599, 41.504271, 13.5 ], [ -71.3389572, 41.4875312, 19.0 ], [ -71.3389193, 41.5064456, 18.4 ], [ -71.3387824, 41.4826712, 9.8 ], [ -71.3386976, 41.5415395, 14.2 ], [ -71.3386705, 41.5008667, 2.5 ], [ -71.3384101, 41.4922977, 11.2 ], [ -71.3382123, 41.5254097, 32.0 ], [ -71.3378692, 41.5478248, 13.9 ], [ -71.3378641, 41.4957674, 3.4 ], [ -71.3376754, 41.503841, 2.9 ], [ -71.3375016, 41.4896863, 14.3 ], [ -71.3374433, 41.4854004, 17.4 ], [ -71.33741, 41.535081, 28.3 ], [ -71.3373372, 41.4837814, 12.5 ], [ -71.3373231, 41.532669, 34.1 ], [ -71.3372599, 41.5016159, 8.6 ], [ -71.3372258, 41.5286361, 33.5 ], [ -71.3370556, 41.5105905, 11.6 ], [ -71.3370333, 41.4966489, 2.0 ], [ -71.3370267, 41.4938029, 4.9 ], [ -71.3369933, 41.5048636, 13.7 ], [ -71.3369342, 41.5205362, 32.0 ], [ -71.3368474, 41.5181242, 24.5 ], [ -71.336763, 41.5064535, 12.7 ], [ -71.3365247, 41.5011625, 10.5 ], [ -71.3364911, 41.5028924, 11.8 ], [ -71.3363962, 41.5375514, 26.8 ], [ -71.3363849, 41.4972745, 3.9 ], [ -71.3363567, 41.515144, 19.0 ], [ -71.3362736, 41.4995104, 9.6 ], [ -71.3362596, 41.512444, 17.4 ], [ -71.3361209, 41.4872646, 16.3 ], [ -71.335788, 41.5499566, 15.1 ], [ -71.3357094, 41.4918123, 12.4 ], [ -71.3356324, 41.5456367, 17.0 ], [ -71.3356058, 41.4955971, 10.7 ], [ -71.3355994, 41.5087468, 8.1 ], [ -71.3355456, 41.5432247, 18.3 ], [ -71.3352734, 41.5343319, 32.5 ], [ -71.335241, 41.4854451, 14.9 ], [ -71.3349794, 41.5261599, 31.6 ], [ -71.3349497, 41.4973397, 12.7 ], [ -71.334938, 41.4996816, 11.3 ], [ -71.3348322, 41.4834, 13.1 ], [ -71.3346184, 41.5481071, 17.1 ], [ -71.3346017, 41.4889887, 16.4 ], [ -71.3344733, 41.5067522, 8.2 ], [ -71.3344591, 41.5050232, 8.5 ], [ -71.3344138, 41.5010973, 11.5 ], [ -71.3343372, 41.5189678, 17.3 ], [ -71.3342127, 41.4768197, 3.6 ], [ -71.3341481, 41.4750197, 4.6 ], [ -71.3340653, 41.5314023, 31.0 ], [ -71.3340461, 41.5108678, 12.1 ], [ -71.3339283, 41.5089248, 9.3 ], [ -71.3338207, 41.5205994, 20.4 ], [ -71.3336976, 41.4811533, 10.6 ], [ -71.3335942, 41.5169654, 2.7 ], [ -71.3334921, 41.5074566, 10.1 ], [ -71.3334834, 41.4978738, 10.8 ], [ -71.333376, 41.4962188, 15.8 ], [ -71.3332753, 41.5440994, 20.5 ], [ -71.3332546, 41.5408575, 22.8 ], [ -71.3332041, 41.5367876, 28.1 ], [ -71.333107, 41.4940627, 16.7 ], [ -71.3330583, 41.5153911, 7.4 ], [ -71.3329974, 41.4856708, 15.8 ], [ -71.3329603, 41.5033244, 2.5 ], [ -71.3329466, 41.5296237, 29.0 ], [ -71.3328712, 41.4995074, 6.8 ], [ -71.3328541, 41.4790089, 7.6 ], [ -71.3327054, 41.4775348, 4.5 ], [ -71.3326843, 41.512985, 12.4 ], [ -71.3325449, 41.545123, 19.6 ], [ -71.3325214, 41.507116, 9.3 ], [ -71.3325008, 41.4811776, 9.3 ], [ -71.3324859, 41.4914454, 15.6 ], [ -71.3324723, 41.5497718, 18.2 ], [ -71.3322702, 41.5481547, 19.2 ], [ -71.3322546, 41.5103638, 9.8 ], [ -71.3320418, 41.4763954, 5.2 ], [ -71.3316957, 41.5054756, 12.4 ], [ -71.3315625, 41.5031006, 13.0 ], [ -71.3315537, 41.5215461, 18.2 ], [ -71.3314152, 41.4989966, 13.5 ], [ -71.3312336, 41.4872557, 12.9 ], [ -71.3311566, 41.5425213, 22.2 ], [ -71.3311063, 41.5384514, 24.8 ], [ -71.3309912, 41.5352474, 25.8 ], [ -71.3309564, 41.4755168, 4.8 ], [ -71.3309388, 41.4843796, 13.6 ], [ -71.3309092, 41.5182808, 1.3 ], [ -71.3308925, 41.4817506, 10.2 ], [ -71.3308006, 41.5165898, 2.2 ], [ -71.330699, 41.5271114, 24.9 ], [ -71.33067, 41.4969222, 15.9 ], [ -71.3305839, 41.5239075, 22.4 ], [ -71.330569, 41.5141447, 5.8 ], [ -71.3304664, 41.5192985, 3.3 ], [ -71.3304453, 41.4906582, 10.0 ], [ -71.3302396, 41.5049647, 7.9 ], [ -71.3301815, 41.5033447, 10.0 ], [ -71.3301504, 41.5211783, 6.8 ], [ -71.3301053, 41.5012207, 12.2 ], [ -71.3299911, 41.4779862, 7.1 ], [ -71.3299091, 41.4957487, 13.1 ], [ -71.3298149, 41.4931207, 11.0 ], [ -71.3297444, 41.5312377, 21.7 ], [ -71.32966, 41.4888007, 6.6 ], [ -71.3293633, 41.5206178, 2.0 ], [ -71.3293123, 41.4978143, 10.9 ], [ -71.3292227, 41.547424, 21.4 ], [ -71.3291341, 41.4941793, 7.2 ], [ -71.329083, 41.544869, 21.9 ], [ -71.3290498, 41.5225696, 0.9 ], [ -71.3289886, 41.4874453, 1.2 ], [ -71.3287023, 41.5021858, 5.5 ], [ -71.3286543, 41.491487, 1.2 ], [ -71.3286287, 41.5001338, 9.1 ], [ -71.3284864, 41.5255711, 19.4 ], [ -71.3283785, 41.4931498, 4.7 ], [ -71.3283245, 41.4796051, 5.5 ], [ -71.3280136, 41.5417924, 22.3 ], [ -71.3278791, 41.5393814, 21.3 ], [ -71.3278202, 41.4775618, 4.7 ], [ -71.3277913, 41.5369334, 20.0 ], [ -71.327757, 41.4958644, 7.6 ], [ -71.3276802, 41.5338374, 18.8 ], [ -71.3276482, 41.5302715, 17.8 ], [ -71.3275749, 41.5028211, 2.6 ], [ -71.3274685, 41.5279334, 18.7 ], [ -71.3273265, 41.5239735, 13.4 ], [ -71.3272878, 41.5228935, 4.2 ], [ -71.3271386, 41.4759184, 4.2 ], [ -71.3271161, 41.4980389, 8.5 ], [ -71.3267892, 41.4942628, 5.0 ], [ -71.3266148, 41.4920687, 1.4 ], [ -71.3263942, 41.4792118, 5.5 ], [ -71.3261297, 41.4905655, 4.6 ], [ -71.326032, 41.5426971, 20.4 ], [ -71.3258984, 41.544321, 21.6 ], [ -71.3258964, 41.4853824, 2.8 ], [ -71.3257813, 41.5490788, 22.9 ], [ -71.3257182, 41.499148, 7.4 ], [ -71.325434, 41.4804922, 5.4 ], [ -71.3253351, 41.5339569, 16.7 ], [ -71.3252986, 41.5463146, 21.8 ], [ -71.3252825, 41.4963468, 6.1 ], [ -71.3252371, 41.5312209, 15.7 ], [ -71.3252234, 41.4786231, 4.9 ], [ -71.3252063, 41.529024, 14.6 ], [ -71.3251708, 41.5240171, 8.3 ], [ -71.3251336, 41.5403736, 18.1 ], [ -71.3250512, 41.5367367, 17.2 ] ] } },
{ "type": "Feature", "properties": { "RCID": 2525, "PRIM": 1, "GRUP": 2, "OBJL": 129, "RVER": 1, "AGEN": 550, "FIDN": 1594208778, "FIDS": 48674, "LNAM": "02265F05B20ABE22", "EXPSOU": 3, "SCAMIN": 29999, "SORDAT": "20110919", "SORIND": "US,US,graph,H-11930" }, "geometry": { "type": "MultiPoint", "coordinates": [ [ -71.3773164, 41.475252, 10.1 ], [ -71.3707004, 41.4777303, 3.0 ], [ -71.3701404, 41.4755082, 10.2 ], [ -71.3621681, 41.4775817, 10.1 ], [ -71.3596981, 41.5454333, 10.1 ], [ -71.3594095, 41.4768097, 11.2 ], [ -71.3583967, 41.5492067, 10.4 ], [ -71.3569169, 41.4780858, 11.0 ], [ -71.3564839, 41.4793556, 2.5 ], [ -71.3548945, 41.4817658, 6.1 ], [ -71.3547291, 41.4824898, 6.1 ], [ -71.3516718, 41.4827325, 13.1 ], [ -71.3516005, 41.4820855, 20.3 ], [ -71.3462304, 41.5390082, 11.0 ], [ -71.3443349, 41.4971487, 15.1 ], [ -71.3442558, 41.4750302, 10.3 ], [ -71.3435179, 41.4944273, 17.8 ], [ -71.3416545, 41.5331212, 16.3 ], [ -71.3415467, 41.5301333, 20.1 ], [ -71.34082, 41.4793874, 10.2 ], [ -71.3395959, 41.5358651, 20.1 ], [ -71.3364831, 41.5399633, 20.2 ], [ -71.3344708, 41.5026813, 10.1 ], [ -71.3324011, 41.5464589, 20.2 ], [ -71.3314826, 41.5195661, 10.1 ], [ -71.3295736, 41.4863887, 5.9 ], [ -71.3294434, 41.5228498, 10.4 ], [ -71.3252585, 41.5264651, 15.1 ] ] } },
{ "type": "Feature", "properties": { "RCID": 2526, "PRIM": 1, "GRUP": 2, "OBJL": 129, "RVER": 1, "AGEN": 550, "FIDN": 857022201, "FIDS": 48674, "LNAM": "022633151EF9BE22", "SCAMIN": 29999, "SORDAT": "20140809", "SORIND": "US,US,graph,DD-36478" }, "geometry": { "type": "MultiPoint", "coordinates": [ [ -71.3999431, 41.4886879, 0.1 ], [ -71.3987379, 41.5014662, 0.1 ], [ -71.3976737, 41.5024972, 0.2 ], [ -71.395231, 41.4934335, 1.2 ], [ -71.3923172, 41.4923774, 0.8 ], [ -71.3866114, 41.4935768, 1.1 ], [ -71.384622, 41.4928975, 0.2 ], [ -71.3834716, 41.4876616, 1.3 ], [ -71.3828789, 41.4910964, 0.3 ], [ -71.3812657, 41.5046035, 1.8 ], [ -71.3727186, 41.4752749, 0.3 ], [ -71.3617566, 41.4873532, 0.6 ], [ -71.3603751, 41.4849318, 0.1 ], [ -71.3584823, 41.4816202, 0.2 ], [ -71.3423114, 41.4755742, 0.1 ], [ -71.3356488, 41.4754576, 0.8 ] ] } },
{ "type": "Feature", "properties": { "RCID": 2527, "PRIM": 1, "GRUP": 2, "OBJL": 129, "RVER": 1, "AGEN": 550, "FIDN": -507067008, "FIDS": 48674, "LNAM": "0226E1C6C580BE22", "SCAMIN": 29999, "SORDAT": "20060707", "SORIND": "US,US,graph,FE-00522" }, "geometry": { "type": "MultiPoint", "coordinates": [ [ -71.3624023, 41.5367316, 9.8 ], [ -71.3614835, 41.5352013, 12.9 ], [ -71.3613728, 41.5334744, 5.7 ], [ -71.3609195, 41.539464, 12.5 ], [ -71.3598645, 41.5275971, 8.1 ], [ -71.3597813, 41.5332189, 20.0 ], [ -71.3591902, 41.524873, 9.8 ], [ -71.3590847, 41.5298827, 20.0 ], [ -71.3589111, 41.5330206, 22.8 ], [ -71.3588196, 41.5410562, 17.2 ], [ -71.3587406, 41.5375633, 20.0 ], [ -71.3583028, 41.5268366, 18.5 ], [ -71.3581602, 41.5229127, 16.8 ], [ -71.3576365, 41.5282913, 20.8 ], [ -71.3572626, 41.5179955, 20.0 ], [ -71.3568728, 41.5363047, 22.4 ], [ -71.3565047, 41.5314488, 23.0 ], [ -71.3564966, 41.5417883, 20.0 ], [ -71.3564336, 41.524209, 20.8 ], [ -71.355418, 41.5266075, 24.8 ], [ -71.3552417, 41.5217476, 23.4 ], [ -71.3551295, 41.510726, 20.0 ], [ -71.3551242, 41.5185077, 23.6 ], [ -71.3546641, 41.533576, 20.7 ], [ -71.3541692, 41.5410795, 19.1 ], [ -71.3538955, 41.5137054, 28.1 ], [ -71.3538662, 41.5062846, 12.2 ], [ -71.3536784, 41.5368025, 20.1 ], [ -71.353588, 41.5290227, 23.2 ], [ -71.3528762, 41.5345132, 19.7 ], [ -71.3525722, 41.5076081, 28.4 ], [ -71.352562, 41.5271704, 22.7 ], [ -71.3523654, 41.5323261, 20.4 ], [ -71.3521507, 41.5237563, 23.6 ], [ -71.3517689, 41.5145415, 33.2 ], [ -71.3514851, 41.5331727, 20.0 ], [ -71.3511378, 41.5169682, 26.2 ], [ -71.3509317, 41.5364264, 19.0 ], [ -71.3506093, 41.5209058, 21.7 ], [ -71.3502205, 41.5300283, 21.1 ], [ -71.3495172, 41.5119216, 36.6 ], [ -71.3485062, 41.5237228, 22.6 ], [ -71.3479162, 41.5259685, 21.4 ], [ -71.346531, 41.519476, 31.3 ], [ -71.3464215, 41.5151191, 34.7 ], [ -71.3455956, 41.5227735, 26.2 ] ] } },
{ "type": "Feature", "properties": { "RCID": 2528, "PRIM": 1, "GRUP": 2, "OBJL": 129, "RVER": 1, "AGEN": 550, "FIDN": -963150126, "FIDS": 48674, "LNAM": "0226C6977ED2BE22", "SCAMIN": 29999, "SORDAT": "19950101", "SORIND": "US,US,graph,H-10616" }, "geometry": { "type": "MultiPoint", "coordinates": [ [ -71.3611384, 41.5178079, 8.1 ], [ -71.3607804, 41.4960916, 15.7 ], [ -71.3603068, 41.5423946, 13.0 ], [ -71.3596385, 41.5121466, 9.6 ], [ -71.359425, 41.498353, 20.0 ], [ -71.3593775, 41.5168354, 12.8 ], [ -71.3592694, 41.4940691, 20.0 ], [ -71.3585266, 41.543548, 18.4 ], [ -71.3576014, 41.5167637, 17.0 ], [ -71.3571274, 41.4931404, 29.4 ], [ -71.3571174, 41.4902225, 24.4 ], [ -71.3568199, 41.5440874, 20.2 ], [ -71.3561205, 41.5010507, 24.0 ], [ -71.3561095, 41.4862082, 10.2 ], [ -71.3555741, 41.5044844, 20.0 ], [ -71.3545047, 41.4987782, 34.6 ], [ -71.3541866, 41.4952901, 32.8 ], [ -71.3538554, 41.4861463, 24.9 ], [ -71.3533581, 41.4843191, 6.9 ], [ -71.35278, 41.4855559, 29.8 ], [ -71.3527596, 41.5431979, 18.8 ], [ -71.3523884, 41.5025322, 37.4 ] ] } },
{ "type": "Feature", "properties": { "RCID": 2529, "PRIM": 1, "GRUP": 2, "OBJL": 129, "RVER": 1, "AGEN": 550, "FIDN": -2092616535, "FIDS": 48674, "LNAM": "0226834534A9BE22", "EXPSOU": 1, "SCAMIN": 29999, "SORDAT": "20040728", "SORIND": "US,US,graph,H-11310" }, "geometry": { "type": "MultiPoint", "coordinates": [ [ -71.3936716, 41.5447308, 17.4 ], [ -71.3933334, 41.5459627, 16.5 ], [ -71.3931589, 41.5477316, 16.1 ], [ -71.393031, 41.5494635, 15.7 ] ] } },
{ "type": "Feature", "properties": { "RCID": 2530, "PRIM": 1, "GRUP": 2, "OBJL": 129, "RVER": 1, "AGEN": 550, "FIDN": 1528367978, "FIDS": 48674, "LNAM": "02265B190B6ABE22", "EXPSOU": 3, "SCAMIN": 29999, "SORDAT": "20040728", "SORIND": "US,US,graph,H-11310" }, "geometry": { "type": "MultiPoint", "coordinates": [ [ -71.393387, 41.540918, 10.3 ], [ -71.392174, 41.5470316, 10.2 ], [ -71.3915521, 41.5496744, 10.3 ] ] } },
{ "type": "Feature", "properties": { "RCID": 2531, "PRIM": 1, "GRUP": 2, "OBJL": 129, "RVER": 1, "AGEN": 550, "FIDN": -360916658, "FIDS": 48674, "LNAM": "0226EA7CD94EBE22", "SCAMIN": 29999, "SORDAT": "20110823", "SORIND": "US,US,graph,H-12082" }, "geometry": { "type": "MultiPoint", "coordinates": [ [ -71.3912535, 41.5415748, 4.4 ], [ -71.3905369, 41.5455525, 4.5 ], [ -71.3905145, 41.5436436, 3.2 ], [ -71.3902974, 41.5351461, 5.0 ], [ -71.3901506, 41.5480824, 4.8 ], [ -71.3891759, 41.5411497, 3.3 ], [ -71.389046, 41.5376219, 3.5 ], [ -71.3887072, 41.5427446, 3.7 ], [ -71.3886962, 41.5450504, 3.5 ], [ -71.3884828, 41.5392547, 2.5 ], [ -71.3879289, 41.5489572, 4.3 ] ] } },
{ "type": "Feature", "properties": { "RCID": 2532, "PRIM": 1, "GRUP": 2, "OBJL": 129, "RVER": 1, "AGEN": 550, "FIDN": 1645477124, "FIDS": 48674, "LNAM": "02266213FD04BE22", "SCAMIN": 29999, "SORDAT": "20200518", "SORIND": "US,US,graph,DD-36478" }, "geometry": { "type": "MultiPoint", "coordinates": [ [ -71.3264595, 41.5011144, 3.8 ], [ -71.3252544, 41.5022556, 4.3 ] ] } },
{ "type": "Feature", "properties": { "RCID": 2533, "PRIM": 1, "GRUP": 2, "OBJL": 129, "RVER": 1, "AGEN": 550, "FIDN": -2112831084, "FIDS": 48674, "LNAM": "02268210C194BE22", "EXPSOU": 1, "SCAMIN": 29999, "SORDAT": "20220608", "SORIND": "US,US,graph,DD-36478" }, "geometry": { "type": "MultiPoint", "coordinates": [ [ -71.3718531, 41.4751847, 11.1 ], [ -71.3705633, 41.4752834, 10.8 ] ] } },
{ "type": "Feature", "properties": { "RCID": 2534, "PRIM": 1, "GRUP": 2, "OBJL": 129, "RVER": 1, "AGEN": 550, "FIDN": -1611106570, "FIDS": 48674, "LNAM": "02269FF876F6BE22", "SCAMIN": 29999, "SORDAT": "20250204", "SORIND": "US,US,graph,DD-41536" }, "geometry": { "type": "MultiPoint", "coordinates": [ [ -71.3275547, 41.4813713, 5.3 ] ] } },
{ "type": "Feature", "properties": { "RCID": 2535, "PRIM": 1, "GRUP": 2, "OBJL": 129, "RVER": 1, "AGEN": 550, "FIDN": 6988005, "FIDS": 48674, "LNAM": "0226006AA0E5BE22", "SCAMIN": 29999, "SORDAT": "20150613", "SORIND": "US,US,graph,DD-36478" }, "geometry": { "type": "MultiPoint", "coordinates": [ [ -71.3610049, 41.4772093, 0.1 ], [ -71.3558808, 41.4785753, 7.6 ], [ -71.3375014, 41.4816885, 0.4 ], [ -71.3357651, 41.4800306, 1.5 ], [ -71.3294845, 41.4839047, 6.1 ], [ -71.3287922, 41.4846393, 0.4 ], [ -71.3266016, 41.4850079, 1.2 ], [ -71.3258255, 41.4834024, 4.5 ] ] } },
{ "type": "Feature", "properties": { "RCID": 2536, "PRIM": 1, "GRUP": 2, "OBJL": 129, "RVER": 1, "AGEN": 550, "FIDN": -1101030108, "FIDS": 48674, "LNAM": "0226BE5F9D24BE22", "SCAMIN": 29999, "SORDAT": "20140723", "SORIND": "US,US,graph,FE-00644" }, "geometry": { "type": "MultiPoint", "coordinates": [ [ -71.3999337, 41.5273438, 5.7 ], [ -71.3981706, 41.5263359, 20.0 ], [ -71.3971739, 41.5279058, 18.8 ], [ -71.3957661, 41.5274308, 17.2 ], [ -71.3943276, 41.5274247, 11.5 ], [ -71.3928321, 41.5258707, 4.9 ] ] } },
{ "type": "Feature", "properties": { "RCID": 2537, "PRIM": 1, "GRUP": 2, "OBJL": 129, "RVER": 1, "AGEN": 550, "FIDN": 1450848735, "FIDS": 48674, "LNAM": "0226567A31DFBE22", "EXPSOU": 3, "SCAMIN": 29999, "SORDAT": "20050401", "SORIND": "US,US,graph,Chart 13223" }, "geometry": { "type": "MultiPoint", "coordinates": [ [ -71.3859212, 41.4995714, 5.1 ], [ -71.3643701, 41.4986117, 2.1 ] ] } },
{ "type": "Feature", "properties": { "RCID": 2538, "PRIM": 1, "GRUP": 2, "OBJL": 129, "RVER": 1, "AGEN": 550, "FIDN": 500799655, "FIDS": 48674, "LNAM": "02261DD998A7BE22", "EXPSOU": 3, "SCAMIN": 29999, "SORDAT": "19950101", "SORIND": "US,US,graph,H-10616" }, "geometry": { "type": "MultiPoint", "coordinates": [ [ -71.3595227, 41.5208313, 10.2 ], [ -71.3575932, 41.4888077, 20.2 ], [ -71.3550723, 41.4879947, 30.7 ] ] } },
{ "type": "Feature", "properties": { "RCID": 2539, "PRIM": 1, "GRUP": 2, "OBJL": 129, "RVER": 1, "AGEN": 550, "FIDN": -451008764, "FIDS": 48674, "LNAM": "0226E51E2704BE22", "EXPSOU": 3, "SCAMIN": 29999, "SORDAT": "20140723", "SORIND": "US,US,graph,FE-00644" }, "geometry": { "type": "MultiPoint", "coordinates": [ [ -71.3992897, 41.5267809, 10.5 ] ] } },
{ "type": "Feature", "properties": { "RCID": 2540, "PRIM": 1, "GRUP": 2, "OBJL": 129, "RVER": 1, "AGEN": 550, "FIDN": -262532830, "FIDS": 48674, "LNAM": "0226F05A1122BE22", "SCAMIN": 29999, "SORDAT": "20130601", "SORIND": "US,US,graph,Chart 13223" }, "geometry": { "type": "MultiPoint", "coordinates": [ [ -71.3633576, 41.4944895, 11.5 ] ] } },
{ "type": "Feature", "properties": { "RCID": 2541, "PRIM": 1, "GRUP": 2, "OBJL": 129, "RVER": 1, "AGEN": 550, "FIDN": -707228038, "FIDS": 48674, "LNAM": "0226D5D88E7ABE22", "EXPSOU": 3, "SCAMIN": 29999, "SORDAT": "20060707", "SORIND": "US,US,graph,FE-00522" }, "geometry": { "type": "MultiPoint", "coordinates": [ [ -71.3606261, 41.5314002, 10.3 ] ] } },
{ "type": "Feature", "properties": { "RCID": 2542, "PRIM": 1, "GRUP": 2, "OBJL": 129, "RVER": 1, "AGEN": 550, "FIDN": -848605754, "FIDS": 48674, "LNAM": "0226CD6B4DC6BE22", "EXPSOU": 3, "SCAMIN": 29999, "SORDAT": "20220608", "SORIND": "US,US,graph,DD-36478" }, "geometry": { "type": "MultiPoint", "coordinates": [ [ -71.345909, 41.5380781, 3.7 ], [ -71.3252064, 41.4794881, 5.8 ] ] } },
{ "type": "Feature", "properties": { "RCID": 2543, "PRIM": 1, "GRUP": 2, "OBJL": 129, "RVER": 1, "AGEN": 550, "FIDN": -1993060582, "FIDS": 48674, "LNAM": "022689344F1ABE22", "SCAMIN": 29999, "SORDAT": "20200512", "SORIND": "US,US,graph,DD-36478" }, "geometry": { "type": "MultiPoint", "coordinates": [ [ -71.3307672, 41.4795916, 7.8 ] ] } }
]
}
