{
"type": "FeatureCollection",
"name": "ADMARE",
"crs": { "type": "name", "properties": { "name": "urn:ogc:def:crs:OGC:1.3:CRS84" } },
"features": [
{ "type": "Feature", "properties": { "RCID": 1353, "PRIM": 3, "GRUP": 2, "OBJL": 1, "RVER": 1, "AGEN": 550, "FIDN": 479306396, "FIDS": 8691, "LNAM": "02261C91A29C21F3", "JRSDTN": 3, "OBJNAM": "Rhode Island", "SCAMIN": 29999, "SORDAT": "20200122", "SORIND": "US,US,reprt,NCM Vol 1 Section 3.7" }, "geometry": { "type": "Polygon", "coordinates": [ [ [ -71.5454778, 41.1651281 ], [ -71.5454335, 41.1651114 ], [ -71.5454327, 41.1651111 ], [ -71.5454214, 41.1651068 ], [ -71.545356, 41.1650821 ], [ -71.5451813, 41.1649807 ], [ -71.5450272, 41.1648033 ], [ -71.5450216, 41.1647709 ], [ -71.5449875, 41.1645758 ], [ -71.545218, 41.1641754 ], [ -71.5453429, 41.1639584 ], [ -71.5454009, 41.1638577 ], [ -71.5454793, 41.1633086 ], [ -71.5454606, 41.1630229 ], [ -71.545417, 41.1629298 ], [ -71.545381, 41.1628529 ], [ -71.5450608, 41.1625617 ], [ -71.5447898, 41.1621471 ], [ -71.5443929, 41.1618115 ], [ -71.5443048, 41.1616148 ], [ -71.5443234, 41.1614151 ], [ -71.5443921, 41.1612524 ], [ -71.5446981, 41.1609063 ], [ -71.5452332, 41.1603011 ], [ -71.5455286, 41.1596487 ], [ -71.5455365, 41.1596124 ], [ -71.5455591, 41.159509 ], [ -71.5455714, 41.1594523 ], [ -71.5455685, 41.1592312 ], [ -71.5454377, 41.1587254 ], [ -71.5454004, 41.1581916 ], [ -71.5452855, 41.1578127 ], [ -71.5452891, 41.1574521 ], [ -71.5453807, 41.157218 ], [ -71.5455249, 41.1569926 ], [ -71.5457573, 41.1568255 ], [ -71.5463009, 41.1564346 ], [ -71.5465809, 41.1560394 ], [ -71.5465993, 41.1559613 ], [ -71.5466191, 41.1558769 ], [ -71.5466357, 41.1553592 ], [ -71.5465083, 41.1546965 ], [ -71.5465385, 41.1545994 ], [ -71.5466136, 41.1543573 ], [ -71.5469477, 41.1540346 ], [ -71.5473489, 41.1537528 ], [ -71.5477705, 41.1535951 ], [ -71.5481047, 41.1535025 ], [ -71.548389, 41.1534238 ], [ -71.5487524, 41.1532391 ], [ -71.5491074, 41.1529751 ], [ -71.5492022, 41.1528781 ], [ -71.5495258, 41.1525469 ], [ -71.5498099, 41.1523596 ], [ -71.5499736, 41.1522517 ], [ -71.55, 41.1522343 ], [ -71.55, 41.1529674 ], [ -71.55, 41.1662993 ], [ -71.55, 41.166481 ], [ -71.5499537, 41.1664884 ], [ -71.5497413, 41.1665225 ], [ -71.5496974, 41.1665151 ], [ -71.5495611, 41.1664921 ], [ -71.5491375, 41.1660203 ], [ -71.5486174, 41.1657353 ], [ -71.5480652, 41.1656041 ], [ -71.5473818, 41.1657743 ], [ -71.5470566, 41.1657984 ], [ -71.5467631, 41.1657764 ], [ -71.5466312, 41.1657242 ], [ -71.5460561, 41.165347 ], [ -71.5454778, 41.1651281 ] ] ] } },
{ "type": "Feature", "properties": { "RCID": 1354, "PRIM": 3, "GRUP": 2, "OBJL": 1, "RVER": 1, "AGEN": 550, "FIDN": 739304010, "FIDS": 8691, "LNAM": "02262C10E24A21F3", "JRSDTN": 2, "OBJNAM": "Three Nautical Mile Line", "INFORM": "The seaward-most limit of this area feature is the outer limit of the Three Nautical Mile Line. For more information about maritime zones, please refer to the Coast Pilot, Chapter 1.", "SCAMIN": 29999, "SORDAT": "20240119", "SORIND": "US,US,reprt,L-30-2024" }, "geometry": { "type": "Polygon", "coordinates": [ [ [ -71.5496163, 41.1 ], [ -71.5491649, 41.1 ], [ -71.5490784, 41.1000151 ], [ -71.5441515, 41.101167 ], [ -71.5388603, 41.1021801 ], [ -71.5336211, 41.1030706 ], [ -71.5303008, 41.1038138 ], [ -71.5259622, 41.1050074 ], [ -71.5217443, 41.1064267 ], [ -71.5179556, 41.107911 ], [ -71.5149711, 41.1092395 ], [ -71.5088755, 41.112238 ], [ -71.5051868, 41.1143383 ], [ -71.4992227, 41.1180857 ], [ -71.4966679, 41.1198541 ], [ -71.4934584, 41.1223648 ], [ -71.4904879, 41.1250384 ], [ -71.4884258, 41.1271429 ], [ -71.4859082, 41.1300704 ], [ -71.4836663, 41.1331233 ], [ -71.4817115, 41.1362871 ], [ -71.4800531, 41.1395461 ], [ -71.4786995, 41.1428848 ], [ -71.4778881, 41.1454311 ], [ -71.4772541, 41.1480061 ], [ -71.4766877, 41.1514717 ], [ -71.4764423, 41.1549588 ], [ -71.47647, 41.1575778 ], [ -71.4766788, 41.1601922 ], [ -71.4771993, 41.1634592 ], [ -71.4776067, 41.167081 ], [ -71.4781165, 41.1696716 ], [ -71.4792205, 41.1742319 ], [ -71.4794544, 41.175 ], [ -71.4797237, 41.175 ], [ -71.4799334, 41.175 ], [ -71.4794804, 41.1733111 ], [ -71.4782288, 41.1678969 ], [ -71.4778418, 41.1653131 ], [ -71.4776709, 41.1634073 ], [ -71.4772628, 41.161024 ], [ -71.4770647, 41.1592969 ], [ -71.4769171, 41.156699 ], [ -71.4769497, 41.1540988 ], [ -71.4772731, 41.1506406 ], [ -71.4777247, 41.1480627 ], [ -71.4783541, 41.1455063 ], [ -71.4794669, 41.1421431 ], [ -71.4805035, 41.1396636 ], [ -71.4821499, 41.136428 ], [ -71.4840906, 41.133287 ], [ -71.4857337, 41.1310027 ], [ -71.4875325, 41.1287864 ], [ -71.4901648, 41.1259477 ], [ -71.4923071, 41.1239137 ], [ -71.4953766, 41.1213386 ], [ -71.4978306, 41.119517 ], [ -71.500407, 41.117795 ], [ -71.5028414, 41.1163256 ], [ -71.5054864, 41.1146183 ], [ -71.508215, 41.1130363 ], [ -71.5110495, 41.1115644 ], [ -71.5171884, 41.1086528 ], [ -71.5202116, 41.1074123 ], [ -71.5240305, 41.1060183 ], [ -71.527207, 41.1050239 ], [ -71.5304479, 41.1041564 ], [ -71.534854, 41.1032016 ], [ -71.5389483, 41.1025341 ], [ -71.5442854, 41.1015127 ], [ -71.5492015, 41.100363 ], [ -71.55, 41.1002237 ], [ -71.55, 41.100046 ], [ -71.55, 41.100039 ], [ -71.55, 41.1 ], [ -71.5496163, 41.1 ] ] ] } }
]
}
