{
"type": "FeatureCollection",
"name": "CBLSUB",
"crs": { "type": "name", "properties": { "name": "urn:ogc:def:crs:OGC:1.3:CRS84" } },
"features": [
{ "type": "Feature", "properties": { "RCID": 269, "PRIM": 2, "GRUP": 2, "OBJL": 22, "RVER": 1, "AGEN": 550, "FIDN": 476839311, "FIDS": 8691, "LNAM": "02261C6BFD8F21F3", "SCAMIN": 29999, "SORDAT": "20091005", "SORIND": "US,US,graph,Chart 13215" }, "geometry": { "type": "LineString", "coordinates": [ [ -71.475, 41.1576204 ], [ -71.475937, 41.155861 ], [ -71.4768025, 41.154567 ], [ -71.480016, 41.149762 ], [ -71.4814692, 41.1473567 ], [ -71.482381, 41.145265 ], [ -71.484992, 41.138303 ], [ -71.484992, 41.137194 ], [ -71.4848587, 41.1319689 ], [ -71.484659, 41.124141 ], [ -71.484088, 41.10978 ], [ -71.4838746, 41.1 ] ] } },
{ "type": "Feature", "properties": { "RCID": 270, "PRIM": 2, "GRUP": 2, "OBJL": 22, "RVER": 1, "AGEN": 550, "FIDN": 510623255, "FIDS": 8691, "LNAM": "02261E6F7E1721F3", "SCAMIN": 29999, "SORDAT": "20160829", "SORIND": "US,US,reprt,L-1171-2016" }, "geometry": { "type": "LineString", "coordinates": [ [ -71.5247596, 41.175 ], [ -71.5216488, 41.172524 ], [ -71.5196631, 41.170836 ], [ -71.5179167, 41.1691378 ] ] } },
{ "type": "Feature", "properties": { "RCID": 271, "PRIM": 2, "GRUP": 2, "OBJL": 22, "RVER": 1, "AGEN": 550, "FIDN": 927057028, "FIDS": 8691, "LNAM": "02263741C48421F3", "CATCBL": 1, "SCAMIN": 29999, "SORDAT": "20160829", "SORIND": "US,US,reprt,L-1171-2016" }, "geometry": { "type": "LineString", "coordinates": [ [ -71.5179167, 41.1691378 ], [ -71.5163, 41.167545 ], [ -71.5130269, 41.1609098 ], [ -71.5126167, 41.1600783 ], [ -71.5120591, 41.1585915 ], [ -71.5060017, 41.1424367 ], [ -71.5050395, 41.1398806 ], [ -71.502375, 41.1328017 ], [ -71.5022733, 41.1323967 ], [ -71.5022969, 41.1319963 ], [ -71.5024933, 41.1316 ], [ -71.50276, 41.1312383 ], [ -71.503715, 41.13024 ], [ -71.5061033, 41.1276483 ], [ -71.507119, 41.1266182 ], [ -71.5075102, 41.1257661 ], [ -71.5078626, 41.1256399 ], [ -71.5083492, 41.1251846 ], [ -71.5094533, 41.1242283 ], [ -71.5111619, 41.1227024 ], [ -71.511695, 41.1222417 ], [ -71.5134029, 41.1210044 ], [ -71.513949, 41.1198841 ], [ -71.5145583, 41.1196783 ], [ -71.5195267, 41.1161483 ], [ -71.5211588, 41.1147136 ], [ -71.5215408, 41.114605 ], [ -71.5221217, 41.11444 ], [ -71.5278927, 41.1109953 ], [ -71.5290605, 41.1101521 ], [ -71.5297036, 41.1100075 ], [ -71.5309449, 41.1094695 ], [ -71.5362354, 41.1071482 ], [ -71.5376389, 41.1063306 ] ] } }
]
}
