{
"type": "FeatureCollection",
"name": "CTNARE",
"crs": { "type": "name", "properties": { "name": "urn:ogc:def:crs:OGC:1.3:CRS84" } },
"features": [
{ "type": "Feature", "properties": { "RCID": 13, "PRIM": 3, "GRUP": 2, "OBJL": 27, "RVER": 1, "AGEN": 550, "FIDN": 62878746, "FIDS": 8691, "LNAM": "022603BF741A21F3", "INFORM": "Fish trap area: Submerged piling may exist in the area.", "SCAMIN": 44999, "SORDAT": "200611", "SORIND": "US,US,graph,Chart 13217" }, "geometry": { "type": "Polygon", "coordinates": [ [ [ -71.55, 41.1426458 ], [ -71.547529, 41.1428524 ], [ -71.5434344, 41.1431947 ], [ -71.5420512, 41.1433103 ], [ -71.53959, 41.1435191 ], [ -71.533796, 41.1440005 ], [ -71.5315033, 41.1562151 ], [ -71.5309829, 41.1588357 ], [ -71.5309419, 41.1591318 ], [ -71.5303908, 41.162264 ], [ -71.5299009, 41.1648916 ], [ -71.5316319, 41.1658216 ], [ -71.5347554, 41.1675053 ], [ -71.5366762, 41.1685316 ], [ -71.5385116, 41.1695177 ], [ -71.5419166, 41.171347 ], [ -71.5442595, 41.1726143 ], [ -71.5443418, 41.1726588 ], [ -71.5459081, 41.1735061 ], [ -71.5461881, 41.1736202 ], [ -71.5473016, 41.174211 ], [ -71.5476501, 41.1744272 ], [ -71.5480334, 41.1746332 ], [ -71.5487088, 41.175 ], [ -71.549437, 41.175 ], [ -71.5494826, 41.175 ], [ -71.54951, 41.175 ], [ -71.5498316, 41.175 ], [ -71.55, 41.175 ], [ -71.55, 41.1749563 ], [ -71.55, 41.1744368 ], [ -71.55, 41.174434 ], [ -71.55, 41.1739966 ], [ -71.55, 41.1738298 ], [ -71.55, 41.1726049 ], [ -71.55, 41.1718611 ], [ -71.55, 41.1718608 ], [ -71.55, 41.171841 ], [ -71.55, 41.1716527 ], [ -71.55, 41.1716024 ], [ -71.55, 41.171602 ], [ -71.55, 41.1713799 ], [ -71.55, 41.171011 ], [ -71.55, 41.1710105 ], [ -71.55, 41.1708878 ], [ -71.55, 41.1695497 ], [ -71.55, 41.1694702 ], [ -71.55, 41.1693278 ], [ -71.55, 41.1693274 ], [ -71.55, 41.1692582 ], [ -71.55, 41.1691589 ], [ -71.55, 41.1690082 ], [ -71.55, 41.1686956 ], [ -71.55, 41.1685652 ], [ -71.55, 41.1685632 ], [ -71.55, 41.1683516 ], [ -71.55, 41.1682349 ], [ -71.55, 41.1682181 ], [ -71.55, 41.1679475 ], [ -71.55, 41.1679474 ], [ -71.55, 41.1679365 ], [ -71.55, 41.167804 ], [ -71.55, 41.1678032 ], [ -71.55, 41.1677564 ], [ -71.55, 41.1676692 ], [ -71.55, 41.1675584 ], [ -71.55, 41.1675128 ], [ -71.55, 41.1672207 ], [ -71.55, 41.1666343 ], [ -71.55, 41.1666101 ], [ -71.55, 41.1666091 ], [ -71.55, 41.166481 ], [ -71.5499537, 41.1664884 ], [ -71.5497413, 41.1665225 ], [ -71.5496974, 41.1665151 ], [ -71.5495611, 41.1664921 ], [ -71.5491375, 41.1660203 ], [ -71.5486174, 41.1657353 ], [ -71.5480652, 41.1656041 ], [ -71.5473818, 41.1657743 ], [ -71.5470566, 41.1657984 ], [ -71.5467631, 41.1657764 ], [ -71.5466312, 41.1657242 ], [ -71.5460561, 41.165347 ], [ -71.5454778, 41.1651281 ], [ -71.5454335, 41.1651114 ], [ -71.5454327, 41.1651111 ], [ -71.5454214, 41.1651068 ], [ -71.545356, 41.1650821 ], [ -71.5451813, 41.1649807 ], [ -71.5450272, 41.1648033 ], [ -71.5450216, 41.1647709 ], [ -71.5449875, 41.1645758 ], [ -71.545218, 41.1641754 ], [ -71.5453429, 41.1639584 ], [ -71.5454009, 41.1638577 ], [ -71.5454793, 41.1633086 ], [ -71.5454606, 41.1630229 ], [ -71.545417, 41.1629298 ], [ -71.545381, 41.1628529 ], [ -71.5450608, 41.1625617 ], [ -71.5447898, 41.1621471 ], [ -71.5443929, 41.1618115 ], [ -71.5443048, 41.1616148 ], [ -71.5443234, 41.1614151 ], [ -71.5443921, 41.1612524 ], [ -71.5446981, 41.1609063 ], [ -71.5452332, 41.1603011 ], [ -71.5455286, 41.1596487 ], [ -71.5455365, 41.1596124 ], [ -71.5455591, 41.159509 ], [ -71.5455714, 41.1594523 ], [ -71.5455685, 41.1592312 ], [ -71.5454377, 41.1587254 ], [ -71.5454004, 41.1581916 ], [ -71.5452855, 41.1578127 ], [ -71.5452891, 41.1574521 ], [ -71.5453807, 41.157218 ], [ -71.5455249, 41.1569926 ], [ -71.5457573, 41.1568255 ], [ -71.5463009, 41.1564346 ], [ -71.5465809, 41.1560394 ], [ -71.5465993, 41.1559613 ], [ -71.5466191, 41.1558769 ], [ -71.5466357, 41.1553592 ], [ -71.5465083, 41.1546965 ], [ -71.5465385, 41.1545994 ], [ -71.5466136, 41.1543573 ], [ -71.5469477, 41.1540346 ], [ -71.5473489, 41.1537528 ], [ -71.5477705, 41.1535951 ], [ -71.5481047, 41.1535025 ], [ -71.548389, 41.1534238 ], [ -71.5487524, 41.1532391 ], [ -71.5491074, 41.1529751 ], [ -71.5492022, 41.1528781 ], [ -71.5495258, 41.1525469 ], [ -71.5498099, 41.1523596 ], [ -71.5499736, 41.1522517 ], [ -71.55, 41.1522343 ], [ -71.55, 41.151905 ], [ -71.55, 41.1518894 ], [ -71.55, 41.1517535 ], [ -71.55, 41.1517091 ], [ -71.55, 41.1513246 ], [ -71.55, 41.1512221 ], [ -71.55, 41.1505131 ], [ -71.55, 41.1504879 ], [ -71.55, 41.1504877 ], [ -71.55, 41.1504842 ], [ -71.55, 41.1504636 ], [ -71.55, 41.1503555 ], [ -71.55, 41.1503052 ], [ -71.55, 41.1502148 ], [ -71.55, 41.1496849 ], [ -71.55, 41.1496302 ], [ -71.55, 41.1495373 ], [ -71.55, 41.1494301 ], [ -71.55, 41.1479958 ], [ -71.55, 41.1479044 ], [ -71.55, 41.1478652 ], [ -71.55, 41.1475653 ], [ -71.55, 41.1469693 ], [ -71.55, 41.1468022 ], [ -71.55, 41.1467734 ], [ -71.55, 41.146766 ], [ -71.55, 41.1467219 ], [ -71.55, 41.1467181 ], [ -71.55, 41.1464571 ], [ -71.55, 41.1462186 ], [ -71.55, 41.1455485 ], [ -71.55, 41.1453872 ], [ -71.55, 41.14534 ], [ -71.55, 41.1444549 ], [ -71.55, 41.1443236 ], [ -71.55, 41.1441398 ], [ -71.55, 41.1441162 ], [ -71.55, 41.1430986 ], [ -71.55, 41.1426458 ] ] ] } }
]
}
