{
"type": "FeatureCollection",
"name": "LNDMRK",
"crs": { "type": "name", "properties": { "name": "urn:ogc:def:crs:OGC:1.3:CRS84" } },
"features": [
{ "type": "Feature", "properties": { "RCID": 8, "PRIM": 1, "GRUP": 2, "OBJL": 74, "RVER": 1, "AGEN": 550, "FIDN": 36834519, "FIDS": 50, "LNAM": "022602320CD70032", "LNAM_REFS": [ "022602320CD80032" ], "FFPT_RIND": [ 2 ], "CATLMK": [ "19" ], "CONVIS": 1, "FUNCTN": [ "33" ], "STATUS": [ "8" ], "INFORM": "Maintained by Orsted", "SCAMIN": 29999, "SORDAT": "20200303", "SORIND": "US,US,reprt,1stCGD,LNM 09/20" }, "geometry": { "type": "Point", "coordinates": [ -71.5376389, 41.1063306 ] } },
{ "type": "Feature", "properties": { "RCID": 9, "PRIM": 1, "GRUP": 2, "OBJL": 74, "RVER": 1, "AGEN": 550, "FIDN": 36834514, "FIDS": 50, "LNAM": "022602320CD20032", "LNAM_REFS": [ "022602320CA40032" ], "FFPT_RIND": [ 2 ], "CATLMK": [ "19" ], "CONVIS": 1, "FUNCTN": [ "33" ], "STATUS": [ "8" ], "INFORM": "Maintained by Orsted", "SCAMIN": 29999, "SORDAT": "20200303", "SORIND": "US,US,reprt,1stCGD,LNM 09/20" }, "geometry": { "type": "Point", "coordinates": [ -71.51395, 41.1198806 ] } },
{ "type": "Feature", "properties": { "RCID": 10, "PRIM": 1, "GRUP": 2, "OBJL": 74, "RVER": 1, "AGEN": 550, "FIDN": 36834504, "FIDS": 50, "LNAM": "022602320CC80032", "LNAM_REFS": [ "022602320CC90032" ], "FFPT_RIND": [ 2 ], "CATLMK": [ "19" ], "CONVIS": 1, "FUNCTN": [ "33" ], "STATUS": [ "8" ], "INFORM": "Maintained by Orsted", "SCAMIN": 29999, "SORDAT": "20200303", "SORIND": "US,US,reprt,1stCGD,LNM 09/20" }, "geometry": { "type": "Point", "coordinates": [ -71.5290611, 41.11015 ] } },
{ "type": "Feature", "properties": { "RCID": 11, "PRIM": 1, "GRUP": 2, "OBJL": 74, "RVER": 1, "AGEN": 550, "FIDN": 36834554, "FIDS": 50, "LNAM": "022602320CFA0032", "LNAM_REFS": [ "022602320C2E0032" ], "FFPT_RIND": [ 2 ], "CATLMK": [ "19" ], "CONVIS": 1, "FUNCTN": [ "33" ], "STATUS": [ "8" ], "INFORM": "Maintained by Orsted", "SCAMIN": 29999, "SORDAT": "20200303", "SORIND": "US,US,reprt,1stCGD,LNM 09/20" }, "geometry": { "type": "Point", "coordinates": [ -71.5075111, 41.1257611 ] } },
{ "type": "Feature", "properties": { "RCID": 12, "PRIM": 1, "GRUP": 2, "OBJL": 74, "RVER": 1, "AGEN": 550, "FIDN": 36834553, "FIDS": 50, "LNAM": "022602320CF90032", "LNAM_REFS": [ "022602320CA50032", "022621D7B4D007D5" ], "FFPT_RIND": [ 2, 2 ], "CATLMK": [ "19" ], "CONVIS": 1, "FUNCTN": [ "33" ], "STATUS": [ "8" ], "INFORM": "Maintained by Orsted", "SCAMIN": 29999, "SORDAT": "20200303", "SORIND": "US,US,reprt,1stCGD,LNM 09/20" }, "geometry": { "type": "Point", "coordinates": [ -71.5211611, 41.1147111 ] } }
]
}
