{
"type": "FeatureCollection",
"name": "LNDRGN",
"crs": { "type": "name", "properties": { "name": "urn:ogc:def:crs:OGC:1.3:CRS84" } },
"features": [
{ "type": "Feature", "properties": { "RCID": 213, "PRIM": 3, "GRUP": 2, "OBJL": 73, "RVER": 1, "AGEN": 550, "FIDN": 245042466, "FIDS": 8691, "LNAM": "02260E9B0D2221F3", "OBJNAM": "Southeast Point", "SCAMIN": 17999, "SORDAT": "200611", "SORIND": "US,US,graph,Chart 13217" }, "geometry": { "type": "Polygon", "coordinates": [ [ [ -71.5481047, 41.1535025 ], [ -71.5477705, 41.1535951 ], [ -71.5473489, 41.1537528 ], [ -71.5469477, 41.1540346 ], [ -71.5466136, 41.1543573 ], [ -71.5465385, 41.1545994 ], [ -71.5465083, 41.1546965 ], [ -71.5466357, 41.1553592 ], [ -71.5472576, 41.1545414 ], [ -71.5473295, 41.1544523 ], [ -71.5474084, 41.1543545 ], [ -71.547505, 41.1542348 ], [ -71.5475272, 41.1542073 ], [ -71.547621, 41.154091 ], [ -71.5480461, 41.1535642 ], [ -71.5481047, 41.1535025 ] ] ] } },
{ "type": "Feature", "properties": { "RCID": 214, "PRIM": 3, "GRUP": 2, "OBJL": 73, "RVER": 1, "AGEN": 550, "FIDN": 723947528, "FIDS": 8691, "LNAM": "02262B26900821F3", "OBJNAM": "Old Harbor Point", "SCAMIN": 17999, "SORDAT": "200611", "SORIND": "US,US,graph,Chart 13217" }, "geometry": { "type": "Polygon", "coordinates": [ [ [ -71.5453429, 41.1639584 ], [ -71.545218, 41.1641754 ], [ -71.5449875, 41.1645758 ], [ -71.5450216, 41.1647709 ], [ -71.5450272, 41.1648033 ], [ -71.5451813, 41.1649807 ], [ -71.545356, 41.1650821 ], [ -71.5454214, 41.1651068 ], [ -71.5454327, 41.1651111 ], [ -71.5454335, 41.1651114 ], [ -71.5454778, 41.1651281 ], [ -71.5455856, 41.1650267 ], [ -71.5454482, 41.1642998 ], [ -71.5454463, 41.1642936 ], [ -71.5453429, 41.1639584 ] ] ] } }
]
}
