{
"type": "FeatureCollection",
"name": "OBSTRN",
"crs": { "type": "name", "properties": { "name": "urn:ogc:def:crs:OGC:1.3:CRS84" } },
"features": [
{ "type": "Feature", "properties": { "RCID": 14, "PRIM": 3, "GRUP": 2, "OBJL": 86, "RVER": 1, "AGEN": 550, "FIDN": 226659347, "FIDS": 8691, "LNAM": "02260D828C1321F3", "CATOBS": 6, "QUASOU": [ "2" ], "WATLEV": 3, "INFORM": "Rocks", "SORDAT": "20140818", "SORIND": "US,US,graph,GC11187" }, "geometry": { "type": "Polygon", "coordinates": [ [ [ -71.5464072, 41.1660911 ], [ -71.5463988, 41.1661161 ], [ -71.546389, 41.1661299 ], [ -71.5463887, 41.1661303 ], [ -71.5464321, 41.1661465 ], [ -71.5464494, 41.1661506 ], [ -71.5464558, 41.1661479 ], [ -71.5464564, 41.1661373 ], [ -71.5464513, 41.1661249 ], [ -71.5464313, 41.1661058 ], [ -71.5464073, 41.1660912 ], [ -71.5464072, 41.1660911 ] ] ] } },
{ "type": "Feature", "properties": { "RCID": 15, "PRIM": 3, "GRUP": 2, "OBJL": 86, "RVER": 1, "AGEN": 550, "FIDN": 932553248, "FIDS": 8691, "LNAM": "02263795A22021F3", "CATOBS": 6, "QUASOU": [ "2" ], "WATLEV": 3, "INFORM": "Rocks", "SORDAT": "20140818", "SORIND": "US,US,graph,GC11187" }, "geometry": { "type": "Polygon", "coordinates": [ [ [ -71.5463355, 41.1660475 ], [ -71.5463015, 41.1660324 ], [ -71.5462813, 41.1660264 ], [ -71.5462167, 41.166016 ], [ -71.5461727, 41.1660133 ], [ -71.5461595, 41.1660134 ], [ -71.546157, 41.1660134 ], [ -71.5461366, 41.1660313 ], [ -71.5461167, 41.1660705 ], [ -71.5461244, 41.1660719 ], [ -71.5461245, 41.1660719 ], [ -71.5461904, 41.1660724 ], [ -71.5462271, 41.1660769 ], [ -71.5462863, 41.1660926 ], [ -71.5463436, 41.1661135 ], [ -71.5463644, 41.1661213 ], [ -71.5463554, 41.1661098 ], [ -71.5463355, 41.1660475 ] ] ] } },
{ "type": "Feature", "properties": { "RCID": 16, "PRIM": 3, "GRUP": 2, "OBJL": 86, "RVER": 1, "AGEN": 550, "FIDN": 86499433, "FIDS": 8691, "LNAM": "02260527E06921F3", "CATOBS": 6, "QUASOU": [ "2" ], "WATLEV": 3, "INFORM": "Rocks", "SORDAT": "20140818", "SORIND": "US,US,graph,GC11187" }, "geometry": { "type": "Polygon", "coordinates": [ [ [ -71.55, 41.1502148 ], [ -71.55, 41.1503052 ], [ -71.55, 41.1503555 ], [ -71.55, 41.1504636 ], [ -71.55, 41.1504842 ], [ -71.55, 41.1504877 ], [ -71.55, 41.1504879 ], [ -71.55, 41.1505131 ], [ -71.55, 41.1512221 ], [ -71.55, 41.1513246 ], [ -71.55, 41.1517091 ], [ -71.55, 41.1517535 ], [ -71.5498762, 41.151926 ], [ -71.5496, 41.1521788 ], [ -71.5492843, 41.1522417 ], [ -71.5491215, 41.1523816 ], [ -71.5487185, 41.1524367 ], [ -71.5487067, 41.1525021 ], [ -71.5488236, 41.1526831 ], [ -71.5488546, 41.1528143 ], [ -71.5484944, 41.1529045 ], [ -71.5483175, 41.1532752 ], [ -71.5480526, 41.1531441 ], [ -71.5479847, 41.1528952 ], [ -71.5477904, 41.1528656 ], [ -71.5476829, 41.1529248 ], [ -71.54761, 41.1530187 ], [ -71.5475114, 41.1534122 ], [ -71.5470933, 41.1532345 ], [ -71.5469919, 41.1532274 ], [ -71.5465799, 41.153708 ], [ -71.5464702, 41.1536298 ], [ -71.5463124, 41.1536214 ], [ -71.5459032, 41.1538654 ], [ -71.545906, 41.1539525 ], [ -71.5460762, 41.154097 ], [ -71.546107, 41.154185 ], [ -71.5460374, 41.1545332 ], [ -71.5458507, 41.1545544 ], [ -71.5458589, 41.1546684 ], [ -71.5456935, 41.1547587 ], [ -71.5457624, 41.1553032 ], [ -71.5458563, 41.1554602 ], [ -71.5461948, 41.1556254 ], [ -71.546314, 41.1558574 ], [ -71.5462715, 41.1560597 ], [ -71.545934, 41.1564639 ], [ -71.5456641, 41.1566113 ], [ -71.5455383, 41.1566469 ], [ -71.5454355, 41.1567251 ], [ -71.5450319, 41.1566929 ], [ -71.5450105, 41.1567614 ], [ -71.545109, 41.1569512 ], [ -71.545085, 41.1570478 ], [ -71.5450068, 41.1570999 ], [ -71.5448283, 41.1571161 ], [ -71.5447129, 41.1571711 ], [ -71.5446956, 41.1571715 ], [ -71.5446238, 41.1571731 ], [ -71.5445959, 41.1571954 ], [ -71.5446116, 41.1572313 ], [ -71.5446612, 41.1572737 ], [ -71.5447301, 41.1573193 ], [ -71.5447849, 41.1573724 ], [ -71.54484, 41.1574328 ], [ -71.5448519, 41.1574628 ], [ -71.5448471, 41.1575134 ], [ -71.5448338, 41.1575651 ], [ -71.5448072, 41.1576203 ], [ -71.5448015, 41.1576495 ], [ -71.5448067, 41.1576878 ], [ -71.5448352, 41.1577493 ], [ -71.5448413, 41.1577785 ], [ -71.5448396, 41.1578044 ], [ -71.5448323, 41.1578312 ], [ -71.5448014, 41.1578897 ], [ -71.5447712, 41.1579366 ], [ -71.5446735, 41.1580655 ], [ -71.544646, 41.1581077 ], [ -71.544634, 41.1581398 ], [ -71.5446346, 41.158172 ], [ -71.544641, 41.1581905 ], [ -71.5446515, 41.1582083 ], [ -71.544668, 41.1582275 ], [ -71.5446887, 41.1582453 ], [ -71.5447487, 41.1582842 ], [ -71.5448801, 41.1583537 ], [ -71.5449255, 41.1583734 ], [ -71.5449497, 41.1583803 ], [ -71.5449728, 41.1583838 ], [ -71.5449735, 41.1583838 ], [ -71.5449692, 41.1584191 ], [ -71.5449779, 41.1585204 ], [ -71.5449834, 41.1585641 ], [ -71.5449575, 41.1585868 ], [ -71.5449478, 41.158601 ], [ -71.544943, 41.1586159 ], [ -71.5449448, 41.1586355 ], [ -71.5449528, 41.1586498 ], [ -71.5449645, 41.1586602 ], [ -71.5449767, 41.1586664 ], [ -71.5449929, 41.1586708 ], [ -71.5449993, 41.1586712 ], [ -71.5450099, 41.1587262 ], [ -71.5450291, 41.1587433 ], [ -71.5450095, 41.1587623 ], [ -71.544996, 41.1587823 ], [ -71.5449899, 41.1588028 ], [ -71.544991, 41.1588284 ], [ -71.545004, 41.1588629 ], [ -71.5450309, 41.1589001 ], [ -71.5450588, 41.1589255 ], [ -71.5451185, 41.1589655 ], [ -71.5451418, 41.1589886 ], [ -71.5451526, 41.1590036 ], [ -71.5451525, 41.1590037 ], [ -71.5451318, 41.1590519 ], [ -71.5451205, 41.1591078 ], [ -71.5451377, 41.1591799 ], [ -71.5451967, 41.1592185 ], [ -71.5452262, 41.1592128 ], [ -71.5452528, 41.1592386 ], [ -71.5452578, 41.1592522 ], [ -71.5452567, 41.1592604 ], [ -71.5452501, 41.1592716 ], [ -71.5452038, 41.1593086 ], [ -71.5451787, 41.1593362 ], [ -71.545129, 41.1594144 ], [ -71.5450462, 41.1595332 ], [ -71.5450193, 41.1595756 ], [ -71.5450047, 41.1596044 ], [ -71.5449943, 41.1596342 ], [ -71.5449881, 41.1596649 ], [ -71.5449854, 41.159696 ], [ -71.5449894, 41.1597581 ], [ -71.5449987, 41.1597969 ], [ -71.5450141, 41.1598347 ], [ -71.5450491, 41.1598903 ], [ -71.5450782, 41.1599236 ], [ -71.545129, 41.1599684 ], [ -71.545136, 41.1599776 ], [ -71.5451435, 41.1599958 ], [ -71.5451461, 41.1600169 ], [ -71.5451447, 41.1600402 ], [ -71.5451308, 41.1600931 ], [ -71.5451048, 41.1601507 ], [ -71.5450709, 41.160208 ], [ -71.5450302, 41.1602616 ], [ -71.5450068, 41.1602858 ], [ -71.5449275, 41.1603497 ], [ -71.5448906, 41.1603865 ], [ -71.5447722, 41.1605486 ], [ -71.5447052, 41.1606293 ], [ -71.5446352, 41.1607047 ], [ -71.5445917, 41.1607437 ], [ -71.5445485, 41.1607757 ], [ -71.5444994, 41.1608038 ], [ -71.5444697, 41.1608163 ], [ -71.5444408, 41.1608248 ], [ -71.5444137, 41.1608283 ], [ -71.5443894, 41.1608256 ], [ -71.5443689, 41.1608159 ], [ -71.5443505, 41.1607996 ], [ -71.5443349, 41.1607775 ], [ -71.5443126, 41.1607225 ], [ -71.5442981, 41.1606608 ], [ -71.5442834, 41.1605733 ], [ -71.5442611, 41.1605008 ], [ -71.5442482, 41.1604812 ], [ -71.5442297, 41.1604658 ], [ -71.5441985, 41.1604541 ], [ -71.5441763, 41.1604517 ], [ -71.5441473, 41.1604542 ], [ -71.5441136, 41.1604641 ], [ -71.5439269, 41.1605528 ], [ -71.5438545, 41.1605784 ], [ -71.5437994, 41.160591 ], [ -71.5435955, 41.1606294 ], [ -71.543523, 41.1606487 ], [ -71.5434908, 41.160661 ], [ -71.5434543, 41.1606819 ], [ -71.543428, 41.1607091 ], [ -71.5434109, 41.1607456 ], [ -71.5434018, 41.1607911 ], [ -71.5433996, 41.1608771 ], [ -71.5434078, 41.160934 ], [ -71.5434242, 41.160981 ], [ -71.5434378, 41.1610036 ], [ -71.5434519, 41.1610209 ], [ -71.5434781, 41.1610434 ], [ -71.5435166, 41.161065 ], [ -71.5436753, 41.1611248 ], [ -71.54374, 41.1611543 ], [ -71.5437712, 41.1611745 ], [ -71.5437938, 41.1611954 ], [ -71.5438127, 41.1612216 ], [ -71.5438237, 41.1612441 ], [ -71.5438719, 41.1613815 ], [ -71.5439059, 41.1614438 ], [ -71.543907, 41.1614466 ], [ -71.5439079, 41.1614717 ], [ -71.5439088, 41.1614932 ], [ -71.543881, 41.1615547 ], [ -71.5438739, 41.1615789 ], [ -71.5438685, 41.1616179 ], [ -71.5438705, 41.1616477 ], [ -71.5438818, 41.1617079 ], [ -71.5438884, 41.1617945 ], [ -71.5438945, 41.1618135 ], [ -71.5439054, 41.1618318 ], [ -71.543921, 41.1618482 ], [ -71.5439405, 41.1618623 ], [ -71.5440394, 41.1619165 ], [ -71.5441467, 41.1619882 ], [ -71.5443486, 41.1621095 ], [ -71.544414, 41.162152 ], [ -71.5444735, 41.1621969 ], [ -71.5445, 41.1622204 ], [ -71.5445466, 41.1622706 ], [ -71.5445706, 41.1623062 ], [ -71.5445905, 41.1623467 ], [ -71.5445971, 41.162367 ], [ -71.5446009, 41.1623897 ], [ -71.5446004, 41.1624122 ], [ -71.5445937, 41.1624391 ], [ -71.5445532, 41.1625376 ], [ -71.5445447, 41.1625765 ], [ -71.5445439, 41.162607 ], [ -71.5445507, 41.1626404 ], [ -71.5445784, 41.1627207 ], [ -71.5445955, 41.1627979 ], [ -71.5446076, 41.1628262 ], [ -71.544624, 41.1628512 ], [ -71.5446462, 41.1628745 ], [ -71.5447122, 41.1629289 ], [ -71.5447888, 41.1630069 ], [ -71.5448173, 41.1630312 ], [ -71.544862, 41.1630575 ], [ -71.5449447, 41.1630906 ], [ -71.544973, 41.1630962 ], [ -71.5450002, 41.1630948 ], [ -71.5450209, 41.1630874 ], [ -71.5450404, 41.1630716 ], [ -71.5450494, 41.1630541 ], [ -71.5450503, 41.1630372 ], [ -71.5450311, 41.1629874 ], [ -71.5450341, 41.1629788 ], [ -71.5450434, 41.162973 ], [ -71.5450564, 41.1629711 ], [ -71.5450679, 41.1629722 ], [ -71.5451154, 41.1629861 ], [ -71.5451748, 41.1630119 ], [ -71.5452053, 41.1630283 ], [ -71.5452348, 41.163047 ], [ -71.545262, 41.1630682 ], [ -71.5452853, 41.1630915 ], [ -71.5453229, 41.1631438 ], [ -71.5453488, 41.1632015 ], [ -71.5453648, 41.1632771 ], [ -71.5453719, 41.1633735 ], [ -71.5453682, 41.1634446 ], [ -71.545353, 41.1635504 ], [ -71.5453293, 41.1636519 ], [ -71.5453103, 41.1637003 ], [ -71.5452468, 41.1638309 ], [ -71.5452345, 41.1638515 ], [ -71.5452172, 41.163873 ], [ -71.5451967, 41.1638921 ], [ -71.545173, 41.1639082 ], [ -71.545146, 41.1639207 ], [ -71.5451106, 41.1639298 ], [ -71.5450719, 41.1639344 ], [ -71.5449884, 41.1639348 ], [ -71.5448264, 41.1639266 ], [ -71.5447827, 41.1639289 ], [ -71.544738, 41.163936 ], [ -71.5446866, 41.16395 ], [ -71.5446525, 41.163962 ], [ -71.5445876, 41.1639895 ], [ -71.5445359, 41.1640157 ], [ -71.544453, 41.1640642 ], [ -71.5444317, 41.1640732 ], [ -71.5444205, 41.1640716 ], [ -71.5444135, 41.1640662 ], [ -71.5443943, 41.1640299 ], [ -71.544377, 41.164011 ], [ -71.5443532, 41.1639965 ], [ -71.5443313, 41.1639895 ], [ -71.5443074, 41.1639883 ], [ -71.5442851, 41.1639938 ], [ -71.5442653, 41.1640058 ], [ -71.5442504, 41.1640214 ], [ -71.5442385, 41.1640401 ], [ -71.5442269, 41.1640715 ], [ -71.5442167, 41.1641565 ], [ -71.5442094, 41.1641859 ], [ -71.5441753, 41.1642696 ], [ -71.544137, 41.1643323 ], [ -71.5440087, 41.1645106 ], [ -71.5439757, 41.1645658 ], [ -71.5439601, 41.1646033 ], [ -71.5439545, 41.164629 ], [ -71.5439526, 41.1646554 ], [ -71.543958, 41.1647059 ], [ -71.543979, 41.1647729 ], [ -71.5440061, 41.1648288 ], [ -71.5440391, 41.1648802 ], [ -71.5440624, 41.1649079 ], [ -71.5440872, 41.1649309 ], [ -71.5441416, 41.1649725 ], [ -71.5441574, 41.1649911 ], [ -71.5441992, 41.1650708 ], [ -71.5442263, 41.16511 ], [ -71.5442493, 41.1651315 ], [ -71.5442733, 41.1651462 ], [ -71.5443071, 41.1651595 ], [ -71.5444007, 41.1651866 ], [ -71.5444444, 41.1651928 ], [ -71.5445258, 41.1651977 ], [ -71.5445542, 41.1652014 ], [ -71.5445722, 41.1652099 ], [ -71.544618, 41.1652446 ], [ -71.5446419, 41.1652571 ], [ -71.544669, 41.1652659 ], [ -71.5447134, 41.1652713 ], [ -71.5448246, 41.1652667 ], [ -71.5448784, 41.1652693 ], [ -71.5449015, 41.165273 ], [ -71.5449328, 41.1652855 ], [ -71.5449658, 41.1653003 ], [ -71.5449943, 41.1653133 ], [ -71.5450166, 41.1653335 ], [ -71.5450322, 41.1653566 ], [ -71.5450393, 41.1653807 ], [ -71.5450408, 41.1654067 ], [ -71.5450382, 41.1654339 ], [ -71.5450118, 41.1655477 ], [ -71.545008, 41.1655803 ], [ -71.5450102, 41.1655993 ], [ -71.5450161, 41.1656152 ], [ -71.5450284, 41.1656315 ], [ -71.5450444, 41.1656422 ], [ -71.5450716, 41.1656489 ], [ -71.5451075, 41.1656464 ], [ -71.5451459, 41.1656362 ], [ -71.545282, 41.1655915 ], [ -71.5453559, 41.1655728 ], [ -71.5453924, 41.1655662 ], [ -71.5454429, 41.165562 ], [ -71.5454902, 41.1655644 ], [ -71.5455318, 41.1655736 ], [ -71.5455608, 41.1655878 ], [ -71.5455716, 41.1655982 ], [ -71.5455776, 41.1656093 ], [ -71.5455861, 41.1656608 ], [ -71.5455951, 41.1656792 ], [ -71.5456057, 41.1656926 ], [ -71.5456204, 41.165705 ], [ -71.5456411, 41.1657158 ], [ -71.5457129, 41.165733 ], [ -71.5457379, 41.1657454 ], [ -71.5457661, 41.1657735 ], [ -71.5457943, 41.1658254 ], [ -71.5457971, 41.1658414 ], [ -71.545795, 41.16585 ], [ -71.5457888, 41.1658578 ], [ -71.5457749, 41.1658645 ], [ -71.5457182, 41.1658777 ], [ -71.5456853, 41.1658901 ], [ -71.5456659, 41.1659064 ], [ -71.5456591, 41.1659269 ], [ -71.5456632, 41.1659442 ], [ -71.5456708, 41.1659562 ], [ -71.5456835, 41.1659685 ], [ -71.5457053, 41.1659815 ], [ -71.5457612, 41.1660061 ], [ -71.5457755, 41.166019 ], [ -71.5458274, 41.1661048 ], [ -71.5458298, 41.1661211 ], [ -71.5458245, 41.1661346 ], [ -71.545775, 41.1661737 ], [ -71.5457651, 41.166186 ], [ -71.5457604, 41.1661973 ], [ -71.5457605, 41.1662137 ], [ -71.5457672, 41.1662277 ], [ -71.5457799, 41.1662399 ], [ -71.545797, 41.1662486 ], [ -71.5458301, 41.1662548 ], [ -71.5458748, 41.1662526 ], [ -71.5459593, 41.1662364 ], [ -71.5460714, 41.1662097 ], [ -71.5461081, 41.1662061 ], [ -71.5461377, 41.1662103 ], [ -71.5461863, 41.1662283 ], [ -71.546263, 41.166263 ], [ -71.5462976, 41.1662878 ], [ -71.5463676, 41.1663518 ], [ -71.5463971, 41.1663678 ], [ -71.5464224, 41.166374 ], [ -71.5464483, 41.1663742 ], [ -71.54647, 41.1663705 ], [ -71.5465408, 41.1663508 ], [ -71.546566, 41.1663498 ], [ -71.5465844, 41.1663525 ], [ -71.5466025, 41.1663577 ], [ -71.5466248, 41.1663679 ], [ -71.5466867, 41.1664139 ], [ -71.5467093, 41.1664275 ], [ -71.5467321, 41.1664352 ], [ -71.5467559, 41.1664366 ], [ -71.5467823, 41.1664302 ], [ -71.5468081, 41.1664149 ], [ -71.5468265, 41.1663966 ], [ -71.5468524, 41.1663596 ], [ -71.5468781, 41.1663305 ], [ -71.5468975, 41.1663159 ], [ -71.5469249, 41.1663016 ], [ -71.5469563, 41.16629 ], [ -71.5470854, 41.1662546 ], [ -71.5471927, 41.1662121 ], [ -71.5472551, 41.1661929 ], [ -71.5473312, 41.1661771 ], [ -71.5473813, 41.1661716 ], [ -71.5474255, 41.1661699 ], [ -71.5474802, 41.1661744 ], [ -71.5476222, 41.1662017 ], [ -71.5476654, 41.1662079 ], [ -71.5477027, 41.166208 ], [ -71.5477369, 41.1661999 ], [ -71.547765, 41.1661837 ], [ -71.5477799, 41.1661693 ], [ -71.5477887, 41.1661525 ], [ -71.5477897, 41.1661349 ], [ -71.5477838, 41.1661197 ], [ -71.5477664, 41.1661001 ], [ -71.5477483, 41.1660885 ], [ -71.5477134, 41.1660729 ], [ -71.5477116, 41.166069 ], [ -71.5477139, 41.1660606 ], [ -71.5477225, 41.1660505 ], [ -71.5477399, 41.1660379 ], [ -71.5477913, 41.1660123 ], [ -71.547852, 41.1659895 ], [ -71.5479011, 41.1659761 ], [ -71.5479505, 41.1659707 ], [ -71.5479726, 41.1659729 ], [ -71.5479919, 41.1659795 ], [ -71.5480097, 41.1659914 ], [ -71.548033, 41.1660157 ], [ -71.5480604, 41.1660539 ], [ -71.5481575, 41.1662196 ], [ -71.5481683, 41.1662323 ], [ -71.5481927, 41.1662513 ], [ -71.5482133, 41.1662596 ], [ -71.5482324, 41.1662627 ], [ -71.5482695, 41.1662594 ], [ -71.5483149, 41.1662441 ], [ -71.5483591, 41.1662229 ], [ -71.548526, 41.1661341 ], [ -71.5486037, 41.1661013 ], [ -71.5486449, 41.166087 ], [ -71.5487277, 41.1660639 ], [ -71.5487683, 41.1660554 ], [ -71.5488267, 41.1660482 ], [ -71.5488769, 41.1660496 ], [ -71.5489061, 41.1660567 ], [ -71.5489342, 41.1660682 ], [ -71.5489885, 41.1661 ], [ -71.5490729, 41.1661664 ], [ -71.5491185, 41.1662099 ], [ -71.5491377, 41.1662324 ], [ -71.5491629, 41.1662743 ], [ -71.5491691, 41.1662954 ], [ -71.5491724, 41.166358 ], [ -71.5491698, 41.1663874 ], [ -71.5491684, 41.1663925 ], [ -71.549157, 41.1663956 ], [ -71.5490855, 41.1664045 ], [ -71.5490693, 41.1664217 ], [ -71.5490343, 41.166421 ], [ -71.5490041, 41.1664245 ], [ -71.5489784, 41.1664313 ], [ -71.5489495, 41.1664434 ], [ -71.5489208, 41.1664597 ], [ -71.5488453, 41.1665089 ], [ -71.5488064, 41.1665405 ], [ -71.5487106, 41.1666298 ], [ -71.5486377, 41.1667011 ], [ -71.5486063, 41.1667358 ], [ -71.5485901, 41.1667602 ], [ -71.5485837, 41.1667809 ], [ -71.5485862, 41.1668023 ], [ -71.5485956, 41.1668163 ], [ -71.5486094, 41.1668251 ], [ -71.5486241, 41.1668287 ], [ -71.5486445, 41.1668285 ], [ -71.5486666, 41.1668233 ], [ -71.5487072, 41.1668052 ], [ -71.5488219, 41.1667367 ], [ -71.5488828, 41.1667069 ], [ -71.5489137, 41.1666963 ], [ -71.5489366, 41.1666912 ], [ -71.5489592, 41.1666886 ], [ -71.548984, 41.1666894 ], [ -71.5490342, 41.1666993 ], [ -71.5490924, 41.1667185 ], [ -71.5491816, 41.1667577 ], [ -71.5493162, 41.1668218 ], [ -71.5493801, 41.1668468 ], [ -71.5495218, 41.1668821 ], [ -71.5496176, 41.1669196 ], [ -71.5497232, 41.1669528 ], [ -71.5497577, 41.1669577 ], [ -71.5497918, 41.1669532 ], [ -71.5498236, 41.1669376 ], [ -71.549841, 41.1669225 ], [ -71.5498552, 41.1669046 ], [ -71.5498724, 41.1668716 ], [ -71.5499166, 41.1667655 ], [ -71.5499438, 41.1667116 ], [ -71.5499601, 41.1666859 ], [ -71.5499876, 41.1666413 ], [ -71.5499937, 41.1666125 ], [ -71.55, 41.1666101 ], [ -71.55, 41.1666343 ], [ -71.55, 41.1672207 ], [ -71.55, 41.1675128 ], [ -71.55, 41.1675584 ], [ -71.55, 41.1676692 ], [ -71.55, 41.1677564 ], [ -71.5498993, 41.1677036 ], [ -71.5493808, 41.1674655 ], [ -71.5493334, 41.1674437 ], [ -71.5492203, 41.1673547 ], [ -71.5491475, 41.1672975 ], [ -71.5489026, 41.1671065 ], [ -71.5487283, 41.1669445 ], [ -71.5485034, 41.1668362 ], [ -71.5482383, 41.1667788 ], [ -71.5482358, 41.1667782 ], [ -71.5480187, 41.166756 ], [ -71.5478146, 41.1667488 ], [ -71.5474902, 41.1667878 ], [ -71.5471352, 41.1668738 ], [ -71.5467953, 41.1669316 ], [ -71.5464096, 41.1668767 ], [ -71.5459389, 41.1667406 ], [ -71.5459217, 41.1667355 ], [ -71.5456249, 41.1666469 ], [ -71.54534, 41.1664723 ], [ -71.5451133, 41.1662315 ], [ -71.5447941, 41.1659713 ], [ -71.5446734, 41.1658729 ], [ -71.5444988, 41.1657716 ], [ -71.544368, 41.1656958 ], [ -71.5440471, 41.1654451 ], [ -71.5437963, 41.1649338 ], [ -71.5437842, 41.1648969 ], [ -71.5437317, 41.1647372 ], [ -71.5436267, 41.1644174 ], [ -71.5435935, 41.1639408 ], [ -71.5436926, 41.1635299 ], [ -71.5437176, 41.1634262 ], [ -71.5436969, 41.163272 ], [ -71.5436933, 41.1632451 ], [ -71.5437001, 41.1630292 ], [ -71.5435175, 41.1626795 ], [ -71.5431995, 41.162401 ], [ -71.54318, 41.1623893 ], [ -71.5429105, 41.1622266 ], [ -71.5427515, 41.1621607 ], [ -71.5425949, 41.1620959 ], [ -71.5425136, 41.1620383 ], [ -71.5423761, 41.1619412 ], [ -71.5420418, 41.1615706 ], [ -71.5420145, 41.1614938 ], [ -71.5419392, 41.1612819 ], [ -71.5419428, 41.1612087 ], [ -71.5419537, 41.1609914 ], [ -71.5422476, 41.1605855 ], [ -71.5424756, 41.1604304 ], [ -71.5428131, 41.1602009 ], [ -71.5437981, 41.1598694 ], [ -71.544031, 41.159712 ], [ -71.5440324, 41.1597058 ], [ -71.5440981, 41.1594013 ], [ -71.5442013, 41.1589239 ], [ -71.5442099, 41.15842 ], [ -71.544171, 41.1581065 ], [ -71.5441256, 41.1577419 ], [ -71.5441082, 41.1576019 ], [ -71.5439982, 41.156998 ], [ -71.5438818, 41.1563589 ], [ -71.5438197, 41.1560209 ], [ -71.5438161, 41.1560014 ], [ -71.5437094, 41.1554217 ], [ -71.54374, 41.1551864 ], [ -71.5435109, 41.1549517 ], [ -71.5432574, 41.1545035 ], [ -71.5432869, 41.1542297 ], [ -71.5433736, 41.154011 ], [ -71.5435462, 41.1537103 ], [ -71.5435728, 41.1536679 ], [ -71.5438223, 41.1534641 ], [ -71.5442669, 41.1531101 ], [ -71.5443298, 41.1528673 ], [ -71.5443146, 41.1524854 ], [ -71.5442249, 41.1520943 ], [ -71.5441985, 41.1520154 ], [ -71.5441138, 41.1517631 ], [ -71.5442207, 41.1514389 ], [ -71.5444618, 41.1510986 ], [ -71.5445974, 41.1509738 ], [ -71.5447961, 41.1509461 ], [ -71.544977, 41.1509503 ], [ -71.5452922, 41.1509453 ], [ -71.5456694, 41.1510024 ], [ -71.5459085, 41.1510968 ], [ -71.5460416, 41.1512138 ], [ -71.5461903, 41.1513938 ], [ -71.5463253, 41.1514646 ], [ -71.5466891, 41.1516558 ], [ -71.5469643, 41.151711 ], [ -71.5479194, 41.1518711 ], [ -71.5480208, 41.1518219 ], [ -71.5481242, 41.1517739 ], [ -71.5481775, 41.1516988 ], [ -71.5481827, 41.1516007 ], [ -71.5481839, 41.1515792 ], [ -71.5481672, 41.1514488 ], [ -71.5481642, 41.1513749 ], [ -71.5481771, 41.1512296 ], [ -71.5482103, 41.1511236 ], [ -71.548302, 41.1509907 ], [ -71.548324, 41.1509589 ], [ -71.5483484, 41.1509408 ], [ -71.5484919, 41.1508341 ], [ -71.5486552, 41.1506895 ], [ -71.5488926, 41.1505162 ], [ -71.549176, 41.1504555 ], [ -71.5495966, 41.1503462 ], [ -71.55, 41.1502148 ] ], [ [ -71.5440833, 41.1624016 ], [ -71.5441065, 41.1623986 ], [ -71.5441528, 41.1624034 ], [ -71.5441919, 41.1624168 ], [ -71.5442052, 41.1624255 ], [ -71.5442153, 41.162436 ], [ -71.5442218, 41.162448 ], [ -71.5442241, 41.1624607 ], [ -71.5442224, 41.1624737 ], [ -71.5442168, 41.1624864 ], [ -71.5442029, 41.1625037 ], [ -71.5441886, 41.1625162 ], [ -71.5441572, 41.1625348 ], [ -71.5441239, 41.1625424 ], [ -71.5440959, 41.1625395 ], [ -71.5440715, 41.1625284 ], [ -71.5440503, 41.1625067 ], [ -71.5440357, 41.1624741 ], [ -71.5440341, 41.1624455 ], [ -71.5440386, 41.1624327 ], [ -71.5440468, 41.1624214 ], [ -71.5440675, 41.1624069 ], [ -71.5440833, 41.1624016 ] ], [ [ -71.5454603, 41.1560691 ], [ -71.5454825, 41.1560655 ], [ -71.545508, 41.1560657 ], [ -71.5455378, 41.1560691 ], [ -71.5455818, 41.1560784 ], [ -71.5456089, 41.1560874 ], [ -71.5456287, 41.1560977 ], [ -71.5456401, 41.1561069 ], [ -71.5456504, 41.1561214 ], [ -71.545654, 41.1561333 ], [ -71.545653, 41.1561498 ], [ -71.5456459, 41.1561661 ], [ -71.5456325, 41.1561832 ], [ -71.5456125, 41.1562016 ], [ -71.5455653, 41.156233 ], [ -71.5455447, 41.1562414 ], [ -71.5455284, 41.1562451 ], [ -71.545496, 41.1562444 ], [ -71.5454671, 41.1562328 ], [ -71.5454453, 41.1562126 ], [ -71.5454229, 41.1561729 ], [ -71.5454155, 41.1561518 ], [ -71.5454114, 41.1561273 ], [ -71.5454131, 41.156111 ], [ -71.5454178, 41.1560989 ], [ -71.5454291, 41.156085 ], [ -71.5454409, 41.1560767 ], [ -71.5454603, 41.1560691 ] ], [ [ -71.5493519, 41.1518437 ], [ -71.549507, 41.1517521 ], [ -71.5496918, 41.1515401 ], [ -71.5497598, 41.151244 ], [ -71.5497407, 41.1511866 ], [ -71.5496703, 41.1511445 ], [ -71.5496016, 41.1511584 ], [ -71.5493206, 41.1513585 ], [ -71.5489097, 41.1514216 ], [ -71.5488729, 41.1515807 ], [ -71.5489176, 41.1516961 ], [ -71.5490677, 41.1518251 ], [ -71.5491616, 41.1518534 ], [ -71.5493519, 41.1518437 ] ] ] } }
]
}
