{
"type": "FeatureCollection",
"name": "RESARE",
"crs": { "type": "name", "properties": { "name": "urn:ogc:def:crs:OGC:1.3:CRS84" } },
"features": [
{ "type": "Feature", "properties": { "RCID": 1355, "PRIM": 3, "GRUP": 2, "OBJL": 112, "RVER": 1, "AGEN": 550, "FIDN": 491217484, "FIDS": 8691, "LNAM": "02261D47624C21F3", "CATREA": [ "4" ], "OBJNAM": "North Atlantic Right Whale Seasonal Management Area (SMA)", "PEREND": "--0430", "PERSTA": "--1101", "RESTRN": [ "27" ], "STATUS": [ "5" ], "INFORM": "50 CFR 224.105: All vessels greater than or equal to 65ft/19.8m in length must slow to speeds of 10 knots or less in seasonal management areas.", "SCAMIN": 29999, "SORDAT": "20171002", "SORIND": "US,US,reprt,L-642-2017" }, "geometry": { "type": "Polygon", "coordinates": [ [ [ -71.4838746, 41.1 ], [ -71.475, 41.1 ], [ -71.475, 41.1342911 ], [ -71.475, 41.1576204 ], [ -71.475, 41.1617909 ], [ -71.475, 41.1690266 ], [ -71.475, 41.1699344 ], [ -71.5179167, 41.1588211 ], [ -71.5239668, 41.1572544 ], [ -71.5372459, 41.1538158 ], [ -71.5412763, 41.1527721 ], [ -71.5423018, 41.1525065 ], [ -71.544047, 41.1520546 ], [ -71.5441985, 41.1520154 ], [ -71.5463253, 41.1514646 ], [ -71.5483484, 41.1509408 ], [ -71.55, 41.1505131 ], [ -71.55, 41.1504879 ], [ -71.55, 41.1504877 ], [ -71.55, 41.1504842 ], [ -71.55, 41.1504636 ], [ -71.55, 41.1503555 ], [ -71.55, 41.1503052 ], [ -71.55, 41.1502148 ], [ -71.55, 41.1496849 ], [ -71.55, 41.1496302 ], [ -71.55, 41.1495373 ], [ -71.55, 41.1494301 ], [ -71.55, 41.1479958 ], [ -71.55, 41.1479044 ], [ -71.55, 41.1478652 ], [ -71.55, 41.1475653 ], [ -71.55, 41.1469693 ], [ -71.55, 41.1468022 ], [ -71.55, 41.1467734 ], [ -71.55, 41.146766 ], [ -71.55, 41.1467219 ], [ -71.55, 41.1467181 ], [ -71.55, 41.1464571 ], [ -71.55, 41.1462186 ], [ -71.55, 41.1455485 ], [ -71.55, 41.1453872 ], [ -71.55, 41.14534 ], [ -71.55, 41.1444549 ], [ -71.55, 41.1443236 ], [ -71.55, 41.1441398 ], [ -71.55, 41.1441162 ], [ -71.55, 41.1430986 ], [ -71.55, 41.1426458 ], [ -71.55, 41.142518 ], [ -71.55, 41.1424976 ], [ -71.55, 41.1423716 ], [ -71.55, 41.1423702 ], [ -71.55, 41.1419498 ], [ -71.55, 41.1418737 ], [ -71.55, 41.141484 ], [ -71.55, 41.1406488 ], [ -71.55, 41.1394851 ], [ -71.55, 41.1375874 ], [ -71.55, 41.1373804 ], [ -71.55, 41.1370654 ], [ -71.55, 41.1370472 ], [ -71.55, 41.1355492 ], [ -71.55, 41.1353297 ], [ -71.55, 41.1353097 ], [ -71.55, 41.1352842 ], [ -71.55, 41.1352838 ], [ -71.55, 41.1350397 ], [ -71.55, 41.1350391 ], [ -71.55, 41.1349919 ], [ -71.55, 41.1349419 ], [ -71.55, 41.1337287 ], [ -71.55, 41.1335912 ], [ -71.55, 41.1332632 ], [ -71.55, 41.1329507 ], [ -71.55, 41.1329342 ], [ -71.55, 41.1320383 ], [ -71.55, 41.1317695 ], [ -71.55, 41.1306403 ], [ -71.55, 41.1306385 ], [ -71.55, 41.1306114 ], [ -71.55, 41.1306104 ], [ -71.55, 41.1305753 ], [ -71.55, 41.1305441 ], [ -71.55, 41.1305414 ], [ -71.55, 41.1293443 ], [ -71.55, 41.1293434 ], [ -71.55, 41.129162 ], [ -71.55, 41.1291605 ], [ -71.55, 41.1291276 ], [ -71.55, 41.1290906 ], [ -71.55, 41.1290849 ], [ -71.55, 41.1289674 ], [ -71.55, 41.1289265 ], [ -71.55, 41.1165252 ], [ -71.55, 41.1148172 ], [ -71.55, 41.1147003 ], [ -71.55, 41.1146018 ], [ -71.55, 41.1136285 ], [ -71.55, 41.1135624 ], [ -71.55, 41.113522 ], [ -71.55, 41.1134144 ], [ -71.55, 41.1134116 ], [ -71.55, 41.1131396 ], [ -71.55, 41.1131089 ], [ -71.55, 41.1130829 ], [ -71.55, 41.1130811 ], [ -71.55, 41.1130684 ], [ -71.55, 41.1130123 ], [ -71.55, 41.112014 ], [ -71.55, 41.112001 ], [ -71.55, 41.111987 ], [ -71.55, 41.1117562 ], [ -71.55, 41.1117395 ], [ -71.55, 41.1117244 ], [ -71.55, 41.1112266 ], [ -71.55, 41.1110737 ], [ -71.55, 41.1110362 ], [ -71.55, 41.1070073 ], [ -71.55, 41.1069771 ], [ -71.55, 41.1063532 ], [ -71.55, 41.1061374 ], [ -71.55, 41.1054681 ], [ -71.55, 41.1052777 ], [ -71.55, 41.1050933 ], [ -71.55, 41.1045351 ], [ -71.55, 41.103598 ], [ -71.55, 41.1035954 ], [ -71.55, 41.1035639 ], [ -71.55, 41.1035592 ], [ -71.55, 41.1034519 ], [ -71.55, 41.103346 ], [ -71.55, 41.1027766 ], [ -71.55, 41.1002237 ], [ -71.55, 41.100046 ], [ -71.55, 41.100039 ], [ -71.55, 41.1 ], [ -71.5496163, 41.1 ], [ -71.5491649, 41.1 ], [ -71.5428753, 41.1 ], [ -71.5428235, 41.1 ], [ -71.542367, 41.1 ], [ -71.538093, 41.1 ], [ -71.5379089, 41.1 ], [ -71.537716, 41.1 ], [ -71.5376955, 41.1 ], [ -71.5351658, 41.1 ], [ -71.5314679, 41.1 ], [ -71.5198122, 41.1 ], [ -71.519209, 41.1 ], [ -71.5074607, 41.1 ], [ -71.4838746, 41.1 ] ] ] } },
{ "type": "Feature", "properties": { "RCID": 1356, "PRIM": 3, "GRUP": 2, "OBJL": 112, "RVER": 1, "AGEN": 550, "FIDN": 859010262, "FIDS": 8691, "LNAM": "0226333374D621F3", "RESTRN": [ "16" ], "INFORM": "40 CFR 140", "SCAMIN": 29999, "TXTDSC": "US414BEB.TXT", "SORDAT": "200611", "SORIND": "US,US,graph,Chart 13217" }, "geometry": { "type": "Polygon", "coordinates": [ [ [ -71.55, 41.100039 ], [ -71.547851, 41.100463 ], [ -71.544349, 41.101329 ], [ -71.543269, 41.101496 ], [ -71.538852, 41.102384 ], [ -71.536341, 41.10275 ], [ -71.533037, 41.103383 ], [ -71.53035, 41.104032 ], [ -71.527772, 41.104681 ], [ -71.523681, 41.105973 ], [ -71.521214, 41.106855 ], [ -71.519364, 41.107571 ], [ -71.516016, 41.109003 ], [ -71.513042, 41.110468 ], [ -71.511368, 41.111217 ], [ -71.508582, 41.112661 ], [ -71.5059662, 41.1141851 ], [ -71.505697, 41.114342 ], [ -71.502811, 41.116189 ], [ -71.499749, 41.118054 ], [ -71.496938, 41.120016 ], [ -71.495065, 41.121414 ], [ -71.491717, 41.124276 ], [ -71.489867, 41.126057 ], [ -71.488008, 41.128035 ], [ -71.485915, 41.130548 ], [ -71.4848587, 41.1319689 ], [ -71.484307, 41.132711 ], [ -71.482938, 41.134822 ], [ -71.481374, 41.137617 ], [ -71.479986, 41.140446 ], [ -71.479124, 41.142724 ], [ -71.478551, 41.144354 ], [ -71.477846, 41.146933 ], [ -71.477317, 41.149495 ], [ -71.47703, 41.151058 ], [ -71.476854, 41.15332 ], [ -71.4768025, 41.154567 ], [ -71.476766, 41.155449 ], [ -71.476788, 41.157556 ], [ -71.476876, 41.159236 ], [ -71.4769813, 41.1601634 ], [ -71.477097, 41.161182 ], [ -71.477493, 41.163461 ], [ -71.477582, 41.164523 ], [ -71.47778, 41.166236 ], [ -71.478088, 41.168282 ], [ -71.478529, 41.170195 ], [ -71.479146, 41.172604 ], [ -71.4795392, 41.1743704 ], [ -71.479542, 41.174383 ], [ -71.4797237, 41.175 ], [ -71.4799334, 41.175 ], [ -71.5042679, 41.175 ], [ -71.504938, 41.175 ], [ -71.5049447, 41.175 ], [ -71.5051322, 41.175 ], [ -71.5051348, 41.175 ], [ -71.5058081, 41.175 ], [ -71.5080923, 41.175 ], [ -71.5120553, 41.175 ], [ -71.5165982, 41.175 ], [ -71.5179167, 41.175 ], [ -71.519183, 41.175 ], [ -71.5229144, 41.175 ], [ -71.5247596, 41.175 ], [ -71.5285987, 41.175 ], [ -71.5324645, 41.175 ], [ -71.5325499, 41.175 ], [ -71.5325732, 41.175 ], [ -71.5325841, 41.175 ], [ -71.532608, 41.175 ], [ -71.5339082, 41.175 ], [ -71.5361206, 41.175 ], [ -71.5361702, 41.175 ], [ -71.53651, 41.175 ], [ -71.5366255, 41.175 ], [ -71.5397767, 41.175 ], [ -71.539778, 41.175 ], [ -71.5400691, 41.175 ], [ -71.5402466, 41.175 ], [ -71.540247, 41.175 ], [ -71.5402633, 41.175 ], [ -71.5423773, 41.175 ], [ -71.5428482, 41.175 ], [ -71.5430484, 41.175 ], [ -71.5465579, 41.175 ], [ -71.5465583, 41.175 ], [ -71.5465909, 41.175 ], [ -71.5466347, 41.175 ], [ -71.546673, 41.175 ], [ -71.5476557, 41.175 ], [ -71.5487088, 41.175 ], [ -71.549437, 41.175 ], [ -71.5494826, 41.175 ], [ -71.54951, 41.175 ], [ -71.5498316, 41.175 ], [ -71.55, 41.175 ], [ -71.55, 41.1749563 ], [ -71.55, 41.1744368 ], [ -71.55, 41.174434 ], [ -71.55, 41.1739966 ], [ -71.55, 41.1738298 ], [ -71.55, 41.1726049 ], [ -71.55, 41.1718611 ], [ -71.55, 41.1718608 ], [ -71.55, 41.171841 ], [ -71.55, 41.1716527 ], [ -71.55, 41.1716024 ], [ -71.55, 41.171602 ], [ -71.55, 41.1713799 ], [ -71.55, 41.171011 ], [ -71.55, 41.1710105 ], [ -71.55, 41.1708878 ], [ -71.55, 41.1695497 ], [ -71.55, 41.1694702 ], [ -71.55, 41.1693278 ], [ -71.55, 41.1693274 ], [ -71.55, 41.1692582 ], [ -71.55, 41.1691589 ], [ -71.55, 41.1690082 ], [ -71.55, 41.1686956 ], [ -71.55, 41.1685652 ], [ -71.55, 41.1685632 ], [ -71.55, 41.1683516 ], [ -71.55, 41.1682349 ], [ -71.55, 41.1682181 ], [ -71.55, 41.1679475 ], [ -71.55, 41.1679474 ], [ -71.55, 41.1679365 ], [ -71.55, 41.167804 ], [ -71.55, 41.1678032 ], [ -71.55, 41.1677564 ], [ -71.55, 41.1676692 ], [ -71.55, 41.1675584 ], [ -71.55, 41.1675128 ], [ -71.55, 41.1672207 ], [ -71.55, 41.1666343 ], [ -71.55, 41.1666101 ], [ -71.55, 41.1666091 ], [ -71.55, 41.166481 ], [ -71.5499537, 41.1664884 ], [ -71.5497413, 41.1665225 ], [ -71.5496974, 41.1665151 ], [ -71.5495611, 41.1664921 ], [ -71.5491375, 41.1660203 ], [ -71.5486174, 41.1657353 ], [ -71.5480652, 41.1656041 ], [ -71.5473818, 41.1657743 ], [ -71.5470566, 41.1657984 ], [ -71.5467631, 41.1657764 ], [ -71.5466312, 41.1657242 ], [ -71.5460561, 41.165347 ], [ -71.5454778, 41.1651281 ], [ -71.5454335, 41.1651114 ], [ -71.5454327, 41.1651111 ], [ -71.5454214, 41.1651068 ], [ -71.545356, 41.1650821 ], [ -71.5451813, 41.1649807 ], [ -71.5450272, 41.1648033 ], [ -71.5450216, 41.1647709 ], [ -71.5449875, 41.1645758 ], [ -71.545218, 41.1641754 ], [ -71.5453429, 41.1639584 ], [ -71.5454009, 41.1638577 ], [ -71.5454793, 41.1633086 ], [ -71.5454606, 41.1630229 ], [ -71.545417, 41.1629298 ], [ -71.545381, 41.1628529 ], [ -71.5450608, 41.1625617 ], [ -71.5447898, 41.1621471 ], [ -71.5443929, 41.1618115 ], [ -71.5443048, 41.1616148 ], [ -71.5443234, 41.1614151 ], [ -71.5443921, 41.1612524 ], [ -71.5446981, 41.1609063 ], [ -71.5452332, 41.1603011 ], [ -71.5455286, 41.1596487 ], [ -71.5455365, 41.1596124 ], [ -71.5455591, 41.159509 ], [ -71.5455714, 41.1594523 ], [ -71.5455685, 41.1592312 ], [ -71.5454377, 41.1587254 ], [ -71.5454004, 41.1581916 ], [ -71.5452855, 41.1578127 ], [ -71.5452891, 41.1574521 ], [ -71.5453807, 41.157218 ], [ -71.5455249, 41.1569926 ], [ -71.5457573, 41.1568255 ], [ -71.5463009, 41.1564346 ], [ -71.5465809, 41.1560394 ], [ -71.5465993, 41.1559613 ], [ -71.5466191, 41.1558769 ], [ -71.5466357, 41.1553592 ], [ -71.5465083, 41.1546965 ], [ -71.5465385, 41.1545994 ], [ -71.5466136, 41.1543573 ], [ -71.5469477, 41.1540346 ], [ -71.5473489, 41.1537528 ], [ -71.5477705, 41.1535951 ], [ -71.5481047, 41.1535025 ], [ -71.548389, 41.1534238 ], [ -71.5487524, 41.1532391 ], [ -71.5491074, 41.1529751 ], [ -71.5492022, 41.1528781 ], [ -71.5495258, 41.1525469 ], [ -71.5498099, 41.1523596 ], [ -71.5499736, 41.1522517 ], [ -71.55, 41.1522343 ], [ -71.55, 41.151905 ], [ -71.55, 41.1518894 ], [ -71.55, 41.1517535 ], [ -71.55, 41.1517091 ], [ -71.55, 41.1513246 ], [ -71.55, 41.1512221 ], [ -71.55, 41.1505131 ], [ -71.55, 41.1504879 ], [ -71.55, 41.1504877 ], [ -71.55, 41.1504842 ], [ -71.55, 41.1504636 ], [ -71.55, 41.1503555 ], [ -71.55, 41.1503052 ], [ -71.55, 41.1502148 ], [ -71.55, 41.1496849 ], [ -71.55, 41.1496302 ], [ -71.55, 41.1495373 ], [ -71.55, 41.1494301 ], [ -71.55, 41.1479958 ], [ -71.55, 41.1479044 ], [ -71.55, 41.1478652 ], [ -71.55, 41.1475653 ], [ -71.55, 41.1469693 ], [ -71.55, 41.1468022 ], [ -71.55, 41.1467734 ], [ -71.55, 41.146766 ], [ -71.55, 41.1467219 ], [ -71.55, 41.1467181 ], [ -71.55, 41.1464571 ], [ -71.55, 41.1462186 ], [ -71.55, 41.1455485 ], [ -71.55, 41.1453872 ], [ -71.55, 41.14534 ], [ -71.55, 41.1444549 ], [ -71.55, 41.1443236 ], [ -71.55, 41.1441398 ], [ -71.55, 41.1441162 ], [ -71.55, 41.1430986 ], [ -71.55, 41.1426458 ], [ -71.55, 41.142518 ], [ -71.55, 41.1424976 ], [ -71.55, 41.1423716 ], [ -71.55, 41.1423702 ], [ -71.55, 41.1419498 ], [ -71.55, 41.1418737 ], [ -71.55, 41.141484 ], [ -71.55, 41.1406488 ], [ -71.55, 41.1394851 ], [ -71.55, 41.1375874 ], [ -71.55, 41.1373804 ], [ -71.55, 41.1370654 ], [ -71.55, 41.1370472 ], [ -71.55, 41.1355492 ], [ -71.55, 41.1353297 ], [ -71.55, 41.1353097 ], [ -71.55, 41.1352842 ], [ -71.55, 41.1352838 ], [ -71.55, 41.1350397 ], [ -71.55, 41.1350391 ], [ -71.55, 41.1349919 ], [ -71.55, 41.1349419 ], [ -71.55, 41.1337287 ], [ -71.55, 41.1335912 ], [ -71.55, 41.1332632 ], [ -71.55, 41.1329507 ], [ -71.55, 41.1329342 ], [ -71.55, 41.1320383 ], [ -71.55, 41.1317695 ], [ -71.55, 41.1306403 ], [ -71.55, 41.1306385 ], [ -71.55, 41.1306114 ], [ -71.55, 41.1306104 ], [ -71.55, 41.1305753 ], [ -71.55, 41.1305441 ], [ -71.55, 41.1305414 ], [ -71.55, 41.1293443 ], [ -71.55, 41.1293434 ], [ -71.55, 41.129162 ], [ -71.55, 41.1291605 ], [ -71.55, 41.1291276 ], [ -71.55, 41.1290906 ], [ -71.55, 41.1290849 ], [ -71.55, 41.1289674 ], [ -71.55, 41.1289265 ], [ -71.55, 41.1165252 ], [ -71.55, 41.1148172 ], [ -71.55, 41.1147003 ], [ -71.55, 41.1146018 ], [ -71.55, 41.1136285 ], [ -71.55, 41.1135624 ], [ -71.55, 41.113522 ], [ -71.55, 41.1134144 ], [ -71.55, 41.1134116 ], [ -71.55, 41.1131396 ], [ -71.55, 41.1131089 ], [ -71.55, 41.1130829 ], [ -71.55, 41.1130811 ], [ -71.55, 41.1130684 ], [ -71.55, 41.1130123 ], [ -71.55, 41.112014 ], [ -71.55, 41.112001 ], [ -71.55, 41.111987 ], [ -71.55, 41.1117562 ], [ -71.55, 41.1117395 ], [ -71.55, 41.1117244 ], [ -71.55, 41.1112266 ], [ -71.55, 41.1110737 ], [ -71.55, 41.1110362 ], [ -71.55, 41.1070073 ], [ -71.55, 41.1069771 ], [ -71.55, 41.1063532 ], [ -71.55, 41.1061374 ], [ -71.55, 41.1054681 ], [ -71.55, 41.1052777 ], [ -71.55, 41.1050933 ], [ -71.55, 41.1045351 ], [ -71.55, 41.103598 ], [ -71.55, 41.1035954 ], [ -71.55, 41.1035639 ], [ -71.55, 41.1035592 ], [ -71.55, 41.1034519 ], [ -71.55, 41.103346 ], [ -71.55, 41.1027766 ], [ -71.55, 41.1002237 ], [ -71.55, 41.100046 ], [ -71.55, 41.100039 ] ] ] } }
]
}
