{
"type": "FeatureCollection",
"name": "SLOTOP",
"crs": { "type": "name", "properties": { "name": "urn:ogc:def:crs:OGC:1.3:CRS84" } },
"features": [
{ "type": "Feature", "properties": { "RCID": 216, "PRIM": 2, "GRUP": 2, "OBJL": 126, "RVER": 1, "AGEN": 550, "FIDN": 268054983, "FIDS": 8691, "LNAM": "02260FFA31C721F3", "CATSLO": 6, "SCAMIN": 17999, "SORDAT": "20140818", "SORIND": "US,US,graph,GC11187" }, "geometry": { "type": "LineString", "coordinates": [ [ -71.55, 41.1529674 ], [ -71.5498461, 41.1530762 ], [ -71.5499108, 41.1532132 ], [ -71.5498892, 41.153322 ], [ -71.5497745, 41.1535231 ], [ -71.5496411, 41.1536249 ], [ -71.5493024, 41.1535898 ], [ -71.5492674, 41.153633 ], [ -71.5490487, 41.1536376 ], [ -71.5484947, 41.153883 ], [ -71.5480254, 41.1539331 ], [ -71.5476874, 41.154107 ], [ -71.5476263, 41.1541881 ], [ -71.5475272, 41.1542073 ], [ -71.5475125, 41.1542076 ], [ -71.5474961, 41.154212 ], [ -71.5475036, 41.1542337 ], [ -71.547505, 41.1542348 ], [ -71.5475276, 41.1542541 ], [ -71.5475356, 41.1542936 ], [ -71.5475268, 41.1543228 ], [ -71.5474747, 41.154333 ], [ -71.5474084, 41.1543545 ], [ -71.5474038, 41.154356 ], [ -71.5473463, 41.1543684 ], [ -71.5473288, 41.1543842 ], [ -71.5473295, 41.1544523 ], [ -71.5473724, 41.1546146 ], [ -71.5472501, 41.1547216 ], [ -71.5472065, 41.1548378 ], [ -71.5472142, 41.154977 ], [ -71.547339, 41.1552422 ], [ -71.5474392, 41.1553303 ], [ -71.5474063, 41.1554127 ], [ -71.5474111, 41.1557271 ], [ -71.5473018, 41.155925 ], [ -71.5473064, 41.1561398 ], [ -71.5472562, 41.1563344 ], [ -71.5471781, 41.1564053 ], [ -71.5469007, 41.1564964 ], [ -71.5467814, 41.1566481 ], [ -71.5466117, 41.1567376 ], [ -71.5462736, 41.1568137 ], [ -71.5461791, 41.1569176 ], [ -71.5460027, 41.156979 ], [ -71.5459598, 41.1570234 ], [ -71.5459445, 41.1571295 ], [ -71.5458056, 41.15728 ], [ -71.5457588, 41.1575142 ], [ -71.5457766, 41.157606 ], [ -71.545915, 41.1580443 ], [ -71.5460235, 41.1581139 ], [ -71.5460322, 41.1581528 ], [ -71.5459621, 41.1582057 ], [ -71.5459749, 41.1583389 ], [ -71.5460659, 41.1584939 ], [ -71.5460135, 41.1586902 ], [ -71.5462057, 41.1589264 ], [ -71.5462138, 41.1591068 ], [ -71.5463767, 41.1593837 ], [ -71.5463965, 41.1594973 ], [ -71.5463783, 41.1595516 ], [ -71.5463152, 41.1595837 ], [ -71.5461713, 41.1596078 ], [ -71.5461858, 41.1597456 ], [ -71.5464038, 41.1598687 ], [ -71.5464145, 41.159926 ], [ -71.5462784, 41.1600673 ], [ -71.5459325, 41.1602142 ], [ -71.5459183, 41.1603076 ], [ -71.545819, 41.1604576 ], [ -71.5455959, 41.160591 ], [ -71.5455558, 41.1607354 ], [ -71.5452648, 41.1608907 ], [ -71.5452165, 41.1610122 ], [ -71.545103, 41.1610922 ], [ -71.5449564, 41.1611294 ], [ -71.5448508, 41.1612651 ], [ -71.5447584, 41.1612746 ], [ -71.5447301, 41.1613196 ], [ -71.5447117, 41.1614602 ], [ -71.5446532, 41.1615061 ], [ -71.5446574, 41.1616004 ], [ -71.5447496, 41.1616324 ], [ -71.5447327, 41.16172 ], [ -71.5450886, 41.1620658 ], [ -71.5451787, 41.1622638 ] ] } },
{ "type": "Feature", "properties": { "RCID": 217, "PRIM": 2, "GRUP": 2, "OBJL": 126, "RVER": 1, "AGEN": 550, "FIDN": 418415530, "FIDS": 8691, "LNAM": "022618F083AA21F3", "CATSLO": 6, "SCAMIN": 17999, "SORDAT": "20140818", "SORIND": "US,US,graph,GC11187" }, "geometry": { "type": "LineString", "coordinates": [ [ -71.5456601, 41.1628209 ], [ -71.5458144, 41.1631306 ], [ -71.5458368, 41.1633985 ], [ -71.5456792, 41.1639712 ], [ -71.5455755, 41.1640908 ], [ -71.5455609, 41.16424 ], [ -71.5454463, 41.1642936 ], [ -71.5454199, 41.1643127 ], [ -71.5453948, 41.1643797 ], [ -71.5453139, 41.1644802 ] ] } },
{ "type": "Feature", "properties": { "RCID": 218, "PRIM": 2, "GRUP": 2, "OBJL": 126, "RVER": 1, "AGEN": 550, "FIDN": 5441555, "FIDS": 8691, "LNAM": "02260053081321F3", "CATSLO": 6, "SCAMIN": 17999, "SORDAT": "20140818", "SORIND": "US,US,graph,GC11187" }, "geometry": { "type": "LineString", "coordinates": [ [ -71.5479406, 41.1654697 ], [ -71.5481238, 41.1654452 ], [ -71.5483156, 41.1654161 ], [ -71.5484028, 41.1654028 ], [ -71.5484711, 41.1654254 ], [ -71.5485813, 41.1654691 ], [ -71.5486762, 41.1654976 ], [ -71.5487834, 41.1655413 ], [ -71.5488342, 41.1655644 ], [ -71.5489341, 41.1655751 ], [ -71.5490628, 41.1656404 ], [ -71.5491674, 41.1656908 ], [ -71.5492906, 41.1657629 ], [ -71.5493872, 41.1658419 ], [ -71.5494094, 41.1658811 ], [ -71.5494227, 41.1659162 ], [ -71.5494398, 41.1659732 ], [ -71.5495236, 41.1660817 ], [ -71.5495706, 41.1661512 ], [ -71.5496369, 41.166196 ], [ -71.5496929, 41.1662719 ], [ -71.5497346, 41.1662886 ], [ -71.5498084, 41.1663022 ], [ -71.5498905, 41.1663067 ], [ -71.5499316, 41.1663101 ], [ -71.55, 41.1662993 ] ] } }
]
}
