{
"type": "FeatureCollection",
"name": "LNDARE",
"crs": { "type": "name", "properties": { "name": "urn:ogc:def:crs:OGC:1.3:CRS84" } },
"features": [
{ "type": "Feature", "properties": { "RCID": 212, "PRIM": 3, "GRUP": 1, "OBJL": 71, "RVER": 1, "AGEN": 550, "FIDN": 458972848, "FIDS": 8691, "LNAM": "02261B5B5EB021F3", "OBJNAM": "Block Island" }, "geometry": { "type": "Polygon", "coordinates": [ [ [ -71.5454778, 41.1651281 ], [ -71.5454335, 41.1651114 ], [ -71.5454327, 41.1651111 ], [ -71.5454214, 41.1651068 ], [ -71.545356, 41.1650821 ], [ -71.5451813, 41.1649807 ], [ -71.5450272, 41.1648033 ], [ -71.5450216, 41.1647709 ], [ -71.5449875, 41.1645758 ], [ -71.545218, 41.1641754 ], [ -71.5453429, 41.1639584 ], [ -71.5454009, 41.1638577 ], [ -71.5454793, 41.1633086 ], [ -71.5454606, 41.1630229 ], [ -71.545417, 41.1629298 ], [ -71.545381, 41.1628529 ], [ -71.5450608, 41.1625617 ], [ -71.5447898, 41.1621471 ], [ -71.5443929, 41.1618115 ], [ -71.5443048, 41.1616148 ], [ -71.5443234, 41.1614151 ], [ -71.5443921, 41.1612524 ], [ -71.5446981, 41.1609063 ], [ -71.5452332, 41.1603011 ], [ -71.5455286, 41.1596487 ], [ -71.5455365, 41.1596124 ], [ -71.5455591, 41.159509 ], [ -71.5455714, 41.1594523 ], [ -71.5455685, 41.1592312 ], [ -71.5454377, 41.1587254 ], [ -71.5454004, 41.1581916 ], [ -71.5452855, 41.1578127 ], [ -71.5452891, 41.1574521 ], [ -71.5453807, 41.157218 ], [ -71.5455249, 41.1569926 ], [ -71.5457573, 41.1568255 ], [ -71.5463009, 41.1564346 ], [ -71.5465809, 41.1560394 ], [ -71.5465993, 41.1559613 ], [ -71.5466191, 41.1558769 ], [ -71.5466357, 41.1553592 ], [ -71.5465083, 41.1546965 ], [ -71.5465385, 41.1545994 ], [ -71.5466136, 41.1543573 ], [ -71.5469477, 41.1540346 ], [ -71.5473489, 41.1537528 ], [ -71.5477705, 41.1535951 ], [ -71.5481047, 41.1535025 ], [ -71.548389, 41.1534238 ], [ -71.5487524, 41.1532391 ], [ -71.5491074, 41.1529751 ], [ -71.5492022, 41.1528781 ], [ -71.5495258, 41.1525469 ], [ -71.5498099, 41.1523596 ], [ -71.5499736, 41.1522517 ], [ -71.55, 41.1522343 ], [ -71.55, 41.1529674 ], [ -71.55, 41.1662993 ], [ -71.55, 41.166481 ], [ -71.5499537, 41.1664884 ], [ -71.5497413, 41.1665225 ], [ -71.5496974, 41.1665151 ], [ -71.5495611, 41.1664921 ], [ -71.5491375, 41.1660203 ], [ -71.5486174, 41.1657353 ], [ -71.5480652, 41.1656041 ], [ -71.5473818, 41.1657743 ], [ -71.5470566, 41.1657984 ], [ -71.5467631, 41.1657764 ], [ -71.5466312, 41.1657242 ], [ -71.5460561, 41.165347 ], [ -71.5454778, 41.1651281 ] ] ] } },
{ "type": "Feature", "properties": { "RCID": 215, "PRIM": 2, "GRUP": 2, "OBJL": 71, "RVER": 1, "AGEN": 550, "FIDN": 273548453, "FIDS": 8691, "LNAM": "0226104E04A521F3", "SORDAT": "20140818", "SORIND": "US,US,graph,GC11187" }, "geometry": { "type": "LineString", "coordinates": [ [ -71.544984, 41.15719 ], [ -71.5449371, 41.1572764 ], [ -71.5447695, 41.1572675 ] ] } },
{ "type": "Feature", "properties": { "RCID": 219, "PRIM": 1, "GRUP": 2, "OBJL": 71, "RVER": 1, "AGEN": 550, "FIDN": 792763919, "FIDS": 8200, "LNAM": "02262F409E0F2008", "OBJNAM": "WTG-5" }, "geometry": { "type": "Point", "coordinates": [ -71.5376389, 41.1063306 ] } },
{ "type": "Feature", "properties": { "RCID": 220, "PRIM": 1, "GRUP": 2, "OBJL": 71, "RVER": 1, "AGEN": 550, "FIDN": 566430136, "FIDS": 8664, "LNAM": "022621C309B821D8", "OBJNAM": "WTG-3" }, "geometry": { "type": "Point", "coordinates": [ -71.5211611, 41.1147111 ] } },
{ "type": "Feature", "properties": { "RCID": 221, "PRIM": 1, "GRUP": 2, "OBJL": 71, "RVER": 1, "AGEN": 550, "FIDN": 722522479, "FIDS": 7363, "LNAM": "02262B10D16F1CC3", "OBJNAM": "WTG-2" }, "geometry": { "type": "Point", "coordinates": [ -71.51395, 41.1198806 ] } },
{ "type": "Feature", "properties": { "RCID": 222, "PRIM": 1, "GRUP": 2, "OBJL": 71, "RVER": 1, "AGEN": 550, "FIDN": 877147789, "FIDS": 7363, "LNAM": "02263448368D1CC3", "OBJNAM": "WTG-1" }, "geometry": { "type": "Point", "coordinates": [ -71.5075111, 41.1257611 ] } },
{ "type": "Feature", "properties": { "RCID": 223, "PRIM": 1, "GRUP": 2, "OBJL": 71, "RVER": 1, "AGEN": 550, "FIDN": 950401879, "FIDS": 7363, "LNAM": "022638A5FB571CC3", "OBJNAM": "WTG-4" }, "geometry": { "type": "Point", "coordinates": [ -71.5290611, 41.11015 ] } },
{ "type": "Feature", "properties": { "RCID": 224, "PRIM": 1, "GRUP": 2, "OBJL": 71, "RVER": 1, "AGEN": 550, "FIDN": 811664362, "FIDS": 7311, "LNAM": "0226306103EA1C8F", "SORDAT": "20140818", "SORIND": "US,US,graph,GC11187" }, "geometry": { "type": "Point", "coordinates": [ -71.5467205, 41.1662178 ] } },
{ "type": "Feature", "properties": { "RCID": 225, "PRIM": 1, "GRUP": 2, "OBJL": 71, "RVER": 1, "AGEN": 550, "FIDN": 853270690, "FIDS": 7311, "LNAM": "022632DBE0A21C8F", "SORDAT": "20140818", "SORIND": "US,US,graph,GC11187" }, "geometry": { "type": "Point", "coordinates": [ -71.5447535, 41.1577624 ] } },
{ "type": "Feature", "properties": { "RCID": 226, "PRIM": 1, "GRUP": 2, "OBJL": 71, "RVER": 1, "AGEN": 550, "FIDN": 297524797, "FIDS": 7311, "LNAM": "022611BBDE3D1C8F", "SORDAT": "20140818", "SORIND": "US,US,graph,GC11187" }, "geometry": { "type": "Point", "coordinates": [ -71.5446967, 41.1647325 ] } },
{ "type": "Feature", "properties": { "RCID": 227, "PRIM": 1, "GRUP": 2, "OBJL": 71, "RVER": 1, "AGEN": 550, "FIDN": 892629318, "FIDS": 7311, "LNAM": "0226353471461C8F", "SORDAT": "20140818", "SORIND": "US,US,graph,GC11187" }, "geometry": { "type": "Point", "coordinates": [ -71.5446437, 41.1650583 ] } },
{ "type": "Feature", "properties": { "RCID": 228, "PRIM": 1, "GRUP": 2, "OBJL": 71, "RVER": 1, "AGEN": 550, "FIDN": 511330605, "FIDS": 7311, "LNAM": "02261E7A492D1C8F", "SORDAT": "20140818", "SORIND": "US,US,graph,GC11187" }, "geometry": { "type": "Point", "coordinates": [ -71.5498178, 41.152077 ] } },
{ "type": "Feature", "properties": { "RCID": 229, "PRIM": 1, "GRUP": 2, "OBJL": 71, "RVER": 1, "AGEN": 550, "FIDN": 95935214, "FIDS": 7311, "LNAM": "022605B7DAEE1C8F", "SORDAT": "20140818", "SORIND": "US,US,graph,GC11187" }, "geometry": { "type": "Point", "coordinates": [ -71.5493399, 41.1523135 ] } },
{ "type": "Feature", "properties": { "RCID": 230, "PRIM": 1, "GRUP": 2, "OBJL": 71, "RVER": 1, "AGEN": 550, "FIDN": 19793856, "FIDS": 7311, "LNAM": "0226012E07C01C8F", "SORDAT": "20140818", "SORIND": "US,US,graph,GC11187" }, "geometry": { "type": "Point", "coordinates": [ -71.5493163, 41.1667038 ] } },
{ "type": "Feature", "properties": { "RCID": 231, "PRIM": 1, "GRUP": 2, "OBJL": 71, "RVER": 1, "AGEN": 550, "FIDN": 867244809, "FIDS": 7311, "LNAM": "022633B11B091C8F", "SORDAT": "20140818", "SORIND": "US,US,graph,GC11187" }, "geometry": { "type": "Point", "coordinates": [ -71.5477115, 41.1532267 ] } },
{ "type": "Feature", "properties": { "RCID": 232, "PRIM": 1, "GRUP": 2, "OBJL": 71, "RVER": 1, "AGEN": 550, "FIDN": 809117628, "FIDS": 7311, "LNAM": "0226303A27BC1C8F", "SORDAT": "20140818", "SORIND": "US,US,graph,GC11187" }, "geometry": { "type": "Point", "coordinates": [ -71.5461815, 41.1545566 ] } },
{ "type": "Feature", "properties": { "RCID": 233, "PRIM": 1, "GRUP": 2, "OBJL": 71, "RVER": 1, "AGEN": 550, "FIDN": 263059788, "FIDS": 7311, "LNAM": "02260FADF94C1C8F", "SORDAT": "20140818", "SORIND": "US,US,graph,GC11187" }, "geometry": { "type": "Point", "coordinates": [ -71.5447252, 41.1581587 ] } },
{ "type": "Feature", "properties": { "RCID": 234, "PRIM": 1, "GRUP": 2, "OBJL": 71, "RVER": 1, "AGEN": 550, "FIDN": 628808946, "FIDS": 7311, "LNAM": "0226257ADCF21C8F", "SORDAT": "20140818", "SORIND": "US,US,graph,GC11187" }, "geometry": { "type": "Point", "coordinates": [ -71.54411, 41.1609202 ] } },
{ "type": "Feature", "properties": { "RCID": 235, "PRIM": 1, "GRUP": 2, "OBJL": 71, "RVER": 1, "AGEN": 550, "FIDN": 101395023, "FIDS": 7311, "LNAM": "0226060B2A4F1C8F", "SORDAT": "20140818", "SORIND": "US,US,graph,GC11187" }, "geometry": { "type": "Point", "coordinates": [ -71.5440073, 41.1615913 ] } },
{ "type": "Feature", "properties": { "RCID": 236, "PRIM": 1, "GRUP": 2, "OBJL": 71, "RVER": 1, "AGEN": 550, "FIDN": 930918689, "FIDS": 7311, "LNAM": "0226377CB1211C8F", "SORDAT": "20140818", "SORIND": "US,US,graph,GC11187" }, "geometry": { "type": "Point", "coordinates": [ -71.5438012, 41.1606761 ] } },
{ "type": "Feature", "properties": { "RCID": 237, "PRIM": 1, "GRUP": 2, "OBJL": 71, "RVER": 1, "AGEN": 550, "FIDN": 36934500, "FIDS": 7311, "LNAM": "0226023393641C8F", "SORDAT": "20140818", "SORIND": "US,US,graph,GC11187" }, "geometry": { "type": "Point", "coordinates": [ -71.5480061, 41.1533136 ] } },
{ "type": "Feature", "properties": { "RCID": 238, "PRIM": 1, "GRUP": 2, "OBJL": 71, "RVER": 1, "AGEN": 550, "FIDN": 877829462, "FIDS": 7311, "LNAM": "022634529D561C8F", "SORDAT": "20140818", "SORIND": "US,US,graph,GC11187" }, "geometry": { "type": "Point", "coordinates": [ -71.5464013, 41.1661401 ] } },
{ "type": "Feature", "properties": { "RCID": 239, "PRIM": 1, "GRUP": 2, "OBJL": 71, "RVER": 1, "AGEN": 550, "FIDN": 790586904, "FIDS": 7311, "LNAM": "02262F1F66181C8F", "SORDAT": "20140818", "SORIND": "US,US,graph,GC11187" }, "geometry": { "type": "Point", "coordinates": [ -71.546299, 41.1549398 ] } },
{ "type": "Feature", "properties": { "RCID": 240, "PRIM": 1, "GRUP": 2, "OBJL": 71, "RVER": 1, "AGEN": 550, "FIDN": 550680961, "FIDS": 7311, "LNAM": "022620D2B9811C8F", "SORDAT": "20140818", "SORIND": "US,US,graph,GC11187" }, "geometry": { "type": "Point", "coordinates": [ -71.5449908, 41.1577076 ] } },
{ "type": "Feature", "properties": { "RCID": 241, "PRIM": 1, "GRUP": 2, "OBJL": 71, "RVER": 1, "AGEN": 550, "FIDN": 504710441, "FIDS": 7311, "LNAM": "02261E1545291C8F", "SORDAT": "20140818", "SORIND": "US,US,graph,GC11187" }, "geometry": { "type": "Point", "coordinates": [ -71.5449057, 41.1569496 ] } },
{ "type": "Feature", "properties": { "RCID": 242, "PRIM": 1, "GRUP": 2, "OBJL": 71, "RVER": 1, "AGEN": 550, "FIDN": 50228179, "FIDS": 7311, "LNAM": "022602FE6BD31C8F", "SORDAT": "20140818", "SORIND": "US,US,graph,GC11187" }, "geometry": { "type": "Point", "coordinates": [ -71.5444325, 41.1572658 ] } },
{ "type": "Feature", "properties": { "RCID": 243, "PRIM": 1, "GRUP": 2, "OBJL": 71, "RVER": 1, "AGEN": 550, "FIDN": 964355546, "FIDS": 7311, "LNAM": "0226397AE5DA1C8F", "SORDAT": "20140818", "SORIND": "US,US,graph,GC11187" }, "geometry": { "type": "Point", "coordinates": [ -71.5469098, 41.1532778 ] } },
{ "type": "Feature", "properties": { "RCID": 244, "PRIM": 1, "GRUP": 2, "OBJL": 71, "RVER": 1, "AGEN": 550, "FIDN": 414219881, "FIDS": 7311, "LNAM": "022618B07E691C8F", "SORDAT": "20140818", "SORIND": "US,US,graph,GC11187" }, "geometry": { "type": "Point", "coordinates": [ -71.5460916, 41.1547842 ] } },
{ "type": "Feature", "properties": { "RCID": 245, "PRIM": 1, "GRUP": 2, "OBJL": 71, "RVER": 1, "AGEN": 550, "FIDN": 558877203, "FIDS": 7311, "LNAM": "0226214FCA131C8F", "SORDAT": "20140818", "SORIND": "US,US,graph,GC11187" }, "geometry": { "type": "Point", "coordinates": [ -71.5451622, 41.156819 ] } },
{ "type": "Feature", "properties": { "RCID": 246, "PRIM": 1, "GRUP": 2, "OBJL": 71, "RVER": 1, "AGEN": 550, "FIDN": 235750666, "FIDS": 7311, "LNAM": "02260E0D450A1C8F", "SORDAT": "20140818", "SORIND": "US,US,graph,GC11187" }, "geometry": { "type": "Point", "coordinates": [ -71.5446442, 41.1644255 ] } },
{ "type": "Feature", "properties": { "RCID": 247, "PRIM": 1, "GRUP": 2, "OBJL": 71, "RVER": 1, "AGEN": 550, "FIDN": 174669004, "FIDS": 7311, "LNAM": "02260A693CCC1C8F", "SORDAT": "20140818", "SORIND": "US,US,graph,GC11187" }, "geometry": { "type": "Point", "coordinates": [ -71.5490468, 41.1664666 ] } },
{ "type": "Feature", "properties": { "RCID": 248, "PRIM": 1, "GRUP": 2, "OBJL": 71, "RVER": 1, "AGEN": 550, "FIDN": 133598561, "FIDS": 7311, "LNAM": "022607F68D611C8F", "SORDAT": "20140818", "SORIND": "US,US,graph,GC11187" }, "geometry": { "type": "Point", "coordinates": [ -71.5478352, 41.1530337 ] } },
{ "type": "Feature", "properties": { "RCID": 249, "PRIM": 1, "GRUP": 2, "OBJL": 71, "RVER": 1, "AGEN": 550, "FIDN": 873245843, "FIDS": 7311, "LNAM": "0226340CAC931C8F", "SORDAT": "20140818", "SORIND": "US,US,graph,GC11187" }, "geometry": { "type": "Point", "coordinates": [ -71.5463354, 41.1538927 ] } },
{ "type": "Feature", "properties": { "RCID": 250, "PRIM": 1, "GRUP": 2, "OBJL": 71, "RVER": 1, "AGEN": 550, "FIDN": 448095914, "FIDS": 7311, "LNAM": "02261AB566AA1C8F", "SORDAT": "20140818", "SORIND": "US,US,graph,GC11187" }, "geometry": { "type": "Point", "coordinates": [ -71.5450206, 41.1582752 ] } },
{ "type": "Feature", "properties": { "RCID": 251, "PRIM": 1, "GRUP": 2, "OBJL": 71, "RVER": 1, "AGEN": 550, "FIDN": 43167963, "FIDS": 7311, "LNAM": "02260292B0DB1C8F", "SORDAT": "20140818", "SORIND": "US,US,graph,GC11187" }, "geometry": { "type": "Point", "coordinates": [ -71.5446663, 41.1625395 ] } },
{ "type": "Feature", "properties": { "RCID": 252, "PRIM": 1, "GRUP": 2, "OBJL": 71, "RVER": 1, "AGEN": 550, "FIDN": 43086660, "FIDS": 7311, "LNAM": "0226029173441C8F", "SORDAT": "20140818", "SORIND": "US,US,graph,GC11187" }, "geometry": { "type": "Point", "coordinates": [ -71.5443694, 41.1608946 ] } },
{ "type": "Feature", "properties": { "RCID": 253, "PRIM": 1, "GRUP": 2, "OBJL": 71, "RVER": 1, "AGEN": 550, "FIDN": 747732375, "FIDS": 7311, "LNAM": "02262C917D971C8F", "SORDAT": "20140818", "SORIND": "US,US,graph,GC11187" }, "geometry": { "type": "Point", "coordinates": [ -71.549021, 41.1526336 ] } },
{ "type": "Feature", "properties": { "RCID": 254, "PRIM": 1, "GRUP": 2, "OBJL": 71, "RVER": 1, "AGEN": 550, "FIDN": 529058379, "FIDS": 7311, "LNAM": "02261F88CA4B1C8F", "SORDAT": "20140818", "SORIND": "US,US,graph,GC11187" }, "geometry": { "type": "Point", "coordinates": [ -71.5463631, 41.1558075 ] } },
{ "type": "Feature", "properties": { "RCID": 255, "PRIM": 1, "GRUP": 2, "OBJL": 71, "RVER": 1, "AGEN": 550, "FIDN": 766967696, "FIDS": 7311, "LNAM": "02262DB6FF901C8F", "SORDAT": "20140818", "SORIND": "US,US,graph,GC11187" }, "geometry": { "type": "Point", "coordinates": [ -71.5461515, 41.1659453 ] } },
{ "type": "Feature", "properties": { "RCID": 256, "PRIM": 1, "GRUP": 2, "OBJL": 71, "RVER": 1, "AGEN": 550, "FIDN": 814453644, "FIDS": 7311, "LNAM": "0226308B938C1C8F", "SORDAT": "20140818", "SORIND": "US,US,graph,GC11187" }, "geometry": { "type": "Point", "coordinates": [ -71.5451637, 41.1571313 ] } },
{ "type": "Feature", "properties": { "RCID": 257, "PRIM": 1, "GRUP": 2, "OBJL": 71, "RVER": 1, "AGEN": 550, "FIDN": 159531640, "FIDS": 7311, "LNAM": "0226098242781C8F", "SORDAT": "20140818", "SORIND": "US,US,graph,GC11187" }, "geometry": { "type": "Point", "coordinates": [ -71.5447352, 41.1642382 ] } },
{ "type": "Feature", "properties": { "RCID": 258, "PRIM": 1, "GRUP": 2, "OBJL": 71, "RVER": 1, "AGEN": 550, "FIDN": 624023913, "FIDS": 7311, "LNAM": "02262531D9691C8F", "SORDAT": "20140818", "SORIND": "US,US,graph,GC11187" }, "geometry": { "type": "Point", "coordinates": [ -71.5437926, 41.160909 ] } },
{ "type": "Feature", "properties": { "RCID": 259, "PRIM": 1, "GRUP": 2, "OBJL": 71, "RVER": 1, "AGEN": 550, "FIDN": 469270305, "FIDS": 7311, "LNAM": "02261BF87F211C8F", "SORDAT": "20140818", "SORIND": "US,US,graph,GC11187" }, "geometry": { "type": "Point", "coordinates": [ -71.5492699, 41.166536 ] } },
{ "type": "Feature", "properties": { "RCID": 260, "PRIM": 1, "GRUP": 2, "OBJL": 71, "RVER": 1, "AGEN": 550, "FIDN": 100703207, "FIDS": 7311, "LNAM": "022606009BE71C8F", "SORDAT": "20140818", "SORIND": "US,US,graph,GC11187" }, "geometry": { "type": "Point", "coordinates": [ -71.5487605, 41.1528773 ] } },
{ "type": "Feature", "properties": { "RCID": 261, "PRIM": 1, "GRUP": 2, "OBJL": 71, "RVER": 1, "AGEN": 550, "FIDN": 667867977, "FIDS": 7311, "LNAM": "022627CEDB491C8F", "SORDAT": "20140818", "SORIND": "US,US,graph,GC11187" }, "geometry": { "type": "Point", "coordinates": [ -71.546199, 41.1542423 ] } },
{ "type": "Feature", "properties": { "RCID": 262, "PRIM": 1, "GRUP": 2, "OBJL": 71, "RVER": 1, "AGEN": 550, "FIDN": 927001575, "FIDS": 7311, "LNAM": "02263740EBE71C8F", "SORDAT": "20140818", "SORIND": "US,US,graph,GC11187" }, "geometry": { "type": "Point", "coordinates": [ -71.5460478, 41.1661268 ] } },
{ "type": "Feature", "properties": { "RCID": 263, "PRIM": 1, "GRUP": 2, "OBJL": 71, "RVER": 1, "AGEN": 550, "FIDN": 250413551, "FIDS": 7311, "LNAM": "02260EED01EF1C8F", "SORDAT": "20140818", "SORIND": "US,US,graph,GC11187" }, "geometry": { "type": "Point", "coordinates": [ -71.545158, 41.1588627 ] } },
{ "type": "Feature", "properties": { "RCID": 264, "PRIM": 1, "GRUP": 2, "OBJL": 71, "RVER": 1, "AGEN": 550, "FIDN": 215031138, "FIDS": 7311, "LNAM": "02260CD11D621C8F", "SORDAT": "20140818", "SORIND": "US,US,graph,GC11187" }, "geometry": { "type": "Point", "coordinates": [ -71.5449166, 41.1651318 ] } },
{ "type": "Feature", "properties": { "RCID": 265, "PRIM": 1, "GRUP": 2, "OBJL": 71, "RVER": 1, "AGEN": 550, "FIDN": 827692636, "FIDS": 7311, "LNAM": "02263155965C1C8F", "SORDAT": "20140818", "SORIND": "US,US,graph,GC11187" }, "geometry": { "type": "Point", "coordinates": [ -71.5472587, 41.1535281 ] } },
{ "type": "Feature", "properties": { "RCID": 266, "PRIM": 1, "GRUP": 2, "OBJL": 71, "RVER": 1, "AGEN": 550, "FIDN": 406393631, "FIDS": 7311, "LNAM": "02261839131F1C8F", "SORDAT": "20140818", "SORIND": "US,US,graph,GC11187" }, "geometry": { "type": "Point", "coordinates": [ -71.546668, 41.1538094 ] } },
{ "type": "Feature", "properties": { "RCID": 267, "PRIM": 1, "GRUP": 2, "OBJL": 71, "RVER": 1, "AGEN": 550, "FIDN": 917770285, "FIDS": 7311, "LNAM": "022636B4102D1C8F", "SORDAT": "20140818", "SORIND": "US,US,graph,GC11187" }, "geometry": { "type": "Point", "coordinates": [ -71.5450245, 41.1633263 ] } },
{ "type": "Feature", "properties": { "RCID": 268, "PRIM": 1, "GRUP": 2, "OBJL": 71, "RVER": 1, "AGEN": 550, "FIDN": 835504739, "FIDS": 7311, "LNAM": "022631CCCA631C8F", "SORDAT": "20140818", "SORIND": "US,US,graph,GC11187" }, "geometry": { "type": "Point", "coordinates": [ -71.5439993, 41.1613033 ] } }
]
}
