{
"type": "FeatureCollection",
"name": "SOUNDG",
"crs": { "type": "name", "properties": { "name": "urn:ogc:def:crs:OGC:1.3:CRS84" } },
"features": [
{ "type": "Feature", "properties": { "RCID": 1381, "PRIM": 1, "GRUP": 2, "OBJL": 129, "RVER": 1, "AGEN": 550, "FIDN": 488119000, "FIDS": 52214, "LNAM": "02261D181AD8CBF6", "SCAMIN": 17999, "SORDAT": "20140623", "SORIND": "US,US,graph,H12700" }, "geometry": { "type": "MultiPoint", "coordinates": [ [ -71.51988, 41.1119857, 24.1 ], [ -71.5198448, 41.1583537, 32.4 ], [ -71.5197796, 41.1180765, 24.2 ], [ -71.5197525, 41.1211034, 26.8 ], [ -71.5196701, 41.1413526, 28.5 ], [ -71.5196499, 41.1657075, 29.9 ], [ -71.5195251, 41.1612068, 29.9 ], [ -71.5193338, 41.162436, 30.2 ], [ -71.519158, 41.1292226, 29.8 ], [ -71.5191345, 41.1559914, 31.6 ], [ -71.5191087, 41.1478498, 29.4 ], [ -71.519096, 41.1276027, 30.3 ], [ -71.5190118, 41.1527877, 30.0 ], [ -71.5188125, 41.1089828, 26.0 ], [ -71.5185514, 41.1681454, 31.6 ], [ -71.5183146, 41.11465, 25.5 ], [ -71.5182694, 41.1284134, 29.7 ], [ -71.5180809, 41.1608421, 31.1 ], [ -71.5180542, 41.1364883, 30.0 ], [ -71.5179939, 41.1000298, 26.2 ], [ -71.5179908, 41.1261138, 29.5 ], [ -71.5177026, 41.102378, 26.5 ], [ -71.5176429, 41.1058019, 24.9 ], [ -71.517632, 41.1640584, 30.0 ], [ -71.5176202, 41.1450723, 29.7 ], [ -71.5175178, 41.1697892, 32.8 ], [ -71.5172202, 41.1333721, 29.8 ], [ -71.5171479, 41.138958, 29.4 ], [ -71.5170533, 41.1576582, 31.7 ], [ -71.5170072, 41.1552093, 29.4 ], [ -71.5169243, 41.1667399, 29.1 ], [ -71.5169086, 41.1302085, 29.2 ], [ -71.5168673, 41.1527986, 28.7 ], [ -71.5167908, 41.1283737, 29.5 ], [ -71.5167547, 41.1236909, 28.5 ], [ -71.5165814, 41.1727279, 34.2 ], [ -71.5163271, 41.1498922, 27.9 ], [ -71.5160964, 41.1600569, 32.1 ], [ -71.5160906, 41.1623988, 30.7 ], [ -71.5159876, 41.1422618, 27.6 ], [ -71.5155979, 41.16821, 29.6 ], [ -71.5155176, 41.1187462, 25.6 ], [ -71.5152558, 41.1106457, 25.5 ], [ -71.5151232, 41.1657705, 30.0 ], [ -71.5150768, 41.1471094, 29.1 ], [ -71.5150108, 41.1640797, 30.1 ], [ -71.5149103, 41.136521, 29.5 ], [ -71.5148508, 41.1561572, 28.4 ], [ -71.5144414, 41.1629032, 29.8 ], [ -71.5143757, 41.1300117, 29.5 ], [ -71.5143404, 41.1714799, 33.0 ], [ -71.5143224, 41.1261219, 29.5 ], [ -71.5141539, 41.1129755, 24.3 ], [ -71.5141207, 41.1046179, 24.2 ], [ -71.5140115, 41.1341988, 29.8 ], [ -71.5138778, 41.1593848, 29.8 ], [ -71.5138632, 41.1440375, 29.2 ], [ -71.5137545, 41.1000144, 26.0 ], [ -71.5137182, 41.1389969, 29.3 ], [ -71.5135166, 41.1212397, 26.9 ], [ -71.5133543, 41.1731226, 33.7 ], [ -71.5130033, 41.1639434, 30.0 ], [ -71.5129986, 41.1625744, 30.8 ], [ -71.512913, 41.1528489, 27.3 ], [ -71.5128636, 41.1552999, 26.9 ], [ -71.5128293, 41.10198, 26.4 ], [ -71.512827, 41.1318829, 28.9 ], [ -71.5127645, 41.1689203, 29.3 ], [ -71.5127358, 41.1244993, 28.3 ], [ -71.5126717, 41.1278152, 29.7 ], [ -71.5126301, 41.1666536, 29.6 ], [ -71.5126034, 41.1410027, 26.3 ], [ -71.5124641, 41.1073921, 25.1 ], [ -71.5118252, 41.1618074, 29.6 ], [ -71.5116739, 41.1578477, 27.3 ], [ -71.511283, 41.1463636, 29.5 ], [ -71.5112723, 41.1747893, 33.6 ], [ -71.5112193, 41.1172188, 26.4 ], [ -71.5111485, 41.1715496, 31.5 ], [ -71.5108931, 41.1099123, 26.3 ], [ -71.5108498, 41.1375103, 30.2 ], [ -71.5107976, 41.1361424, 29.9 ], [ -71.5107022, 41.1648582, 29.1 ], [ -71.5105019, 41.1496231, 28.3 ], [ -71.5102977, 41.1342799, 29.5 ], [ -71.5100822, 41.1735903, 32.9 ], [ -71.509991, 41.1699536, 29.0 ], [ -71.5098975, 41.1675058, 29.5 ], [ -71.5098805, 41.1433318, 29.3 ], [ -71.5096852, 41.1294655, 29.3 ], [ -71.5095534, 41.1010067, 25.2 ], [ -71.5094656, 41.1549417, 26.3 ], [ -71.5094216, 41.1263009, 28.6 ], [ -71.5093653, 41.1123234, 24.3 ], [ -71.508905, 41.1227454, 26.3 ], [ -71.5088514, 41.1613319, 27.4 ], [ -71.5086166, 41.1351812, 30.1 ], [ -71.5086077, 41.1411979, 27.3 ], [ -71.5084704, 41.1075873, 26.0 ], [ -71.5083542, 41.1520477, 27.2 ], [ -71.5083498, 41.1044195, 24.8 ], [ -71.5081481, 41.1741369, 33.4 ], [ -71.5081144, 41.1470091, 29.4 ], [ -71.5079091, 41.1716202, 29.1 ], [ -71.5077223, 41.1667245, 28.3 ], [ -71.5077059, 41.1375428, 30.4 ], [ -71.5077013, 41.1186645, 25.0 ], [ -71.5073363, 41.1391, 28.3 ], [ -71.5068908, 41.1586726, 26.0 ], [ -71.506769, 41.1692312, 27.0 ], [ -71.5066571, 41.1100046, 24.9 ], [ -71.5066236, 41.1441594, 30.1 ], [ -71.5065837, 41.1643715, 28.9 ], [ -71.5065216, 41.1352268, 30.1 ], [ -71.5064184, 41.131266, 28.8 ], [ -71.5060794, 41.1749025, 33.3 ], [ -71.505827, 41.1732868, 31.0 ], [ -71.5057653, 41.1716669, 27.2 ], [ -71.5056214, 41.1553857, 25.9 ], [ -71.5055626, 41.1676002, 26.1 ], [ -71.5055107, 41.1149293, 26.3 ], [ -71.5054677, 41.1012758, 26.0 ], [ -71.5053254, 41.1238321, 25.9 ], [ -71.505212, 41.1271131, 27.2 ], [ -71.5048997, 41.1489525, 29.0 ], [ -71.5047589, 41.1364901, 28.6 ], [ -71.5047287, 41.1457137, 30.3 ], [ -71.5046068, 41.14251, 29.8 ], [ -71.5044971, 41.1396302, 27.6 ], [ -71.5043564, 41.1522068, 26.7 ], [ -71.5043167, 41.1611784, 28.0 ], [ -71.5041186, 41.1058806, 25.5 ], [ -71.5040982, 41.1116095, 23.8 ], [ -71.5037733, 41.1744483, 31.8 ], [ -71.5037503, 41.1700895, 25.5 ], [ -71.5036601, 41.1639668, 26.6 ], [ -71.5036396, 41.1684346, 25.1 ], [ -71.5035615, 41.1663828, 24.0 ], [ -71.5032719, 41.1725497, 29.2 ], [ -71.5031138, 41.1295726, 27.6 ], [ -71.5028329, 41.1434853, 30.3 ], [ -71.5027122, 41.1340487, 28.7 ], [ -71.5025158, 41.1376557, 28.2 ], [ -71.5024023, 41.1409367, 29.6 ], [ -71.5021411, 41.1465986, 29.0 ], [ -71.5019179, 41.1632842, 25.0 ], [ -71.5019063, 41.1191148, 24.8 ], [ -71.5018763, 41.1546745, 27.0 ], [ -71.50179, 41.1223238, 26.8 ], [ -71.5017032, 41.1588935, 26.9 ], [ -71.5016851, 41.1684411, 23.9 ], [ -71.501604, 41.1425032, 29.8 ], [ -71.5014783, 41.174282, 31.3 ], [ -71.5013999, 41.1709692, 25.4 ], [ -71.501322, 41.1150204, 26.9 ], [ -71.5012719, 41.1650996, 26.4 ], [ -71.500877, 41.1271353, 26.1 ], [ -71.5007208, 41.1004423, 25.7 ], [ -71.5006886, 41.1497646, 28.0 ], [ -71.5004611, 41.1726108, 28.9 ], [ -71.5003919, 41.143214, 29.6 ], [ -71.5003688, 41.1087363, 24.3 ], [ -71.5001396, 41.1403373, 29.5 ], [ -71.5001271, 41.1387524, 28.5 ], [ -71.5000503, 41.1618116, 27.2 ], [ -71.4999516, 41.1027647, 26.5 ], [ -71.4999049, 41.1366676, 28.2 ], [ -71.4998134, 41.1417855, 30.0 ], [ -71.4996219, 41.1693506, 23.7 ], [ -71.4995639, 41.1527793, 27.5 ], [ -71.4991591, 41.112005, 25.1 ], [ -71.4991563, 41.1558505, 24.7 ], [ -71.4991546, 41.167091, 24.9 ], [ -71.4991276, 41.1337663, 27.8 ], [ -71.4990204, 41.1635633, 26.4 ], [ -71.4990179, 41.171021, 25.8 ], [ -71.4989556, 41.1304915, 26.7 ], [ -71.4988522, 41.1453371, 29.3 ], [ -71.4986634, 41.1240489, 25.7 ], [ -71.4984265, 41.1742762, 31.4 ], [ -71.4982035, 41.1470805, 28.9 ], [ -71.4980484, 41.105328, 24.5 ], [ -71.4978409, 41.1726677, 28.7 ], [ -71.4977286, 41.1621862, 25.2 ], [ -71.4976558, 41.142697, 27.4 ], [ -71.4974476, 41.1585536, 26.2 ], [ -71.4972848, 41.1191071, 25.8 ], [ -71.497276, 41.1653304, 25.5 ], [ -71.4971349, 41.1678914, 24.7 ], [ -71.4970552, 41.1394315, 29.2 ], [ -71.4969942, 41.1491242, 28.5 ], [ -71.4968917, 41.1702745, 26.0 ], [ -71.4965569, 41.136344, 27.9 ], [ -71.4965119, 41.1539984, 27.9 ], [ -71.4963536, 41.1510836, 28.1 ], [ -71.4961449, 41.1279945, 25.7 ], [ -71.4961282, 41.145144, 29.6 ], [ -71.4960943, 41.171877, 27.4 ], [ -71.4959492, 41.1668003, 22.7 ], [ -71.4958668, 41.1005476, 25.4 ], [ -71.49572, 41.1632746, 26.5 ], [ -71.4954497, 41.1159404, 27.0 ], [ -71.4954038, 41.1411246, 29.2 ], [ -71.4953876, 41.1080157, 23.9 ], [ -71.4953297, 41.1743434, 31.0 ], [ -71.4951743, 41.133816, 27.2 ], [ -71.4948797, 41.1687689, 25.0 ], [ -71.4948426, 41.1112339, 25.6 ], [ -71.494731, 41.1661062, 25.2 ], [ -71.4944976, 41.1612115, 26.6 ], [ -71.4942183, 41.123677, 25.0 ], [ -71.4941007, 41.1306328, 26.3 ], [ -71.4939819, 41.1727514, 29.1 ], [ -71.4938088, 41.1707016, 25.6 ], [ -71.4937934, 41.1677837, 25.8 ], [ -71.493781, 41.1548862, 26.7 ], [ -71.4937178, 41.1381348, 27.7 ], [ -71.4936369, 41.1448017, 29.9 ], [ -71.4934676, 41.1516505, 27.8 ], [ -71.4934481, 41.1473637, 29.0 ], [ -71.4932116, 41.1046402, 24.8 ], [ -71.4928524, 41.1743971, 31.7 ], [ -71.492755, 41.1265548, 25.9 ], [ -71.4926063, 41.1653956, 25.5 ], [ -71.4923675, 41.159096, 25.7 ], [ -71.4922863, 41.1632409, 22.3 ], [ -71.4920625, 41.1422418, 28.3 ], [ -71.4918552, 41.1355091, 27.6 ], [ -71.4918046, 41.1492727, 26.7 ], [ -71.4917805, 41.168764, 25.3 ], [ -71.4917698, 41.1709979, 26.0 ], [ -71.4917654, 41.1671071, 23.6 ], [ -71.4916283, 41.1395851, 29.0 ], [ -71.4912507, 41.1006475, 25.3 ], [ -71.4911735, 41.152745, 27.2 ], [ -71.4909805, 41.1728164, 29.3 ], [ -71.4908692, 41.1157514, 26.0 ], [ -71.4908124, 41.1646058, 25.8 ], [ -71.4905811, 41.1459126, 29.1 ], [ -71.4897556, 41.1744641, 31.5 ], [ -71.489678, 41.1220459, 25.6 ], [ -71.4896329, 41.1712243, 26.5 ], [ -71.4896178, 41.1695674, 24.7 ], [ -71.4894984, 41.1185551, 26.4 ], [ -71.4894601, 41.1112424, 25.7 ], [ -71.4894461, 41.1662926, 25.7 ], [ -71.4893057, 41.1323578, 26.5 ], [ -71.4892197, 41.1250461, 25.8 ], [ -71.4889118, 41.1509205, 27.4 ], [ -71.488895, 41.1681059, 22.4 ], [ -71.4888633, 41.1609732, 24.1 ], [ -71.4887814, 41.1550304, 26.7 ], [ -71.4887421, 41.1073669, 24.3 ], [ -71.4885834, 41.1372011, 28.3 ], [ -71.4885671, 41.17204, 28.7 ], [ -71.4884048, 41.1652343, 26.0 ], [ -71.4882473, 41.1736681, 30.6 ], [ -71.4881928, 41.1281307, 26.1 ], [ -71.4878956, 41.1580759, 27.4 ], [ -71.4878517, 41.1468363, 29.1 ], [ -71.4878446, 41.1037835, 23.1 ], [ -71.4877455, 41.1415065, 28.8 ], [ -71.4876117, 41.1745105, 31.5 ], [ -71.4875545, 41.1729986, 29.8 ], [ -71.4875537, 41.1439966, 29.6 ], [ -71.4875258, 41.1697207, 24.1 ], [ -71.4870275, 41.1678941, 24.6 ], [ -71.487022, 41.1639672, 26.6 ], [ -71.4869227, 41.1663832, 24.7 ], [ -71.4868697, 41.171284, 26.7 ], [ -71.4861645, 41.1526371, 26.2 ], [ -71.4860508, 41.1143063, 25.1 ], [ -71.4860203, 41.1488213, 27.6 ], [ -71.4858245, 41.1348109, 27.7 ], [ -71.4856153, 41.1229623, 26.5 ], [ -71.4855168, 41.1745918, 31.3 ], [ -71.4854542, 41.1729359, 29.3 ], [ -71.4853617, 41.1452688, 28.9 ], [ -71.4852704, 41.1693371, 23.7 ], [ -71.4852694, 41.1011731, 24.1 ], [ -71.4849438, 41.1606976, 27.8 ], [ -71.4848226, 41.1663205, 25.4 ], [ -71.4845273, 41.1648137, 26.3 ], [ -71.4843461, 41.125944, 23.9 ], [ -71.4842972, 41.1713396, 26.7 ], [ -71.4840927, 41.1091246, 24.7 ], [ -71.4840658, 41.1677419, 24.1 ], [ -71.4839814, 41.1061727, 22.2 ], [ -71.4836856, 41.1425309, 29.2 ], [ -71.4835912, 41.1551786, 26.8 ], [ -71.4834127, 41.1630724, 25.4 ], [ -71.4833715, 41.174602, 30.5 ], [ -71.4833498, 41.1374222, 28.0 ], [ -71.4832028, 41.1701383, 24.0 ], [ -71.4831197, 41.1729862, 28.5 ], [ -71.483093, 41.1583957, 28.3 ], [ -71.4830263, 41.1326375, 26.8 ], [ -71.4826565, 41.1291509, 26.0 ], [ -71.4826268, 41.1473093, 28.5 ], [ -71.4824925, 41.1664788, 25.5 ], [ -71.4824178, 41.1202932, 26.8 ], [ -71.4823168, 41.1681399, 23.8 ], [ -71.4822098, 41.1034008, 25.7 ], [ -71.4821057, 41.1713869, 26.7 ], [ -71.4817576, 41.1646933, 26.4 ], [ -71.4817521, 41.1114808, 24.8 ], [ -71.4817422, 41.1162727, 26.4 ], [ -71.4816536, 41.1518338, 26.0 ], [ -71.4813973, 41.1399863, 28.7 ], [ -71.4811977, 41.1738563, 29.3 ], [ -71.4808133, 41.1447184, 29.1 ], [ -71.4807574, 41.1634539, 25.1 ], [ -71.4807371, 41.161653, 26.1 ], [ -71.480663, 41.1697967, 25.0 ], [ -71.4803872, 41.1081236, 23.8 ], [ -71.4800841, 41.1746729, 30.3 ], [ -71.4800394, 41.172224, 27.6 ], [ -71.4800358, 41.1240914, 27.1 ], [ -71.4798015, 41.1684463, 23.4 ], [ -71.4797921, 41.1669333, 24.0 ], [ -71.4795832, 41.1006832, 25.4 ], [ -71.4795414, 41.1552298, 26.5 ], [ -71.4795207, 41.1584727, 27.8 ], [ -71.4794769, 41.1345514, 27.2 ], [ -71.4794169, 41.1481351, 27.6 ], [ -71.4793176, 41.1138751, 25.7 ], [ -71.4790543, 41.1309218, 26.4 ], [ -71.479052, 41.1270669, 24.7 ], [ -71.478992, 41.1646808, 26.2 ], [ -71.478974, 41.1427045, 28.1 ], [ -71.4786713, 41.1738747, 29.2 ], [ -71.4785491, 41.1706349, 25.3 ], [ -71.4785331, 41.1221423, 26.1 ], [ -71.4783553, 41.1629652, 26.9 ], [ -71.4781704, 41.1605914, 26.8 ], [ -71.4779908, 41.1722681, 27.3 ], [ -71.4779879, 41.1747181, 30.0 ], [ -71.4777518, 41.1165748, 26.2 ], [ -71.4777142, 41.1522789, 26.1 ], [ -71.4777027, 41.1684194, 24.3 ], [ -71.4775773, 41.11067, 25.1 ], [ -71.4775033, 41.1061682, 24.0 ], [ -71.477443, 41.1665876, 24.9 ], [ -71.4774412, 41.1032513, 24.6 ], [ -71.47727, 41.156936, 27.1 ], [ -71.4772168, 41.1378065, 27.9 ], [ -71.4766715, 41.1195163, 26.1 ], [ -71.4766034, 41.1455657, 28.4 ], [ -71.4763339, 41.1649902, 25.8 ], [ -71.4762937, 41.1702511, 25.0 ], [ -71.4762327, 41.140782, 28.5 ], [ -71.4758439, 41.1747642, 28.1 ], [ -71.4757842, 41.1731803, 27.0 ], [ -71.4757671, 41.1600667, 26.3 ], [ -71.4757409, 41.1289755, 25.9 ], [ -71.4757185, 41.1245806, 26.7 ], [ -71.4754542, 41.1682156, 24.6 ], [ -71.4754155, 41.1633888, 26.7 ], [ -71.47537, 41.1495192, 27.0 ], [ -71.475204, 41.1666358, 24.3 ], [ -71.4750651, 41.1350787, 27.1 ], [ -71.4750608, 41.1007445, 21.8 ], [ -71.4750466, 41.1320528, 26.6 ], [ -71.4750256, 41.1428975, 28.5 ], [ -71.4750221, 41.1554712, 26.6 ], [ -71.4750113, 41.1716477, 25.6 ] ] } },
{ "type": "Feature", "properties": { "RCID": 1382, "PRIM": 1, "GRUP": 2, "OBJL": 129, "RVER": 1, "AGEN": 550, "FIDN": -671881571, "FIDS": 52214, "LNAM": "0226D7F3E69DCBF6", "SCAMIN": 17999, "SORDAT": "19390101", "SORIND": "US,US,graph,H06443" }, "geometry": { "type": "MultiPoint", "coordinates": [ [ -71.530129, 41.1667026, 30.1 ], [ -71.5300191, 41.1551763, 26.4 ], [ -71.5298992, 41.1508196, 27.0 ], [ -71.5294997, 41.1453883, 28.2 ], [ -71.5215974, 41.1680066, 32.8 ], [ -71.5209866, 41.150835, 30.7 ] ] } },
{ "type": "Feature", "properties": { "RCID": 1383, "PRIM": 1, "GRUP": 2, "OBJL": 129, "RVER": 1, "AGEN": 550, "FIDN": 672592224, "FIDS": 52214, "LNAM": "02262816F160CBF6", "SCAMIN": 17999, "SORDAT": "20180827", "SORIND": "US,US,graph,DD36634" }, "geometry": { "type": "MultiPoint", "coordinates": [ [ -71.5499835, 41.1414418, 16.1 ], [ -71.5499629, 41.1691831, 2.0 ], [ -71.5499158, 41.1446136, 8.3 ], [ -71.5497794, 41.1484716, 7.1 ], [ -71.549684, 41.1496986, 3.0 ], [ -71.5496132, 41.145413, 8.8 ], [ -71.5495961, 41.1474309, 9.2 ], [ -71.5495665, 41.1687956, 2.5 ], [ -71.5494593, 41.1352927, 19.6 ], [ -71.5494536, 41.1744904, 9.6 ], [ -71.5494145, 41.1734825, 8.8 ], [ -71.549332, 41.1430774, 13.3 ], [ -71.5493279, 41.1712507, 6.3 ], [ -71.5492787, 41.1724407, 6.9 ], [ -71.5492512, 41.1692709, 4.3 ], [ -71.5492384, 41.1701719, 4.7 ], [ -71.5491351, 41.1675082, 2.0 ], [ -71.5490766, 41.1463255, 10.4 ], [ -71.5489883, 41.1378971, 18.7 ], [ -71.5489656, 41.139771, 15.8 ], [ -71.5489262, 41.1682694, 3.1 ], [ -71.5488556, 41.1443129, 10.2 ], [ -71.5486343, 41.1718065, 8.4 ], [ -71.5486341, 41.1730314, 9.3 ], [ -71.5485534, 41.1697187, 5.1 ], [ -71.5485282, 41.1690708, 4.9 ], [ -71.5485032, 41.149977, 3.5 ], [ -71.5484055, 41.1745136, 9.4 ], [ -71.548401, 41.1411886, 15.9 ], [ -71.5483103, 41.1474593, 9.8 ], [ -71.5482305, 41.1736888, 9.2 ], [ -71.5482175, 41.1672043, 1.9 ], [ -71.5482093, 41.1485424, 7.9 ], [ -71.5481585, 41.1423108, 14.8 ], [ -71.5480212, 41.1682894, 3.4 ], [ -71.5479449, 41.1724702, 10.0 ], [ -71.5476713, 41.1494189, 3.0 ], [ -71.5476285, 41.1458532, 11.3 ], [ -71.547592, 41.1707487, 7.3 ], [ -71.5475407, 41.1435854, 13.7 ], [ -71.5475212, 41.150467, 3.7 ], [ -71.5474467, 41.1682301, 4.9 ], [ -71.5472679, 41.173458, 11.5 ], [ -71.5472532, 41.1693872, 4.1 ], [ -71.5471842, 41.1712982, 9.8 ], [ -71.5471135, 41.1670125, 4.2 ], [ -71.5471049, 41.1680215, 5.3 ], [ -71.5470397, 41.1491087, 8.0 ], [ -71.5470146, 41.1484607, 9.1 ], [ -71.5469769, 41.1474888, 10.7 ], [ -71.5466511, 41.1378407, 18.0 ], [ -71.5464278, 41.1702341, 8.5 ], [ -71.5464218, 41.17254, 11.5 ], [ -71.546386, 41.1691542, 6.5 ], [ -71.54635, 41.1669934, 2.0 ], [ -71.546337, 41.139577, 18.9 ], [ -71.546251, 41.1496665, 7.6 ], [ -71.5462065, 41.1411291, 15.9 ], [ -71.5461553, 41.1447329, 13.5 ], [ -71.5461334, 41.1490927, 8.7 ], [ -71.5460402, 41.1676127, 4.7 ], [ -71.5458504, 41.1713277, 10.1 ], [ -71.5457953, 41.1735986, 13.9 ], [ -71.5456475, 41.169783, 8.5 ], [ -71.5456296, 41.1680901, 5.4 ], [ -71.5453578, 41.1475246, 12.1 ], [ -71.5453505, 41.1424089, 16.6 ], [ -71.5453496, 41.1670155, 2.6 ], [ -71.5453315, 41.1665476, 1.1 ], [ -71.5453012, 41.1435989, 14.6 ], [ -71.5451676, 41.1463039, 12.1 ], [ -71.545166, 41.1745853, 16.5 ], [ -71.5450879, 41.1725695, 13.9 ], [ -71.5449418, 41.1675649, 3.7 ], [ -71.5448908, 41.150237, 7.4 ], [ -71.5448758, 41.1486161, 10.4 ], [ -71.5446969, 41.1661653, 1.2 ], [ -71.5446502, 41.1686522, 7.4 ], [ -71.5445256, 41.1678984, 2.8 ], [ -71.5444936, 41.1670705, 2.5 ], [ -71.5444096, 41.1735212, 16.2 ], [ -71.5443513, 41.1707844, 10.2 ], [ -71.544343, 41.1447009, 14.5 ], [ -71.5442632, 41.1697416, 10.5 ], [ -71.5442032, 41.1497118, 9.0 ], [ -71.5438063, 41.1579348, 1.8 ], [ -71.5437068, 41.1405719, 17.7 ], [ -71.5436777, 41.1693942, 7.8 ], [ -71.5436774, 41.1706192, 9.9 ], [ -71.5436546, 41.1724931, 15.5 ], [ -71.5436142, 41.1529673, 5.3 ], [ -71.5435838, 41.1571111, 0.6 ], [ -71.5435648, 41.1664785, 2.3 ], [ -71.5435069, 41.1686775, 7.9 ], [ -71.5435025, 41.1513125, 7.6 ], [ -71.5434721, 41.1554563, 3.8 ], [ -71.5434442, 41.1670576, 3.3 ], [ -71.5433754, 41.1677437, 5.2 ], [ -71.5433577, 41.1475688, 14.1 ], [ -71.5433566, 41.1463079, 14.4 ], [ -71.5433172, 41.1650069, 2.8 ], [ -71.543315, 41.1390674, 18.0 ], [ -71.5432141, 41.1746644, 18.1 ], [ -71.5432021, 41.16573, 2.4 ], [ -71.5431829, 41.1640011, 1.1 ], [ -71.5431066, 41.1435393, 16.9 ], [ -71.5430663, 41.1597525, 1.1 ], [ -71.5430248, 41.1574477, 2.6 ], [ -71.5429804, 41.1735528, 17.6 ], [ -71.5429443, 41.1541349, 4.2 ], [ -71.5428873, 41.1699161, 10.0 ], [ -71.5428747, 41.1523351, 7.1 ], [ -71.542827, 41.1584968, 2.9 ], [ -71.5427374, 41.1413859, 17.5 ], [ -71.5426584, 41.1492055, 10.3 ], [ -71.5425978, 41.1562682, 2.5 ], [ -71.5425809, 41.1681575, 7.3 ], [ -71.5425659, 41.1665366, 4.1 ], [ -71.5424941, 41.162215, 1.9 ], [ -71.5424327, 41.1556954, 1.4 ], [ -71.5424231, 41.1603791, 1.8 ], [ -71.5423784, 41.1653879, 3.2 ], [ -71.5423594, 41.1574984, 4.4 ], [ -71.5423243, 41.1689198, 8.1 ], [ -71.5422824, 41.1629041, 2.1 ], [ -71.542198, 41.1644192, 3.4 ], [ -71.5421597, 41.1548007, 5.7 ], [ -71.5421198, 41.1747246, 18.3 ], [ -71.5421005, 41.150803, 10.0 ], [ -71.5420983, 41.1593776, 3.2 ], [ -71.5419761, 41.1500492, 9.5 ], [ -71.5419202, 41.1658664, 5.4 ], [ -71.541875, 41.1671643, 6.0 ], [ -71.5418429, 41.1724971, 17.0 ], [ -71.5418297, 41.1635266, 1.7 ], [ -71.541677, 41.1583421, 4.9 ], [ -71.5415973, 41.1575152, 3.8 ], [ -71.5415922, 41.161082, 2.4 ], [ -71.5415746, 41.1532285, 6.9 ], [ -71.5415375, 41.1559674, 6.5 ], [ -71.5413188, 41.1515408, 9.9 ], [ -71.5412233, 41.1737357, 18.9 ], [ -71.5412207, 41.1465352, 16.8 ], [ -71.541163, 41.168477, 9.1 ], [ -71.5411453, 41.1717199, 15.8 ], [ -71.5410798, 41.1650923, 7.0 ], [ -71.5410568, 41.1620305, 3.8 ], [ -71.5410312, 41.1428646, 17.0 ], [ -71.5409764, 41.1587178, 6.7 ], [ -71.5409549, 41.1606277, 4.1 ], [ -71.5409395, 41.1404889, 19.8 ], [ -71.5409152, 41.157134, 7.4 ], [ -71.5408604, 41.1631157, 3.5 ], [ -71.5406107, 41.1492507, 14.7 ], [ -71.5405426, 41.1672298, 8.6 ], [ -71.5405374, 41.1658609, 9.4 ], [ -71.5404679, 41.1640611, 6.9 ], [ -71.5403201, 41.1614704, 6.2 ], [ -71.5402258, 41.1577977, 8.3 ], [ -71.5401022, 41.1447225, 18.0 ], [ -71.5400924, 41.154342, 8.8 ], [ -71.5400796, 41.1749858, 20.0 ], [ -71.5400632, 41.1535861, 11.5 ], [ -71.5400476, 41.1741579, 19.8 ], [ -71.5400447, 41.1592788, 8.2 ], [ -71.5400214, 41.1525062, 12.7 ], [ -71.5399826, 41.1416268, 19.3 ], [ -71.5399272, 41.1685764, 12.7 ], [ -71.5399099, 41.1508514, 13.2 ], [ -71.539858, 41.1556802, 8.9 ], [ -71.5398577, 41.1667766, 10.3 ], [ -71.5397881, 41.1649767, 10.4 ], [ -71.5397478, 41.1639328, 9.0 ], [ -71.5397005, 41.162709, 7.6 ], [ -71.5396407, 41.1611611, 8.5 ], [ -71.5395562, 41.1725475, 18.6 ], [ -71.5395419, 41.1400874, 20.5 ], [ -71.5394318, 41.1569866, 10.0 ], [ -71.5392683, 41.170032, 14.4 ], [ -71.5390945, 41.1655324, 12.3 ], [ -71.539046, 41.1544011, 9.8 ], [ -71.5390193, 41.1734601, 20.5 ], [ -71.5390124, 41.1634086, 10.2 ], [ -71.5389738, 41.1710473, 17.5 ], [ -71.5389722, 41.1438468, 19.6 ], [ -71.5389642, 41.1424059, 19.2 ], [ -71.5389624, 41.1621128, 8.5 ], [ -71.5388818, 41.160025, 11.1 ], [ -71.5388234, 41.1585131, 11.2 ], [ -71.5386743, 41.1558864, 11.1 ], [ -71.5386135, 41.1530776, 14.8 ], [ -71.5385273, 41.1693638, 15.0 ], [ -71.5384276, 41.1519649, 15.3 ], [ -71.5383397, 41.1645043, 12.1 ], [ -71.538136, 41.1616987, 10.2 ], [ -71.5380279, 41.1490195, 17.0 ], [ -71.5379556, 41.1743121, 22.0 ], [ -71.5379504, 41.1729432, 21.4 ], [ -71.5379395, 41.1541373, 13.2 ], [ -71.5379391, 41.1467157, 16.8 ], [ -71.5378433, 41.1701715, 18.8 ], [ -71.5378057, 41.14326, 20.9 ], [ -71.5378052, 41.1407742, 21.5 ], [ -71.537763, 41.1717945, 21.4 ], [ -71.5375585, 41.1627922, 13.4 ], [ -71.5373709, 41.1579327, 14.2 ], [ -71.5373181, 41.1565648, 13.9 ], [ -71.5372681, 41.1552689, 14.4 ], [ -71.5371834, 41.1530731, 15.7 ], [ -71.5370862, 41.1505534, 16.4 ], [ -71.5369469, 41.1481787, 17.5 ], [ -71.5369343, 41.1737943, 22.7 ], [ -71.5369029, 41.1458018, 18.7 ], [ -71.5368898, 41.1639959, 15.8 ], [ -71.5368349, 41.144038, 19.5 ], [ -71.5368051, 41.1618001, 14.2 ], [ -71.5367953, 41.1701946, 21.4 ], [ -71.5367144, 41.1606852, 13.5 ], [ -71.5367079, 41.1592803, 15.8 ], [ -71.5364769, 41.1545298, 15.8 ], [ -71.5362684, 41.1664234, 14.3 ], [ -71.5362184, 41.1651275, 14.7 ], [ -71.5360561, 41.1522694, 18.6 ], [ -71.5359587, 41.1583961, 17.5 ], [ -71.535874, 41.1562003, 16.8 ], [ -71.5355522, 41.1713388, 23.3 ], [ -71.5355058, 41.1676651, 18.8 ], [ -71.5353553, 41.1612916, 16.4 ], [ -71.5353507, 41.1624085, 18.5 ], [ -71.5349748, 41.1637859, 18.2 ], [ -71.5348987, 41.1494487, 19.2 ], [ -71.5348341, 41.1576643, 20.0 ], [ -71.5348282, 41.1661669, 18.4 ], [ -71.5347782, 41.164871, 18.9 ], [ -71.5347503, 41.1455971, 22.4 ], [ -71.5346241, 41.1534538, 19.7 ], [ -71.5345211, 41.1594366, 17.7 ], [ -71.5344077, 41.1478383, 20.5 ], [ -71.5343448, 41.154865, 20.0 ], [ -71.5343176, 41.1566309, 18.4 ], [ -71.5342788, 41.1630446, 19.6 ], [ -71.5339329, 41.1515956, 22.5 ], [ -71.5336309, 41.1536558, 21.3 ], [ -71.5336212, 41.1608254, 20.0 ], [ -71.5333205, 41.1666324, 26.3 ], [ -71.5333187, 41.1641105, 23.8 ], [ -71.5330949, 41.15954, 20.9 ], [ -71.5330533, 41.1621709, 22.4 ], [ -71.5329211, 41.1562653, 19.0 ], [ -71.5325438, 41.1576067, 21.2 ] ] } },
{ "type": "Feature", "properties": { "RCID": 1384, "PRIM": 1, "GRUP": 2, "OBJL": 129, "RVER": 1, "AGEN": 550, "FIDN": -1176267041, "FIDS": 52214, "LNAM": "0226B9E396DFCBF6", "SCAMIN": 17999, "SORDAT": "20061101", "SORIND": "US,US,graph,Chart 13217" }, "geometry": { "type": "MultiPoint", "coordinates": [ [ -71.5450734, 41.1352456, 20.7 ], [ -71.5449406, 41.1342758, 17.3 ], [ -71.5425274, 41.1359504, 17.9 ], [ -71.5354447, 41.1425915, 23.7 ], [ -71.5337707, 41.1399623, 25.2 ], [ -71.5303059, 41.1626276, 28.6 ], [ -71.5302655, 41.1652945, 29.8 ], [ -71.5302349, 41.1583059, 23.7 ], [ -71.5297546, 41.1483009, 24.3 ], [ -71.5295622, 41.1432973, 29.2 ], [ -71.5259045, 41.1647058, 31.3 ], [ -71.5212573, 41.1404893, 30.1 ], [ -71.5211379, 41.1435902, 28.9 ], [ -71.5206544, 41.1608218, 30.1 ], [ -71.5206316, 41.1639567, 29.5 ], [ -71.5204521, 41.1381291, 29.5 ] ] } },
{ "type": "Feature", "properties": { "RCID": 1385, "PRIM": 1, "GRUP": 2, "OBJL": 129, "RVER": 1, "AGEN": 550, "FIDN": 367815618, "FIDS": 52214, "LNAM": "022615EC6BC2CBF6", "SCAMIN": 17999, "SORDAT": "19910101", "SORIND": "US,US,graph,FE00364" }, "geometry": { "type": "MultiPoint", "coordinates": [ [ -71.5488041, 41.1109888, 21.4 ], [ -71.5484552, 41.1056644, 20.3 ], [ -71.5480976, 41.1087347, 21.2 ], [ -71.5477957, 41.1132448, 20.1 ], [ -71.5464856, 41.1064646, 20.7 ], [ -71.5452501, 41.1102388, 21.1 ], [ -71.5443961, 41.1053939, 20.6 ], [ -71.5443492, 41.1078809, 22.0 ], [ -71.5443224, 41.1034861, 18.8 ], [ -71.5435262, 41.102603, 20.1 ], [ -71.5431775, 41.1133109, 25.5 ], [ -71.542491, 41.1054, 21.3 ], [ -71.5422479, 41.1040363, 20.0 ], [ -71.5414155, 41.1071531, 21.2 ], [ -71.5404837, 41.1101639, 23.1 ], [ -71.5403965, 41.1029603, 21.2 ], [ -71.5402612, 41.1056294, 21.7 ], [ -71.539916, 41.1040878, 19.9 ], [ -71.5385948, 41.1118268, 25.3 ], [ -71.538315, 41.1033305, 19.7 ], [ -71.5383003, 41.1054204, 21.5 ], [ -71.5365676, 41.108665, 24.0 ], [ -71.5348526, 41.1024701, 20.3 ], [ -71.534304, 41.1055445, 23.5 ] ] } },
{ "type": "Feature", "properties": { "RCID": 1386, "PRIM": 1, "GRUP": 2, "OBJL": 129, "RVER": 1, "AGEN": 550, "FIDN": 893629863, "FIDS": 52214, "LNAM": "02263543B5A7CBF6", "SCAMIN": 17999, "SORDAT": "19380101", "SORIND": "US,US,graph,H06330" }, "geometry": { "type": "MultiPoint", "coordinates": [ [ -71.5494161, 41.1169558, 22.2 ], [ -71.549281, 41.1294602, 19.1 ], [ -71.5482996, 41.1287254, 23.4 ], [ -71.5479789, 41.1364423, 15.4 ], [ -71.547778, 41.1250982, 21.5 ], [ -71.5467719, 41.1224904, 24.6 ], [ -71.546722, 41.1335159, 20.6 ], [ -71.546654, 41.1305271, 22.5 ], [ -71.5457527, 41.1281693, 19.7 ], [ -71.5455946, 41.1154551, 24.0 ], [ -71.5455323, 41.137253, 20.6 ], [ -71.5435996, 41.1267037, 22.8 ], [ -71.5429942, 41.1233665, 27.0 ], [ -71.5427687, 41.11876, 24.3 ], [ -71.5423855, 41.1322787, 20.3 ], [ -71.5416763, 41.1299526, 21.5 ], [ -71.5398087, 41.1334164, 20.0 ], [ -71.5392143, 41.135303, 20.6 ], [ -71.5391716, 41.1243156, 27.9 ], [ -71.5388764, 41.1154233, 27.0 ], [ -71.5386408, 41.1377294, 21.5 ], [ -71.537532, 41.1287471, 24.6 ], [ -71.536903, 41.1334445, 22.2 ], [ -71.5365044, 41.1206275, 24.9 ], [ -71.5361417, 41.1322363, 23.1 ], [ -71.535544, 41.1167217, 26.1 ], [ -71.5355385, 41.1351318, 21.2 ], [ -71.5354567, 41.1255863, 29.2 ], [ -71.5333441, 41.1115461, 24.9 ], [ -71.5333406, 41.1300283, 29.2 ], [ -71.5317762, 41.1339536, 28.6 ], [ -71.5312902, 41.1374229, 28.6 ], [ -71.5312062, 41.1216088, 26.1 ], [ -71.5304163, 41.1407206, 28.6 ], [ -71.5297249, 41.1128146, 25.8 ], [ -71.5290145, 41.1315284, 30.7 ], [ -71.5279076, 41.1076666, 24.3 ], [ -71.5274611, 41.1022362, 23.7 ], [ -71.5266426, 41.1231141, 28.2 ], [ -71.5256373, 41.1391323, 25.8 ], [ -71.5255324, 41.1202563, 25.2 ], [ -71.5247569, 41.1149412, 25.5 ], [ -71.5246223, 41.1027308, 24.6 ], [ -71.5245889, 41.1329226, 31.0 ], [ -71.5229345, 41.1096491, 24.9 ], [ -71.5221347, 41.1248342, 28.9 ] ] } },
{ "type": "Feature", "properties": { "RCID": 1387, "PRIM": 1, "GRUP": 2, "OBJL": 129, "RVER": 1, "AGEN": 550, "FIDN": -949692521, "FIDS": 52214, "LNAM": "0226C764D797CBF6", "SCAMIN": 17999, "SORDAT": "19390101", "SORIND": "US,US,graph,H06442" }, "geometry": { "type": "MultiPoint", "coordinates": [ [ -71.544024, 41.1376827, 20.9 ], [ -71.5416613, 41.1382032, 19.7 ], [ -71.5402399, 41.1384147, 20.0 ], [ -71.5396012, 41.1477959, 15.4 ], [ -71.5369291, 41.1390642, 23.7 ], [ -71.52982, 41.1524786, 27.6 ] ] } },
{ "type": "Feature", "properties": { "RCID": 1388, "PRIM": 1, "GRUP": 2, "OBJL": 129, "RVER": 1, "AGEN": 550, "FIDN": -642096686, "FIDS": 52214, "LNAM": "0226D9BA61D2CBF6", "SCAMIN": 17999, "SORDAT": "20120829", "SORIND": "US,US,graph,H12431" }, "geometry": { "type": "MultiPoint", "coordinates": [ [ -71.5499434, 41.1035059, 18.4 ], [ -71.5483484, 41.1004428, 23.8 ], [ -71.5481632, 41.1030409, 22.1 ], [ -71.5462162, 41.1031921, 20.1 ], [ -71.5450605, 41.1016324, 22.0 ], [ -71.5448565, 41.1000517, 23.0 ], [ -71.5427891, 41.1007819, 21.5 ], [ -71.541185, 41.1011776, 19.9 ], [ -71.5394862, 41.1003504, 19.6 ], [ -71.5391258, 41.1021237, 20.4 ], [ -71.5379366, 41.100925, 18.8 ], [ -71.5378067, 41.1000272, 18.1 ], [ -71.536867, 41.1015971, 20.3 ], [ -71.5353937, 41.1004406, 19.4 ], [ -71.5339434, 41.101121, 19.5 ], [ -71.5285679, 41.1000503, 21.0 ], [ -71.5222719, 41.101053, 24.4 ] ] } },
{ "type": "Feature", "properties": { "RCID": 1389, "PRIM": 1, "GRUP": 2, "OBJL": 129, "RVER": 1, "AGEN": 550, "FIDN": 1672721920, "FIDS": 52214, "LNAM": "022663B3B600CBF6", "SCAMIN": 17999, "SORDAT": "20090819", "SORIND": "US,US,graph,H12010" }, "geometry": { "type": "MultiPoint", "coordinates": [ [ -71.5473042, 41.1743939, 9.9 ], [ -71.5464537, 41.1745928, 13.1 ], [ -71.5441984, 41.1717605, 12.2 ], [ -71.5427539, 41.1713961, 12.8 ], [ -71.5421627, 41.1709048, 9.4 ], [ -71.5417075, 41.1702303, 11.1 ], [ -71.5406724, 41.1693525, 11.3 ], [ -71.5405684, 41.1703636, 12.7 ], [ -71.5400288, 41.1712041, 12.3 ], [ -71.5394595, 41.1675779, 9.7 ], [ -71.5388236, 41.1671596, 12.9 ], [ -71.5383427, 41.1682871, 11.4 ], [ -71.5377363, 41.1673998, 13.5 ], [ -71.5376877, 41.1661399, 11.8 ], [ -71.5368813, 41.1687156, 15.6 ], [ -71.5367947, 41.1677087, 15.2 ], [ -71.5357969, 41.1727385, 23.9 ], [ -71.5349629, 41.1696585, 19.8 ], [ -71.5348141, 41.1744534, 25.8 ], [ -71.5336809, 41.1735056, 27.2 ], [ -71.5335601, 41.1703739, 26.2 ], [ -71.5334824, 41.1683581, 25.7 ], [ -71.5326647, 41.1743566, 29.3 ], [ -71.5325759, 41.1720528, 28.2 ], [ -71.5316977, 41.167821, 28.4 ], [ -71.531537, 41.1735528, 31.1 ], [ -71.5313804, 41.1694852, 29.3 ], [ -71.5305195, 41.1743678, 33.6 ], [ -71.5304571, 41.1727479, 32.8 ], [ -71.5304016, 41.1713081, 32.2 ], [ -71.5293863, 41.17342, 34.5 ], [ -71.5292685, 41.1703602, 33.1 ], [ -71.5292131, 41.1689204, 32.2 ], [ -71.5283812, 41.1745589, 35.5 ], [ -71.52791, 41.1722275, 34.9 ], [ -71.5267914, 41.1704146, 33.9 ], [ -71.5259645, 41.1737113, 36.0 ], [ -71.5250475, 41.1721822, 35.9 ], [ -71.5244571, 41.1704659, 34.4 ], [ -71.5238552, 41.1746582, 36.5 ], [ -71.5224232, 41.1721317, 35.6 ], [ -71.5217631, 41.1698404, 34.3 ], [ -71.5210865, 41.1745748, 37.0 ], [ -71.5197581, 41.1722621, 34.5 ], [ -71.5186568, 41.174628, 36.1 ] ] } },
{ "type": "Feature", "properties": { "RCID": 1390, "PRIM": 1, "GRUP": 2, "OBJL": 129, "RVER": 1, "AGEN": 550, "FIDN": 939867311, "FIDS": 52214, "LNAM": "022638053CAFCBF6", "SCAMIN": 17999, "SORDAT": "20091005", "SORIND": "US,US,graph,Chart 13215" }, "geometry": { "type": "MultiPoint", "coordinates": [ [ -71.548297, 41.1274285, 17.9 ], [ -71.5473873, 41.1051477, 18.2 ], [ -71.5461638, 41.1178564, 23.7 ], [ -71.5433845, 41.1088029, 19.5 ], [ -71.5306642, 41.1037871, 21.9 ], [ -71.5305245, 41.1274242, 28.9 ], [ -71.5291032, 41.1189529, 23.7 ], [ -71.5241128, 41.1304471, 29.5 ], [ -71.5215855, 41.1042745, 24.0 ] ] } },
{ "type": "Feature", "properties": { "RCID": 1391, "PRIM": 1, "GRUP": 2, "OBJL": 129, "RVER": 1, "AGEN": 550, "FIDN": 1554285176, "FIDS": 52214, "LNAM": "02265CA48278CBF6", "SCAMIN": 17999, "SORDAT": "20110201", "SORIND": "US,US,graph,Chart 13215" }, "geometry": { "type": "MultiPoint", "coordinates": [ [ -71.5217205, 41.1339221, 30.4 ] ] } },
{ "type": "Feature", "properties": { "RCID": 1392, "PRIM": 1, "GRUP": 2, "OBJL": 129, "RVER": 1, "AGEN": 550, "FIDN": 1206507898, "FIDS": 52214, "LNAM": "022647E9D97ACBF6", "SCAMIN": 17999, "SORDAT": "20090519", "SORIND": "US,US,graph,H12009" }, "geometry": { "type": "MultiPoint", "coordinates": [ [ -71.5144643, 41.1747196, 35.3 ] ] } },
{ "type": "Feature", "properties": { "RCID": 1393, "PRIM": 1, "GRUP": 2, "OBJL": 129, "RVER": 1, "AGEN": 550, "FIDN": 138867459, "FIDS": 52214, "LNAM": "02260846F303CBF6", "EXPSOU": 3, "SCAMIN": 17999, "SORDAT": "20180827", "SORIND": "US,US,graph,DD36634" }, "geometry": { "type": "MultiPoint", "coordinates": [ [ -71.5485159, 41.149076, 6.0 ], [ -71.5475939, 41.1511139, 2.4 ], [ -71.5468826, 41.1499768, 5.4 ], [ -71.5463866, 41.1507083, 5.6 ], [ -71.5450546, 41.1507738, 5.3 ] ] } },
{ "type": "Feature", "properties": { "RCID": 1394, "PRIM": 1, "GRUP": 2, "OBJL": 129, "RVER": 1, "AGEN": 550, "FIDN": -1444215301, "FIDS": 52214, "LNAM": "0226A9EB05FBCBF6", "EXPSOU": 3, "SCAMIN": 17999, "SORDAT": "19910101", "SORIND": "US,US,graph,FE00364" }, "geometry": { "type": "MultiPoint", "coordinates": [ [ -71.5497496, 41.1071129, 20.8 ] ] } }
]
}
