{
"type": "FeatureCollection",
"name": "WRECKS",
"crs": { "type": "name", "properties": { "name": "urn:ogc:def:crs:OGC:1.3:CRS84" } },
"features": [
{ "type": "Feature", "properties": { "RCID": 117, "PRIM": 1, "GRUP": 2, "OBJL": 159, "RVER": 1, "AGEN": 550, "FIDN": 515079474, "FIDS": 7311, "LNAM": "02261EB37D321C8F", "CATWRK": 2, "QUASOU": [ "2" ], "WATLEV": 3, "SORDAT": "200611", "SORIND": "US,US,graph,Chart 13217" }, "geometry": { "type": "Point", "coordinates": [ -71.5452849, 41.1550976 ] } },
{ "type": "Feature", "properties": { "RCID": 118, "PRIM": 1, "GRUP": 2, "OBJL": 159, "RVER": 1, "AGEN": 550, "FIDN": 90027466, "FIDS": 7311, "LNAM": "0226055DB5CA1C8F", "CATWRK": 1, "EXPSOU": 1, "QUASOU": [ "6" ], "VALSOU": 21.0, "WATLEV": 3, "SCAMIN": 29999, "SORDAT": "201409", "SORIND": "US,US,graph,Chart 13215" }, "geometry": { "type": "Point", "coordinates": [ -71.4900574, 41.1125141 ] } },
{ "type": "Feature", "properties": { "RCID": 119, "PRIM": 1, "GRUP": 2, "OBJL": 159, "RVER": 1, "AGEN": 550, "FIDN": 907324209, "FIDS": 7311, "LNAM": "02263614AB311C8F", "CATWRK": 1, "EXPSOU": 2, "QUASOU": [ "6" ], "VALSOU": 27.1, "WATLEV": 3, "SCAMIN": 29999, "SORDAT": "201409", "SORIND": "US,US,graph,Chart 13215" }, "geometry": { "type": "Point", "coordinates": [ -71.5050295, 41.1749945 ] } }
]
}
