{
"type": "FeatureCollection",
"name": "ADMARE",
"crs": { "type": "name", "properties": { "name": "urn:ogc:def:crs:OGC:1.3:CRS84" } },
"features": [
{ "type": "Feature", "properties": { "RCID": 1035, "PRIM": 3, "GRUP": 2, "OBJL": 1, "RVER": 1, "AGEN": 550, "FIDN": 739304010, "FIDS": 8691, "LNAM": "02262C10E24A21F3", "JRSDTN": 2, "OBJNAM": "Three Nautical Mile Line", "INFORM": "For more information about maritime zones, please refer to the Coast Pilot, Chapter 1.", "SCAMIN": 999999, "SORDAT": "20240119", "SORIND": "US,US,reprt,L-30-2024" }, "geometry": { "type": "Polygon", "coordinates": [ [ [ -71.5684146, 41.2908362 ], [ -71.5637085, 41.2903368 ], [ -71.5603059, 41.2898142 ], [ -71.5580596, 41.2893914 ], [ -71.5547302, 41.2886471 ], [ -71.5525414, 41.288078 ], [ -71.549311, 41.2871176 ], [ -71.5471963, 41.2864067 ], [ -71.5430724, 41.2848204 ], [ -71.541068, 41.2839468 ], [ -71.5381403, 41.2825386 ], [ -71.5362446, 41.2815364 ], [ -71.533491, 41.279941 ], [ -71.530852, 41.278239 ], [ -71.52916, 41.2770474 ], [ -71.5267279, 41.2751783 ], [ -71.524429, 41.2732157 ], [ -71.5222695, 41.271165 ], [ -71.5202555, 41.2690319 ], [ -71.5178054, 41.2660693 ], [ -71.5160528, 41.263627 ], [ -71.5145607, 41.2612621 ], [ -71.5132227, 41.2588181 ], [ -71.5110542, 41.2570236 ], [ -71.509568, 41.2556853 ], [ -71.5056545, 41.2519132 ], [ -71.503641, 41.24978 ], [ -71.5017783, 41.24757 ], [ -71.4998343, 41.2449492 ], [ -71.4980889, 41.2429467 ], [ -71.4968988, 41.2414493 ], [ -71.4952451, 41.2391467 ], [ -71.4942324, 41.2375766 ], [ -71.4928511, 41.235174 ], [ -71.4916383, 41.2327201 ], [ -71.4905974, 41.2302216 ], [ -71.4897313, 41.2276854 ], [ -71.4890421, 41.2251184 ], [ -71.4886821, 41.2233935 ], [ -71.4878678, 41.2188887 ], [ -71.4874542, 41.2153096 ], [ -71.4873662, 41.2126913 ], [ -71.4874083, 41.2109453 ], [ -71.4876226, 41.2083312 ], [ -71.4878661, 41.2065947 ], [ -71.4883813, 41.2040046 ], [ -71.4889515, 41.2018496 ], [ -71.4896463, 41.1986169 ], [ -71.4901287, 41.1969092 ], [ -71.4909607, 41.1944761 ], [ -71.4887492, 41.1920588 ], [ -71.4869394, 41.1898247 ], [ -71.4852871, 41.187522 ], [ -71.4837184, 41.185037 ], [ -71.4823939, 41.1826164 ], [ -71.481239, 41.1801468 ], [ -71.4802568, 41.177635 ], [ -71.4792205, 41.1742319 ], [ -71.4781165, 41.1696716 ], [ -71.4776067, 41.167081 ], [ -71.4771993, 41.1634592 ], [ -71.4766788, 41.1601922 ], [ -71.47647, 41.1575778 ], [ -71.4764423, 41.1549588 ], [ -71.4766877, 41.1514717 ], [ -71.4772541, 41.1480061 ], [ -71.4778881, 41.1454311 ], [ -71.4786995, 41.1428848 ], [ -71.4800531, 41.1395461 ], [ -71.4817115, 41.1362871 ], [ -71.4836663, 41.1331233 ], [ -71.4859082, 41.1300704 ], [ -71.4884258, 41.1271429 ], [ -71.4904879, 41.1250384 ], [ -71.4934584, 41.1223648 ], [ -71.4966679, 41.1198541 ], [ -71.4992227, 41.1180857 ], [ -71.5051868, 41.1143383 ], [ -71.5088755, 41.112238 ], [ -71.5149711, 41.1092395 ], [ -71.5179556, 41.107911 ], [ -71.5217443, 41.1064267 ], [ -71.5259622, 41.1050074 ], [ -71.5303008, 41.1038138 ], [ -71.5336211, 41.1030706 ], [ -71.5388603, 41.1021801 ], [ -71.5441515, 41.101167 ], [ -71.5490784, 41.1000151 ], [ -71.5535764, 41.09923 ], [ -71.5566668, 41.0988153 ], [ -71.5600996, 41.0984735 ], [ -71.5652158, 41.0982182 ], [ -71.5687949, 41.0978189 ], [ -71.5729386, 41.0974967 ], [ -71.5772322, 41.0973188 ], [ -71.58217, 41.096581 ], [ -71.5856028, 41.0962394 ], [ -71.5879025, 41.0960873 ], [ -71.5928302, 41.0959555 ], [ -71.5991546, 41.0960126 ], [ -71.6026104, 41.0961723 ], [ -71.6060505, 41.0964685 ], [ -71.6105965, 41.0970746 ], [ -71.6139633, 41.0976855 ], [ -71.6202493, 41.0991378 ], [ -71.6238017, 41.1000874 ], [ -71.6268114, 41.1010255 ], [ -71.6301748, 41.1021911 ], [ -71.6332468, 41.1033998 ], [ -71.6364069, 41.1047975 ], [ -71.6397386, 41.1064497 ], [ -71.6431427, 41.1083771 ], [ -71.6471116, 41.1103405 ], [ -71.6489801, 41.1113662 ], [ -71.6516915, 41.1129957 ], [ -71.6542864, 41.1147303 ], [ -71.6569005, 41.1166481 ], [ -71.6600539, 41.1190169 ], [ -71.6625619, 41.1210787 ], [ -71.6640474, 41.1224158 ], [ -71.6661576, 41.1244928 ], [ -71.6681214, 41.1266504 ], [ -71.6699332, 41.1288828 ], [ -71.671641, 41.1312617 ], [ -71.6731346, 41.1336249 ], [ -71.6748679, 41.1368617 ], [ -71.6759695, 41.1393449 ], [ -71.6768978, 41.1418683 ], [ -71.6776503, 41.144425 ], [ -71.6782247, 41.147008 ], [ -71.6785546, 41.1490856 ], [ -71.6793733, 41.1522943 ], [ -71.6798281, 41.1548908 ], [ -71.6801025, 41.1575018 ], [ -71.680196, 41.16012 ], [ -71.6801573, 41.161866 ], [ -71.6800383, 41.16361 ], [ -71.6797087, 41.1662172 ], [ -71.6793756, 41.1680266 ], [ -71.6787466, 41.1706022 ], [ -71.6779398, 41.1731494 ], [ -71.6767099, 41.1762278 ], [ -71.6761817, 41.1783336 ], [ -71.6753748, 41.1808809 ], [ -71.6735142, 41.185653 ], [ -71.6724537, 41.1888496 ], [ -71.6692964, 41.1966931 ], [ -71.6683263, 41.1987215 ], [ -71.6666734, 41.2018932 ], [ -71.6647223, 41.2050589 ], [ -71.6624833, 41.2081141 ], [ -71.6598354, 41.2111977 ], [ -71.6584773, 41.2126111 ], [ -71.6564582, 41.2145365 ], [ -71.655143, 41.2173833 ], [ -71.6538178, 41.2198038 ], [ -71.6523265, 41.2221686 ], [ -71.6506733, 41.2244712 ], [ -71.6488626, 41.2267053 ], [ -71.6475705, 41.2281536 ], [ -71.646212, 41.229567 ], [ -71.644353, 41.2313465 ], [ -71.6443253, 41.2340818 ], [ -71.6441952, 41.2360798 ], [ -71.6437443, 41.2396376 ], [ -71.6432939, 41.2422347 ], [ -71.6426641, 41.2448103 ], [ -71.6421454, 41.246512 ], [ -71.6410007, 41.2499169 ], [ -71.6400552, 41.2523536 ], [ -71.6392807, 41.2545926 ], [ -71.6386058, 41.2562629 ], [ -71.6374495, 41.2587324 ], [ -71.6355229, 41.2621705 ], [ -71.6345099, 41.2637406 ], [ -71.6328557, 41.2660432 ], [ -71.6310439, 41.2682772 ], [ -71.6297508, 41.2697255 ], [ -71.6269677, 41.2725154 ], [ -71.6239331, 41.2751522 ], [ -71.620662, 41.2776226 ], [ -71.6180628, 41.279359 ], [ -71.6144164, 41.2815101 ], [ -71.6105799, 41.283464 ], [ -71.6075019, 41.2848335 ], [ -71.603378, 41.2864199 ], [ -71.599117, 41.2877852 ], [ -71.5947401, 41.2889228 ], [ -71.5902684, 41.2898273 ], [ -71.5857239, 41.290494 ], [ -71.5811289, 41.29092 ], [ -71.5776629, 41.29108 ], [ -71.573033, 41.29108 ], [ -71.5684146, 41.2908362 ] ], [ [ -71.5979923, 41.0963499 ], [ -71.6014266, 41.0964631 ], [ -71.6059843, 41.0968252 ], [ -71.6104976, 41.0974269 ], [ -71.6138402, 41.0980335 ], [ -71.6201023, 41.0994804 ], [ -71.6236312, 41.1004237 ], [ -71.6282405, 41.1019021 ], [ -71.6320088, 41.1033015 ], [ -71.6352869, 41.1047021 ], [ -71.6385208, 41.1062542 ], [ -71.6428855, 41.1086803 ], [ -71.6477721, 41.1111386 ], [ -71.6505007, 41.1127207 ], [ -71.6531163, 41.1144085 ], [ -71.6565639, 41.1169029 ], [ -71.6600565, 41.1195391 ], [ -71.6629476, 41.1219741 ], [ -71.6650899, 41.1240083 ], [ -71.6670887, 41.1261243 ], [ -71.6689382, 41.1283164 ], [ -71.6711107, 41.1312689 ], [ -71.6726995, 41.1337716 ], [ -71.6740179, 41.1361734 ], [ -71.6751683, 41.1386239 ], [ -71.6761477, 41.1411167 ], [ -71.6769532, 41.1436447 ], [ -71.6775825, 41.1462011 ], [ -71.678083, 41.1491373 ], [ -71.6787124, 41.1514961 ], [ -71.6790729, 41.1532082 ], [ -71.6795557, 41.1566557 ], [ -71.6797194, 41.1601202 ], [ -71.679632, 41.1627198 ], [ -71.6793645, 41.1653122 ], [ -71.6789047, 41.1679705 ], [ -71.6780327, 41.1713741 ], [ -71.6771734, 41.173892 ], [ -71.6762523, 41.1761267 ], [ -71.6757153, 41.1782589 ], [ -71.6749142, 41.1807879 ], [ -71.6730566, 41.1855519 ], [ -71.672301, 41.1879151 ], [ -71.6716702, 41.1895819 ], [ -71.6704222, 41.1925681 ], [ -71.6692088, 41.1957538 ], [ -71.667881, 41.1985927 ], [ -71.6666726, 41.2009516 ], [ -71.665302, 41.2033369 ], [ -71.6642972, 41.2048956 ], [ -71.6626562, 41.2071817 ], [ -71.6608583, 41.2094008 ], [ -71.6594445, 41.2109913 ], [ -71.6580962, 41.2123945 ], [ -71.6560354, 41.2143698 ], [ -71.6550988, 41.2164424 ], [ -71.6538388, 41.2188624 ], [ -71.6524131, 41.2212293 ], [ -71.6508247, 41.2235366 ], [ -71.6496779, 41.2250385 ], [ -71.6478292, 41.2272325 ], [ -71.6458308, 41.2293504 ], [ -71.6439145, 41.2312038 ], [ -71.6438378, 41.2343225 ], [ -71.6436314, 41.2369076 ], [ -71.6431405, 41.2404616 ], [ -71.6426338, 41.2430336 ], [ -71.6419495, 41.2455821 ], [ -71.6408269, 41.2489834 ], [ -71.6384963, 41.2553249 ], [ -71.637788, 41.256974 ], [ -71.6365832, 41.259411 ], [ -71.635566, 41.2612294 ], [ -71.6340844, 41.2635773 ], [ -71.6330072, 41.2651085 ], [ -71.6312599, 41.2673498 ], [ -71.6300098, 41.2688043 ], [ -71.62801, 41.2709223 ], [ -71.6251204, 41.2736177 ], [ -71.6235838, 41.2749067 ], [ -71.6211691, 41.2767622 ], [ -71.6177557, 41.2790832 ], [ -71.6150591, 41.2807029 ], [ -71.6132003, 41.2817225 ], [ -71.6093456, 41.2836125 ], [ -71.6052413, 41.285333 ], [ -71.603176, 41.2860935 ], [ -71.6000149, 41.2871311 ], [ -71.5956963, 41.2883175 ], [ -71.5934984, 41.2888248 ], [ -71.5902002, 41.2894701 ], [ -71.5856491, 41.2901383 ], [ -71.5810873, 41.2905612 ], [ -71.5764971, 41.2907426 ], [ -71.5719016, 41.2906822 ], [ -71.5696086, 41.2905612 ], [ -71.5661815, 41.2902664 ], [ -71.5615354, 41.2896509 ], [ -71.5570757, 41.2888116 ], [ -71.5527048, 41.2877396 ], [ -71.548444, 41.2864401 ], [ -71.5443139, 41.2849194 ], [ -71.5403346, 41.2831849 ], [ -71.5365255, 41.2812451 ], [ -71.5329055, 41.2791095 ], [ -71.5294919, 41.2767885 ], [ -71.5263016, 41.2742934 ], [ -71.5240647, 41.2723152 ], [ -71.5219681, 41.2702512 ], [ -71.5200179, 41.2681075 ], [ -71.5188016, 41.2666367 ], [ -71.5171056, 41.2643715 ], [ -71.5159664, 41.2626876 ], [ -71.5149969, 41.2611158 ], [ -71.5136163, 41.2586143 ], [ -71.5114147, 41.2567874 ], [ -71.5092245, 41.2547801 ], [ -71.5060358, 41.2516966 ], [ -71.5034035, 41.2488556 ], [ -71.5016051, 41.2466376 ], [ -71.500236, 41.2447548 ], [ -71.4984937, 41.242756 ], [ -71.4967472, 41.2405146 ], [ -71.4951587, 41.2382073 ], [ -71.4937323, 41.2358404 ], [ -71.4924722, 41.2334205 ], [ -71.4913815, 41.2309539 ], [ -71.49075, 41.2292871 ], [ -71.4899485, 41.2267581 ], [ -71.4893235, 41.2242011 ], [ -71.4883413, 41.2188451 ], [ -71.4880891, 41.2170206 ], [ -71.4878814, 41.214425 ], [ -71.4878431, 41.2126916 ], [ -71.4879359, 41.2100921 ], [ -71.4882086, 41.2075 ], [ -71.4884901, 41.2057795 ], [ -71.4901144, 41.1986859 ], [ -71.4914321, 41.194423 ], [ -71.4891493, 41.1918628 ], [ -71.4873525, 41.1896448 ], [ -71.4857119, 41.1873586 ], [ -71.4846292, 41.1856796 ], [ -71.483259, 41.1832943 ], [ -71.4820559, 41.180858 ], [ -71.4810232, 41.1783775 ], [ -71.4801639, 41.1758595 ], [ -71.4794804, 41.1733111 ], [ -71.4782288, 41.1678969 ], [ -71.4778418, 41.1653131 ], [ -71.4776709, 41.1634073 ], [ -71.4772628, 41.161024 ], [ -71.4770647, 41.1592969 ], [ -71.4769171, 41.156699 ], [ -71.4769497, 41.1540988 ], [ -71.4772731, 41.1506406 ], [ -71.4777247, 41.1480627 ], [ -71.4783541, 41.1455063 ], [ -71.4794669, 41.1421431 ], [ -71.4805035, 41.1396636 ], [ -71.4821499, 41.136428 ], [ -71.4840906, 41.133287 ], [ -71.4857337, 41.1310027 ], [ -71.4875325, 41.1287864 ], [ -71.4901648, 41.1259477 ], [ -71.4923071, 41.1239137 ], [ -71.4953766, 41.1213386 ], [ -71.4978306, 41.119517 ], [ -71.500407, 41.117795 ], [ -71.5028414, 41.1163256 ], [ -71.5054864, 41.1146183 ], [ -71.508215, 41.1130363 ], [ -71.5110495, 41.1115644 ], [ -71.5171884, 41.1086528 ], [ -71.5202116, 41.1074123 ], [ -71.5240305, 41.1060183 ], [ -71.527207, 41.1050239 ], [ -71.5304479, 41.1041564 ], [ -71.534854, 41.1032016 ], [ -71.5389483, 41.1025341 ], [ -71.5442854, 41.1015127 ], [ -71.5492015, 41.100363 ], [ -71.5536673, 41.0995836 ], [ -71.5567412, 41.099171 ], [ -71.5601493, 41.0988318 ], [ -71.5652835, 41.0985747 ], [ -71.5688529, 41.0981764 ], [ -71.57298, 41.0978555 ], [ -71.5773, 41.0976753 ], [ -71.5811144, 41.0970798 ], [ -71.5856525, 41.0965976 ], [ -71.5905378, 41.0963459 ], [ -71.5979923, 41.0963499 ] ] ] } },
{ "type": "Feature", "properties": { "RCID": 1036, "PRIM": 3, "GRUP": 2, "OBJL": 1, "RVER": 1, "AGEN": 550, "FIDN": 815338256, "FIDS": 5534, "LNAM": "022630991310159E", "JRSDTN": 2, "OBJNAM": "Three Nautical Mile Line", "INFORM": "The seaward-most limit of this area feature is the outer limit of the Three Nautical Mile Line. For more information about maritime zones, please refer to the Coast Pilot, Chapter 1.", "SCAMIN": 999999, "SORDAT": "20240119", "SORIND": "US,US,reprt,L-30-2024" }, "geometry": { "type": "Polygon", "coordinates": [ [ [ -70.8, 41.199065 ], [ -70.8, 41.1994269 ], [ -70.8007403, 41.1993682 ], [ -70.8053274, 41.1992474 ], [ -70.8087691, 41.1993154 ], [ -70.8179763, 41.1998046 ], [ -70.8230406, 41.2002987 ], [ -70.8264363, 41.2007274 ], [ -70.8297977, 41.2012897 ], [ -70.8331842, 41.202 ], [ -70.8373234, 41.2025087 ], [ -70.8406863, 41.2030714 ], [ -70.8441051, 41.203785 ], [ -70.8484457, 41.2049129 ], [ -70.851627, 41.2059072 ], [ -70.8557535, 41.207426 ], [ -70.8597299, 41.2091583 ], [ -70.8635369, 41.2110956 ], [ -70.8671559, 41.2132287 ], [ -70.8697534, 41.2149621 ], [ -70.8730016, 41.2174121 ], [ -70.8745388, 41.2186998 ], [ -70.8767023, 41.2206766 ], [ -70.8785282, 41.2220501 ], [ -70.8808564, 41.2239664 ], [ -70.8832856, 41.226188 ], [ -70.8862682, 41.2292488 ], [ -70.8889158, 41.2322104 ], [ -70.8912147, 41.2352115 ], [ -70.8932308, 41.2383264 ], [ -70.8949542, 41.2415398 ], [ -70.8963767, 41.2448361 ], [ -70.8972418, 41.247353 ], [ -70.897721, 41.2490485 ], [ -70.8981216, 41.2507557 ], [ -70.8985739, 41.2533333 ], [ -70.8988977, 41.2567915 ], [ -70.8989305, 41.2593917 ], [ -70.8988521, 41.2611242 ], [ -70.8984551, 41.264578 ], [ -70.8977397, 41.2680025 ], [ -70.8969962, 41.2705415 ], [ -70.896403, 41.2722163 ], [ -70.8949863, 41.2755143 ], [ -70.8937253, 41.2779343 ], [ -70.892792, 41.2795184 ], [ -70.8912559, 41.2818464 ], [ -70.8901432, 41.2833631 ], [ -70.8877095, 41.2863049 ], [ -70.8848603, 41.2893805 ], [ -70.8834464, 41.2907473 ], [ -70.8812088, 41.2927256 ], [ -70.878837, 41.2946127 ], [ -70.8771843, 41.2958177 ], [ -70.8731901, 41.2984341 ], [ -70.8730571, 41.2987043 ], [ -70.8731195, 41.2988705 ], [ -70.8737869, 41.299565 ], [ -70.8754793, 41.3011866 ], [ -70.8786904, 41.3045013 ], [ -70.8826391, 41.3082761 ], [ -70.8846565, 41.309788 ], [ -70.8869879, 41.3117041 ], [ -70.889183, 41.3137095 ], [ -70.8912362, 41.3157988 ], [ -70.8931416, 41.3179662 ], [ -70.894894, 41.3202058 ], [ -70.8973585, 41.3237404 ], [ -70.8988035, 41.3259851 ], [ -70.9468658, 41.351933 ], [ -70.9471838, 41.3519333 ], [ -70.9520732, 41.35079 ], [ -70.9554286, 41.3501834 ], [ -70.9588216, 41.3497099 ], [ -70.9633878, 41.3492879 ], [ -70.9679821, 41.3491064 ], [ -70.9714326, 41.3491292 ], [ -70.9760219, 41.3493708 ], [ -70.9794432, 41.3497099 ], [ -70.9828361, 41.3501834 ], [ -70.9873002, 41.3510215 ], [ -70.990745, 41.3518429 ], [ -70.9950042, 41.3530749 ], [ -70.9991745, 41.3545388 ], [ -71.0022078, 41.3557788 ], [ -71.0061107, 41.3576146 ], [ -71.0098344, 41.3596511 ], [ -71.0133607, 41.3618781 ], [ -71.0158654, 41.363667 ], [ -71.0190056, 41.3662011 ], [ -71.0219036, 41.3688938 ], [ -71.0245456, 41.3717323 ], [ -71.0269185, 41.3747027 ], [ -71.0285145, 41.3770083 ], [ -71.0303893, 41.3801743 ], [ -71.0316008, 41.3826091 ], [ -71.0329497, 41.3859236 ], [ -71.0339885, 41.3893008 ], [ -71.0347121, 41.3927243 ], [ -71.0351168, 41.3961776 ], [ -71.0352005, 41.3996436 ], [ -71.0349577, 41.4031574 ], [ -71.0344704, 41.406242 ], [ -71.034561, 41.406511 ], [ -71.0437492, 41.4139404 ], [ -71.0479951, 41.4145374 ], [ -71.0513538, 41.4151439 ], [ -71.0557582, 41.4161568 ], [ -71.0589939, 41.4170667 ], [ -71.0632017, 41.4184757 ], [ -71.0662661, 41.4196755 ], [ -71.0702149, 41.4214598 ], [ -71.0730627, 41.4229318 ], [ -71.0758043, 41.4245136 ], [ -71.0784324, 41.4262014 ], [ -71.0801178, 41.427383 ], [ -71.0825407, 41.4292366 ], [ -71.0848315, 41.4311831 ], [ -71.0869838, 41.433217 ], [ -71.088992, 41.435333 ], [ -71.0906224, 41.4372453 ], [ -71.0908331, 41.4373827 ], [ -71.0911451, 41.4374083 ], [ -71.0940136, 41.4362536 ], [ -71.0971327, 41.4351349 ], [ -71.1003253, 41.4341406 ], [ -71.1029332, 41.4334356 ], [ -71.103177, 41.4334303 ], [ -71.106931, 41.4314365 ], [ -71.1108801, 41.4296523 ], [ -71.1149849, 41.4280795 ], [ -71.1186731, 41.4268871 ], [ -71.1216943, 41.4244048 ], [ -71.125009, 41.421998 ], [ -71.1285385, 41.419771 ], [ -71.1322655, 41.4177346 ], [ -71.136172, 41.4158987 ], [ -71.1408319, 41.4139671 ], [ -71.1450059, 41.412503 ], [ -71.1490398, 41.4113276 ], [ -71.1529607, 41.4088504 ], [ -71.1557379, 41.4073046 ], [ -71.1576475, 41.4063359 ], [ -71.162119, 41.4043179 ], [ -71.1641526, 41.4035044 ], [ -71.1672701, 41.4023858 ], [ -71.1715397, 41.4010881 ], [ -71.1748147, 41.4002636 ], [ -71.1781426, 41.3995692 ], [ -71.1826462, 41.398849 ], [ -71.1860616, 41.398465 ], [ -71.1906481, 41.3981631 ], [ -71.1941002, 41.3980952 ], [ -71.1992138, 41.3982047 ], [ -71.3112092, 41.3618081 ], [ -71.4455189, 41.3179606 ], [ -71.4496013, 41.3161859 ], [ -71.4526883, 41.3150264 ], [ -71.4547893, 41.3143218 ], [ -71.4582054, 41.3133064 ], [ -71.4619098, 41.3123719 ], [ -71.4652331, 41.3116775 ], [ -71.4686003, 41.3111152 ], [ -71.4720016, 41.3106863 ], [ -71.4761065, 41.3103467 ], [ -71.4805947, 41.3087002 ], [ -71.4848579, 41.3074026 ], [ -71.4893859, 41.3062986 ], [ -71.4916084, 41.3058498 ], [ -71.4949752, 41.3052875 ], [ -71.499516, 41.3047456 ], [ -71.5029485, 41.3044966 ], [ -71.5052444, 41.3044059 ], [ -71.5101025, 41.3044078 ], [ -71.5123984, 41.3044985 ], [ -71.5158309, 41.3047475 ], [ -71.5192417, 41.3051316 ], [ -71.5220711, 41.3055508 ], [ -71.5291743, 41.3069429 ], [ -71.5324464, 41.3077677 ], [ -71.5347633, 41.3084356 ], [ -71.5379263, 41.3094717 ], [ -71.5399941, 41.3102315 ], [ -71.5421338, 41.3110876 ], [ -71.5451058, 41.3124065 ], [ -71.5479826, 41.3138407 ], [ -71.5498434, 41.3148591 ], [ -71.551656, 41.3159257 ], [ -71.5542797, 41.3176135 ], [ -71.5567829, 41.3194024 ], [ -71.5592943, 41.3214016 ], [ -71.559718, 41.3215182 ], [ -71.5641458, 41.3206462 ], [ -71.5699649, 41.3186314 ], [ -71.5731518, 41.317637 ], [ -71.5764031, 41.3167697 ], [ -71.5808234, 41.3158148 ], [ -71.5853212, 41.3150945 ], [ -71.5887323, 41.3147106 ], [ -71.5921652, 41.3144615 ], [ -71.5958131, 41.3143433 ], [ -71.6012697, 41.3138218 ], [ -71.6051109, 41.3120305 ], [ -71.6091713, 41.310404 ], [ -71.613372, 41.308995 ], [ -71.6172091, 41.3079226 ], [ -71.6204985, 41.3071411 ], [ -71.6249596, 41.306303 ], [ -71.6283504, 41.3058295 ], [ -71.6327134, 41.3054068 ], [ -71.6354444, 41.3049026 ], [ -71.6377793, 41.3043014 ], [ -71.6492819, 41.3009916 ], [ -71.656804, 41.2991467 ], [ -71.6591443, 41.2984737 ], [ -71.6628321, 41.2959969 ], [ -71.6664558, 41.2938639 ], [ -71.6702676, 41.2919265 ], [ -71.6748155, 41.2899555 ], [ -71.6789472, 41.2884367 ], [ -71.6832532, 41.287126 ], [ -71.686459, 41.2859193 ], [ -71.6896208, 41.2848833 ], [ -71.6939398, 41.2836984 ], [ -71.6972452, 41.2829604 ], [ -71.7005982, 41.2823537 ], [ -71.7033794, 41.281942 ], [ -71.7095016, 41.2813022 ], [ -71.7129379, 41.2810984 ], [ -71.7152347, 41.281038 ], [ -71.7201763, 41.2810996 ], [ -71.723499, 41.2798603 ], [ -71.7255989, 41.2791557 ], [ -71.7288063, 41.2782033 ], [ -71.7309794, 41.2776393 ], [ -71.733177, 41.2771328 ], [ -71.7365144, 41.2764822 ], [ -71.739826, 41.275973 ], [ -71.7424247, 41.2756577 ], [ -71.7458495, 41.2753635 ], [ -71.7492898, 41.2752049 ], [ -71.7527363, 41.2751822 ], [ -71.7561799, 41.2752955 ], [ -71.7596108, 41.2755446 ], [ -71.7630197, 41.2759286 ], [ -71.7663973, 41.2764467 ], [ -71.7705483, 41.2772525 ], [ -71.774108, 41.2764628 ], [ -71.7775031, 41.2758051 ], [ -71.781771, 41.2751448 ], [ -71.7860501, 41.2746538 ], [ -71.7921587, 41.2733501 ], [ -71.7923025, 41.2732227 ], [ -71.7923684, 41.2730422 ], [ -71.7922341, 41.259578 ], [ -71.7903976, 41.0753414 ], [ -71.7902272, 41.0730918 ], [ -71.7901889, 41.0713582 ], [ -71.7902959, 41.0683336 ], [ -71.7905681, 41.0657415 ], [ -71.7912089, 41.0623086 ], [ -71.7918963, 41.059761 ], [ -71.7927588, 41.0572439 ], [ -71.7934302, 41.0555863 ], [ -71.7945791, 41.0531358 ], [ -71.7958959, 41.0507339 ], [ -71.7971605, 41.0486849 ], [ -71.7987486, 41.0463792 ], [ -71.8013706, 41.043107 ], [ -71.8038401, 41.0398553 ], [ -71.8050884, 41.0384019 ], [ -71.8070845, 41.0362858 ], [ -71.8092239, 41.0342517 ], [ -71.8114138, 41.0323757 ], [ -71.8135242, 41.0299733 ], [ -71.8155685, 41.0278839 ], [ -71.8170103, 41.0265371 ], [ -71.819241, 41.0246277 ], [ -71.8213359, 41.0224054 ], [ -71.8234747, 41.0203713 ], [ -71.8256057, 41.0185426 ], [ -71.8279716, 41.0166562 ], [ -71.8313209, 41.0142932 ], [ -71.8345275, 41.0122921 ], [ -71.8382315, 41.0102556 ], [ -71.8416237, 41.0086211 ], [ -71.8456273, 41.0069415 ], [ -71.8546051, 41.0037185 ], [ -71.8588183, 41.0023649 ], [ -71.8621519, 41.0014712 ], [ -71.8657328, 40.999521 ], [ -71.8686282, 40.9981247 ], [ -71.8716162, 40.9968451 ], [ -71.8754883, 40.9953987 ], [ -71.8786368, 40.9943622 ], [ -71.8807731, 40.9937414 ], [ -71.8901575, 40.9914184 ], [ -71.8934802, 40.9907679 ], [ -71.8968434, 40.9902498 ], [ -71.9002376, 40.9898657 ], [ -71.9036847, 40.9896114 ], [ -71.9073858, 40.9886643 ], [ -71.913366, 40.987354 ], [ -71.9188513, 40.9858096 ], [ -71.923226, 40.9846942 ], [ -71.9287839, 40.9828926 ], [ -71.9325521, 40.9815735 ], [ -71.9355306, 40.9806794 ], [ -71.944198, 40.9770697 ], [ -71.9520867, 40.9742684 ], [ -71.9559696, 40.9726447 ], [ -71.9614475, 40.9707185 ], [ -71.9693145, 40.9675492 ], [ -71.978689, 40.9640544 ], [ -71.9836127, 40.9620987 ], [ -71.9874727, 40.9607528 ], [ -71.9991697, 40.9561826 ], [ -72.0, 40.9558938 ], [ -72.0, 40.9554974 ], [ -71.998969, 40.9558561 ], [ -71.987267, 40.9604281 ], [ -71.9834045, 40.9617749 ], [ -71.9784886, 40.9637278 ], [ -71.9690989, 40.9672282 ], [ -71.9612416, 40.9703939 ], [ -71.9557539, 40.9723237 ], [ -71.9518842, 40.9739426 ], [ -71.9439824, 40.9767487 ], [ -71.935336, 40.9803508 ], [ -71.9323703, 40.9812407 ], [ -71.9285894, 40.982564 ], [ -71.9230376, 40.9843634 ], [ -71.9186888, 40.9854711 ], [ -71.9132352, 40.9870077 ], [ -71.9072469, 40.9883198 ], [ -71.9035822, 40.9892596 ], [ -71.9001797, 40.9895082 ], [ -71.8967608, 40.9898951 ], [ -71.8933734, 40.9904169 ], [ -71.8900265, 40.9910721 ], [ -71.8806107, 40.9934029 ], [ -71.8784588, 40.9940282 ], [ -71.8752881, 40.995072 ], [ -71.8713931, 40.996527 ], [ -71.8683835, 40.9978159 ], [ -71.8654671, 40.9992223 ], [ -71.8619571, 41.0011426 ], [ -71.8575754, 41.0023483 ], [ -71.8515127, 41.0043993 ], [ -71.8454115, 41.0066205 ], [ -71.841379, 41.0083123 ], [ -71.8379657, 41.0099568 ], [ -71.8342349, 41.0120082 ], [ -71.8301453, 41.0145994 ], [ -71.8268271, 41.017024 ], [ -71.8231106, 41.0201396 ], [ -71.8209562, 41.0221884 ], [ -71.8188841, 41.0243897 ], [ -71.8166461, 41.0263054 ], [ -71.8151939, 41.0276619 ], [ -71.8131347, 41.0297665 ], [ -71.8110568, 41.0321376 ], [ -71.8088597, 41.03402 ], [ -71.8067047, 41.0360688 ], [ -71.8046941, 41.0382003 ], [ -71.8034369, 41.0396643 ], [ -71.8009726, 41.0429097 ], [ -71.7983326, 41.0462043 ], [ -71.796733, 41.0485268 ], [ -71.7954613, 41.0505872 ], [ -71.794135, 41.0530064 ], [ -71.7929777, 41.0554747 ], [ -71.7923015, 41.0571443 ], [ -71.7914327, 41.0596797 ], [ -71.7907403, 41.0622458 ], [ -71.7900948, 41.0657036 ], [ -71.7898206, 41.0683145 ], [ -71.789713, 41.071358 ], [ -71.7897515, 41.0731041 ], [ -71.7899216, 41.0753441 ], [ -71.7917536, 41.2592502 ], [ -71.791891, 41.2730449 ], [ -71.7859229, 41.2743066 ], [ -71.7816881, 41.2747901 ], [ -71.7773958, 41.2754542 ], [ -71.772868, 41.2763483 ], [ -71.7705125, 41.2768934 ], [ -71.7665047, 41.2760957 ], [ -71.7631025, 41.2755739 ], [ -71.759669, 41.2751871 ], [ -71.7562132, 41.2749362 ], [ -71.7527446, 41.2748221 ], [ -71.7492732, 41.274845 ], [ -71.7458079, 41.2750047 ], [ -71.7423583, 41.275301 ], [ -71.7397404, 41.2756187 ], [ -71.7364071, 41.2761312 ], [ -71.7330455, 41.2767865 ], [ -71.7308319, 41.2772967 ], [ -71.7286431, 41.2778648 ], [ -71.7254124, 41.2788241 ], [ -71.7222526, 41.2799095 ], [ -71.720075, 41.2807477 ], [ -71.7152264, 41.2806779 ], [ -71.7129129, 41.2807388 ], [ -71.7094517, 41.280944 ], [ -71.7032965, 41.2815873 ], [ -71.7004982, 41.2820015 ], [ -71.6971218, 41.2826125 ], [ -71.6937924, 41.2833558 ], [ -71.689442, 41.2845493 ], [ -71.6862574, 41.2855928 ], [ -71.683059, 41.286797 ], [ -71.6787531, 41.2881076 ], [ -71.6745915, 41.2896374 ], [ -71.6700147, 41.291621 ], [ -71.6661753, 41.2935724 ], [ -71.6625253, 41.2957209 ], [ -71.6588667, 41.2981807 ], [ -71.6566316, 41.2988108 ], [ -71.6491187, 41.3006531 ], [ -71.6375981, 41.3039682 ], [ -71.6353145, 41.304556 ], [ -71.6326534, 41.3050495 ], [ -71.6282757, 41.3054738 ], [ -71.6248604, 41.3059507 ], [ -71.620367, 41.3067948 ], [ -71.617054, 41.3075819 ], [ -71.6131932, 41.308661 ], [ -71.608962, 41.3100802 ], [ -71.6048722, 41.3117185 ], [ -71.601115, 41.313481 ], [ -71.5957501, 41.3139862 ], [ -71.5921319, 41.3141022 ], [ -71.5886742, 41.3143531 ], [ -71.5852383, 41.3147398 ], [ -71.5807079, 41.3154653 ], [ -71.5773602, 41.3161647 ], [ -71.5729807, 41.3173007 ], [ -71.5697708, 41.3183023 ], [ -71.5639692, 41.3203116 ], [ -71.5596498, 41.3211609 ], [ -71.5579326, 41.3197701 ], [ -71.5554535, 41.3179353 ], [ -71.5528504, 41.3162008 ], [ -71.5510499, 41.3151026 ], [ -71.5482564, 41.3135455 ], [ -71.5453588, 41.312101 ], [ -71.5423652, 41.3107725 ], [ -71.5402099, 41.3099102 ], [ -71.5381281, 41.3091452 ], [ -71.5349421, 41.3081016 ], [ -71.5326081, 41.3074288 ], [ -71.5293139, 41.3065984 ], [ -71.5221732, 41.3051989 ], [ -71.5193243, 41.3047769 ], [ -71.5158891, 41.30439 ], [ -71.5124317, 41.3041392 ], [ -71.5101192, 41.3040478 ], [ -71.5052277, 41.3040459 ], [ -71.5029152, 41.3041373 ], [ -71.4994578, 41.3043881 ], [ -71.4948841, 41.3049339 ], [ -71.491493, 41.3055003 ], [ -71.4892559, 41.305952 ], [ -71.4846946, 41.3070641 ], [ -71.4804006, 41.3083712 ], [ -71.4760039, 41.3099949 ], [ -71.4719352, 41.3103296 ], [ -71.4685092, 41.3107616 ], [ -71.4651177, 41.311328 ], [ -71.4617703, 41.3120274 ], [ -71.4580421, 41.3129679 ], [ -71.4546028, 41.3139902 ], [ -71.4524866, 41.3147 ], [ -71.4493772, 41.3158678 ], [ -71.4453272, 41.3176307 ], [ -71.3110196, 41.3614775 ], [ -71.1990246, 41.3978739 ], [ -71.1952597, 41.3977426 ], [ -71.1906231, 41.3978035 ], [ -71.1860033, 41.3981075 ], [ -71.1825632, 41.3984943 ], [ -71.178027, 41.3992197 ], [ -71.174675, 41.3999191 ], [ -71.1713762, 41.4007496 ], [ -71.1670757, 41.4020567 ], [ -71.1639356, 41.4031835 ], [ -71.1618875, 41.4040027 ], [ -71.1573871, 41.4060338 ], [ -71.1554636, 41.4070095 ], [ -71.1526663, 41.4085665 ], [ -71.148823, 41.4110064 ], [ -71.1448191, 41.4121715 ], [ -71.1406149, 41.4136461 ], [ -71.135933, 41.4155867 ], [ -71.1319981, 41.4174359 ], [ -71.1282441, 41.4194871 ], [ -71.124689, 41.4217302 ], [ -71.1213503, 41.4241545 ], [ -71.1184469, 41.4265695 ], [ -71.1147828, 41.427753 ], [ -71.1106483, 41.4293372 ], [ -71.1066705, 41.4311344 ], [ -71.1030701, 41.4330207 ], [ -71.1001539, 41.4338043 ], [ -71.0969382, 41.4348059 ], [ -71.0937965, 41.4359326 ], [ -71.0910303, 41.4370569 ], [ -71.0893886, 41.4351314 ], [ -71.0873659, 41.433 ], [ -71.0851979, 41.4309514 ], [ -71.0828905, 41.4289908 ], [ -71.08045, 41.4271238 ], [ -71.0787524, 41.4259336 ], [ -71.0761053, 41.4242336 ], [ -71.0733437, 41.4226403 ], [ -71.0704754, 41.4211576 ], [ -71.066498, 41.4193605 ], [ -71.0634113, 41.418152 ], [ -71.059173, 41.4167328 ], [ -71.0559138, 41.4158162 ], [ -71.0514775, 41.414796 ], [ -71.0480945, 41.4141851 ], [ -71.0439957, 41.413632 ], [ -71.0349439, 41.406293 ], [ -71.0354342, 41.4031894 ], [ -71.0356788, 41.3996497 ], [ -71.0355944, 41.3961585 ], [ -71.0351868, 41.3926802 ], [ -71.0344579, 41.3892318 ], [ -71.0334116, 41.3858302 ], [ -71.0320529, 41.3824916 ], [ -71.0308326, 41.3800391 ], [ -71.0289441, 41.3768501 ], [ -71.0273365, 41.3745279 ], [ -71.0249464, 41.3715359 ], [ -71.0222853, 41.3686769 ], [ -71.0193662, 41.3659646 ], [ -71.0162033, 41.3634122 ], [ -71.0136804, 41.3616103 ], [ -71.0101286, 41.3593671 ], [ -71.0063778, 41.3573159 ], [ -71.0024467, 41.3554668 ], [ -70.9993913, 41.3542179 ], [ -70.9951908, 41.3527433 ], [ -70.9909029, 41.3515029 ], [ -70.9874318, 41.3506753 ], [ -70.9829354, 41.3498311 ], [ -70.9795179, 41.3493542 ], [ -70.9760718, 41.3490126 ], [ -70.9714493, 41.3487692 ], [ -70.9679737, 41.3487463 ], [ -70.9633462, 41.348929 ], [ -70.9587469, 41.3493542 ], [ -70.9553293, 41.3498311 ], [ -70.950833, 41.3506753 ], [ -70.9470243, 41.3515938 ], [ -70.8991691, 41.3257533 ], [ -70.8977841, 41.3235767 ], [ -70.8953117, 41.320031 ], [ -70.8935466, 41.3177751 ], [ -70.8916274, 41.315592 ], [ -70.8895593, 41.3134876 ], [ -70.8873482, 41.3114676 ], [ -70.8849999, 41.3095376 ], [ -70.8830126, 41.3080515 ], [ -70.8809046, 41.3059743 ], [ -70.8790741, 41.3042868 ], [ -70.8758606, 41.3009697 ], [ -70.8735332, 41.2986895 ], [ -70.8775102, 41.296081 ], [ -70.8791749, 41.2948673 ], [ -70.8815638, 41.2929664 ], [ -70.8838177, 41.2909738 ], [ -70.8852418, 41.2895971 ], [ -70.8881061, 41.2865054 ], [ -70.8905568, 41.283543 ], [ -70.8916777, 41.2820152 ], [ -70.8932249, 41.2796705 ], [ -70.894165, 41.2780748 ], [ -70.895435, 41.2756373 ], [ -70.896862, 41.2723154 ], [ -70.8974595, 41.2706284 ], [ -70.8982084, 41.268071 ], [ -70.8989289, 41.2646217 ], [ -70.8993288, 41.2611428 ], [ -70.8994078, 41.2593977 ], [ -70.8993747, 41.2567786 ], [ -70.8990486, 41.2532954 ], [ -70.8985929, 41.2506991 ], [ -70.8981894, 41.2489795 ], [ -70.8977067, 41.2472718 ], [ -70.8968353, 41.2447365 ], [ -70.8954025, 41.2414164 ], [ -70.8936666, 41.2381797 ], [ -70.8916359, 41.2350422 ], [ -70.8893203, 41.2320193 ], [ -70.8866543, 41.2290373 ], [ -70.8836613, 41.2259661 ], [ -70.8812162, 41.2237299 ], [ -70.8788712, 41.2217998 ], [ -70.8770614, 41.2204396 ], [ -70.8748987, 41.2184633 ], [ -70.8733503, 41.2171663 ], [ -70.8700785, 41.2146986 ], [ -70.8674624, 41.2129526 ], [ -70.8638171, 41.2108041 ], [ -70.8599825, 41.2088527 ], [ -70.8559772, 41.2071079 ], [ -70.8518208, 41.2055781 ], [ -70.8486164, 41.2045766 ], [ -70.8442444, 41.2034405 ], [ -70.8408, 41.2027216 ], [ -70.8374143, 41.2021552 ], [ -70.8333167, 41.201654 ], [ -70.829913, 41.2009402 ], [ -70.8265272, 41.2003738 ], [ -70.8231069, 41.199942 ], [ -70.8180261, 41.1994464 ], [ -70.808794, 41.1989557 ], [ -70.8053274, 41.1988872 ], [ -70.800707, 41.1990089 ], [ -70.8, 41.199065 ] ] ] } }
]
}
