{
"type": "FeatureCollection",
"name": "BCNLAT",
"crs": { "type": "name", "properties": { "name": "urn:ogc:def:crs:OGC:1.3:CRS84" } },
"features": [
{ "type": "Feature", "properties": { "RCID": 1, "PRIM": 1, "GRUP": 2, "OBJL": 7, "RVER": 1, "AGEN": 550, "FIDN": 35434401, "FIDS": 50, "LNAM": "0226021CAFA10032", "LNAM_REFS": [ "0226020DDD5C0032", "0226020DDD5B0032", "0226020DDD5A0032" ], "FFPT_RIND": [ 2, 2, 2 ], "BCNSHP": 4, "CATLAM": 1, "COLOUR": [ "4" ], "HEIGHT": 4.6, "OBJNAM": "Block Island Breakwater Light 3", "STATUS": [ "1" ], "INFORM": "White tower, On base", "SCAMIN": 999999, "SORDAT": "20150310", "SORIND": "US,US,reprt,1stCGD,LNM 10/15" }, "geometry": { "type": "Point", "coordinates": [ -71.5540383, 41.1773589 ] } }
]
}
