{
"type": "FeatureCollection",
"name": "BCNSPP",
"crs": { "type": "name", "properties": { "name": "urn:ogc:def:crs:OGC:1.3:CRS84" } },
"features": [
{ "type": "Feature", "properties": { "RCID": 2, "PRIM": 1, "GRUP": 2, "OBJL": 9, "RVER": 1, "AGEN": 550, "FIDN": 34463094, "FIDS": 50, "LNAM": "0226020DDD760032", "LNAM_REFS": [ "0226020DDD770032", "0226020DDD780032", "0226020DDD790032" ], "FFPT_RIND": [ 2, 2, 2 ], "BCNSHP": 3, "CATSPM": [ "27" ], "COLOUR": [ "1", "3" ], "COLPAT": [ "1" ], "OBJNAM": "Great Salt Pond Breakwater Light 4", "STATUS": [ "1" ], "INFORM": "Cylindrical", "SCAMIN": 999999, "SORDAT": "20040316", "SORIND": "US,US,reprt,1stCGD,LNM 11/04" }, "geometry": { "type": "Point", "coordinates": [ -71.5931767, 41.1993014 ] } }
]
}
