{
"type": "FeatureCollection",
"name": "BOYLAT",
"crs": { "type": "name", "properties": { "name": "urn:ogc:def:crs:OGC:1.3:CRS84" } },
"features": [
{ "type": "Feature", "properties": { "RCID": 3, "PRIM": 1, "GRUP": 2, "OBJL": 17, "RVER": 1, "AGEN": 550, "FIDN": 48888943, "FIDS": 5553, "LNAM": "022602E9FC6F15B1", "LNAM_REFS": [ "022620416DEF15B1", "0226179E980015B1" ], "FFPT_RIND": [ 2, 2 ], "BOYSHP": 4, "CATLAM": 1, "COLOUR": [ "4" ], "OBJNAM": "Block Island North Reef Lighted Bell Buoy 1BI", "STATUS": [ "1" ], "SCAMIN": 999999, "SORDAT": "20210901", "SORIND": "US,US,reprt,1stCGD,LNM 35/21" }, "geometry": { "type": "Point", "coordinates": [ -71.5759328, 41.2573131 ] } },
{ "type": "Feature", "properties": { "RCID": 4, "PRIM": 1, "GRUP": 2, "OBJL": 17, "RVER": 1, "AGEN": 550, "FIDN": 37638211, "FIDS": 64400, "LNAM": "0226023E5043FB90", "LNAM_REFS": [ "0226023E5044FB90", "0226023E442DFB90" ], "FFPT_RIND": [ 2, 2 ], "BOYSHP": 4, "CATLAM": 2, "COLOUR": [ "3" ], "OBJNAM": "Vineyard Sound Entrance Lighted Whistle Buoy 32", "STATUS": [ "5" ], "INFORM": "(Seasonal aid: Replaced by nun when endangered by ice)", "SCAMIN": 999999, "SORDAT": "20040507", "SORIND": "US,US,reprt,1stCGD,ATONIS" }, "geometry": { "type": "Point", "coordinates": [ -70.95697, 41.3680325 ] } },
{ "type": "Feature", "properties": { "RCID": 5, "PRIM": 1, "GRUP": 2, "OBJL": 17, "RVER": 1, "AGEN": 550, "FIDN": 35106376, "FIDS": 50, "LNAM": "02260217AE480032", "LNAM_REFS": [ "02260217AE470032", "02260217AE460032" ], "FFPT_RIND": [ 2, 2 ], "BOYSHP": 4, "CATLAM": 1, "COLOUR": [ "4" ], "OBJNAM": "Gay Head Lighted Gong Buoy 31", "STATUS": [ "5" ], "INFORM": "Seasonal aid: Replaced by can when endangered by ice", "SCAMIN": 999999, "SORDAT": "20141014", "SORIND": "US,US,reprt,1stCGD,LNM 41/14" }, "geometry": { "type": "Point", "coordinates": [ -70.8631983, 41.3637156 ] } },
{ "type": "Feature", "properties": { "RCID": 6, "PRIM": 1, "GRUP": 2, "OBJL": 17, "RVER": 1, "AGEN": 550, "FIDN": 36668070, "FIDS": 50, "LNAM": "0226022F82A60032", "LNAM_REFS": [ "0226022F82A70032", "0226022F82A80032" ], "FFPT_RIND": [ 2, 2 ], "BOYSHP": 4, "CATLAM": 1, "COLOUR": [ "4" ], "OBJNAM": "Endeavor Shoals Lighted Gong Buoy 1", "STATUS": [ "1" ], "SCAMIN": 999999, "SORDAT": "20211027", "SORIND": "US,US,reprt,1stCGD,LNM 43/21" }, "geometry": { "type": "Point", "coordinates": [ -71.7726975, 41.1016389 ] } },
{ "type": "Feature", "properties": { "RCID": 7, "PRIM": 1, "GRUP": 2, "OBJL": 17, "RVER": 1, "AGEN": 550, "FIDN": 36668046, "FIDS": 50, "LNAM": "0226022F828E0032", "LNAM_REFS": [ "0226022F828F0032", "0226022F82900032" ], "FFPT_RIND": [ 2, 2 ], "BOYSHP": 4, "CATLAM": 1, "COLOUR": [ "4" ], "OBJNAM": "Shagwong Reef Lighted Bell Buoy 7SR", "STATUS": [ "1" ], "SCAMIN": 999999, "SORDAT": "20110628", "SORIND": "US,US,reprt,1stCGD,LNM 26/11" }, "geometry": { "type": "Point", "coordinates": [ -71.9137611, 41.1172842 ] } },
{ "type": "Feature", "properties": { "RCID": 8, "PRIM": 1, "GRUP": 2, "OBJL": 17, "RVER": 1, "AGEN": 550, "FIDN": 36668049, "FIDS": 50, "LNAM": "0226022F82910032", "LNAM_REFS": [ "0226022F82930032", "0226022F82920032" ], "FFPT_RIND": [ 2, 2 ], "BOYSHP": 4, "CATLAM": 1, "COLOUR": [ "4" ], "OBJNAM": "Cerberus Shoal Lighted Gong Buoy 9", "STATUS": [ "1" ], "SCAMIN": 999999, "SORDAT": "20020910", "SORIND": "US,US,reprt,1stCGD,LNM 37/02" }, "geometry": { "type": "Point", "coordinates": [ -71.9510981, 41.174299 ] } },
{ "type": "Feature", "properties": { "RCID": 9, "PRIM": 1, "GRUP": 2, "OBJL": 17, "RVER": 1, "AGEN": 550, "FIDN": 36834602, "FIDS": 50, "LNAM": "022602320D2A0032", "LNAM_REFS": [ "022602320C2A0032", "022602320C290032" ], "FFPT_RIND": [ 2, 2 ], "BOYSHP": 4, "CATLAM": 2, "COLOUR": [ "3" ], "OBJNAM": "Southwest Ledge Lighted Whistle Buoy 2", "STATUS": [ "1" ], "SCAMIN": 999999, "SORDAT": "20220504", "SORIND": "US,US,reprt,1stCGD,LNM 18/22" }, "geometry": { "type": "Point", "coordinates": [ -71.6697006, 41.1080214 ] } },
{ "type": "Feature", "properties": { "RCID": 10, "PRIM": 1, "GRUP": 2, "OBJL": 17, "RVER": 1, "AGEN": 550, "FIDN": 36834479, "FIDS": 50, "LNAM": "022602320CAF0032", "LNAM_REFS": [ "022602320CA30032" ], "FFPT_RIND": [ 2 ], "BOYSHP": 4, "CATLAM": 3, "COLOUR": [ "4", "3", "4" ], "COLPAT": [ "1" ], "OBJNAM": "Block Island Sound South Entrance Obstruction Lighted Buoy BIS", "STATUS": [ "1" ], "SCAMIN": 999999, "SORDAT": "20091005", "SORIND": "US,US,graph,Chart 13215" }, "geometry": { "type": "Point", "coordinates": [ -71.7183608, 41.1158402 ] } },
{ "type": "Feature", "properties": { "RCID": 11, "PRIM": 1, "GRUP": 2, "OBJL": 17, "RVER": 1, "AGEN": 550, "FIDN": 34463081, "FIDS": 50, "LNAM": "0226020DDD690032", "LNAM_REFS": [ "0226020DDD6A0032", "0226020DDD6B0032" ], "FFPT_RIND": [ 2, 2 ], "BOYSHP": 4, "CATLAM": 2, "COLOUR": [ "3" ], "OBJNAM": "Southwest Point Lighted Whistle Buoy 4", "STATUS": [ "1" ], "SCAMIN": 999999, "SORDAT": "200611", "SORIND": "US,US,graph,Chart 13217" }, "geometry": { "type": "Point", "coordinates": [ -71.6224441, 41.1454658 ] } },
{ "type": "Feature", "properties": { "RCID": 12, "PRIM": 1, "GRUP": 2, "OBJL": 17, "RVER": 1, "AGEN": 550, "FIDN": 35203947, "FIDS": 50, "LNAM": "022602192B6B0032", "LNAM_REFS": [ "022602192B6C0032" ], "FFPT_RIND": [ 2 ], "BOYSHP": 4, "CATLAM": 1, "COLOUR": [ "4" ], "OBJNAM": "Buzzards Bay Lighted Buoy 1", "STATUS": [ "1" ], "SCAMIN": 999999, "SORDAT": "20000321", "SORIND": "US,US,reprt,1stCGD,LNM 12/00" }, "geometry": { "type": "Point", "coordinates": [ -71.0377416, 41.430692 ] } },
{ "type": "Feature", "properties": { "RCID": 13, "PRIM": 1, "GRUP": 2, "OBJL": 17, "RVER": 1, "AGEN": 550, "FIDN": 120018916, "FIDS": 5553, "LNAM": "0226072757E415B1", "LNAM_REFS": [ "02260F751DA815B1" ], "FFPT_RIND": [ 2 ], "BOYSHP": 4, "CATLAM": 2, "COLOUR": [ "3" ], "OBJNAM": "Point Judith Lighted Buoy 2", "STATUS": [ "1" ], "SCAMIN": 999999, "SORDAT": "20200414", "SORIND": "US,US,reprt,1stCGD,LNM 15/20" }, "geometry": { "type": "Point", "coordinates": [ -71.47245, 41.3076833 ] } },
{ "type": "Feature", "properties": { "RCID": 14, "PRIM": 1, "GRUP": 2, "OBJL": 17, "RVER": 1, "AGEN": 550, "FIDN": 545079854, "FIDS": 5553, "LNAM": "0226207D422E15B1", "LNAM_REFS": [ "02262ADDDBDA15B1" ], "FFPT_RIND": [ 2 ], "BOYSHP": 4, "CATLAM": 1, "COLOUR": [ "4" ], "OBJNAM": "Block Island Northeast Whistle Buoy 5", "STATUS": [ "1" ], "SCAMIN": 999999, "SORDAT": "200611", "SORIND": "US,US,graph,Chart 13217" }, "geometry": { "type": "Point", "coordinates": [ -71.5338581, 41.2101708 ] } }
]
}
