{
"type": "FeatureCollection",
"name": "BOYSPP",
"crs": { "type": "name", "properties": { "name": "urn:ogc:def:crs:OGC:1.3:CRS84" } },
"features": [
{ "type": "Feature", "properties": { "RCID": 16, "PRIM": 1, "GRUP": 2, "OBJL": 19, "RVER": 1, "AGEN": 550, "FIDN": 37886616, "FIDS": 50, "LNAM": "022602421A980032", "LNAM_REFS": [ "022602421A990032" ], "FFPT_RIND": [ 2 ], "BOYSHP": 3, "CATSPM": [ "27" ], "COLOUR": [ "6" ], "OBJNAM": "USAC Data Lighted Buoy Station 154/NDBC 44097", "STATUS": [ "8" ], "INFORM": "Marked Wave Buoy.", "SCAMIN": 999999, "SORDAT": "20230627", "SORIND": "US,US,reprt,1stCGD,LNM 26/23" }, "geometry": { "type": "Point", "coordinates": [ -71.1236131, 40.96715 ] } },
{ "type": "Feature", "properties": { "RCID": 17, "PRIM": 1, "GRUP": 2, "OBJL": 19, "RVER": 2, "AGEN": 550, "FIDN": -295910928, "FIDS": 8389, "LNAM": "0226EE5CC1F020C5", "LNAM_REFS": [ "0226C2FB7C7520C5" ], "FFPT_RIND": [ 2 ], "BOYSHP": 4, "CATSPM": [ "10" ], "COLOUR": [ "6" ], "OBJNAM": "Sunrise Wind Lighted Research Buoy SP5", "STATUS": [ "8" ], "SCAMIN": 999999, "SORDAT": "20260428", "SORIND": "US,US,reprt,1stCGD,LNM 17/26" }, "geometry": { "type": "Point", "coordinates": [ -71.0405831, 40.9886169 ] } },
{ "type": "Feature", "properties": { "RCID": 18, "PRIM": 1, "GRUP": 2, "OBJL": 19, "RVER": 2, "AGEN": 550, "FIDN": -1045663943, "FIDS": 8389, "LNAM": "0226C1AC6F3920C5", "LNAM_REFS": [ "0226140C4FD020C5" ], "FFPT_RIND": [ 2 ], "BOYSHP": 4, "CATSPM": [ "10" ], "COLOUR": [ "6" ], "OBJNAM": "Sunrise Wind Lighted Research Buoy SP4", "STATUS": [ "8" ], "SCAMIN": 999999, "SORDAT": "20260428", "SORIND": "US,US,reprt,1stCGD,LNM 17/26" }, "geometry": { "type": "Point", "coordinates": [ -70.905, 40.9808669 ] } },
{ "type": "Feature", "properties": { "RCID": 19, "PRIM": 1, "GRUP": 2, "OBJL": 19, "RVER": 2, "AGEN": 550, "FIDN": 1835210885, "FIDS": 8389, "LNAM": "02266D63188520C5", "LNAM_REFS": [ "02264C36BC6920C5" ], "FFPT_RIND": [ 2 ], "BOYSHP": 4, "CATSPM": [ "10" ], "COLOUR": [ "6" ], "OBJNAM": "Sunrise Wind Lighted Research Buoy SP3", "STATUS": [ "8" ], "SCAMIN": 999999, "SORDAT": "20260428", "SORIND": "US,US,reprt,1stCGD,LNM 17/26" }, "geometry": { "type": "Point", "coordinates": [ -70.8959, 41.02265 ] } },
{ "type": "Feature", "properties": { "RCID": 20, "PRIM": 1, "GRUP": 2, "OBJL": 19, "RVER": 2, "AGEN": 550, "FIDN": -2022398436, "FIDS": 8389, "LNAM": "02268774A61C20C5", "LNAM_REFS": [ "0226CB84B02720C5" ], "FFPT_RIND": [ 2 ], "BOYSHP": 4, "CATSPM": [ "10" ], "COLOUR": [ "6" ], "OBJNAM": "Sunrise Wind Lighted Research Buoy SP2", "STATUS": [ "8" ], "SCAMIN": 999999, "SORDAT": "20260428", "SORIND": "US,US,reprt,1stCGD,LNM 17/26" }, "geometry": { "type": "Point", "coordinates": [ -71.2215331, 41.0090669 ] } },
{ "type": "Feature", "properties": { "RCID": 21, "PRIM": 1, "GRUP": 2, "OBJL": 19, "RVER": 2, "AGEN": 550, "FIDN": -1398394050, "FIDS": 8389, "LNAM": "0226ACA6333E20C5", "LNAM_REFS": [ "02263D646CFA20C5" ], "FFPT_RIND": [ 2 ], "BOYSHP": 4, "CATSPM": [ "10" ], "COLOUR": [ "6" ], "OBJNAM": "Sunrise Wind Lighted Research Buoy SP1", "STATUS": [ "8" ], "SCAMIN": 999999, "SORDAT": "20260428", "SORIND": "US,US,reprt,1stCGD,LNM 17/26" }, "geometry": { "type": "Point", "coordinates": [ -71.2366831, 40.9827169 ] } },
{ "type": "Feature", "properties": { "RCID": 22, "PRIM": 1, "GRUP": 2, "OBJL": 19, "RVER": 1, "AGEN": 550, "FIDN": 893487987, "FIDS": 8389, "LNAM": "022635418B7320C5", "LNAM_REFS": [ "0226FD0ADB6920C5" ], "FFPT_RIND": [ 2 ], "BOYSHP": 4, "CATSPM": [ "10" ], "COLOUR": [ "6" ], "OBJNAM": "Sunrise Wind Lighted Research Buoy SRW01", "STATUS": [ "8" ], "SCAMIN": 999999, "SORDAT": "20260217", "SORIND": "US,US,reprt,1stCGD,LNM 07/26" }, "geometry": { "type": "Point", "coordinates": [ -70.85741, 40.99652 ] } },
{ "type": "Feature", "properties": { "RCID": 23, "PRIM": 1, "GRUP": 2, "OBJL": 19, "RVER": 1, "AGEN": 550, "FIDN": 282588016, "FIDS": 2005, "LNAM": "022610D7F37007D5", "LNAM_REFS": [ "02263467258407D5" ], "FFPT_RIND": [ 2 ], "BOYSHP": 4, "CATSPM": [ "10" ], "COLOUR": [ "6" ], "OBJNAM": "South Fork Wind Wave Lighted Buoy B", "STATUS": [ "8" ], "SCAMIN": 999999, "SORDAT": "20251111", "SORIND": "US,US,reprt,1stCGD,LNM 46/25" }, "geometry": { "type": "Point", "coordinates": [ -71.1869828, 41.0762664 ] } },
{ "type": "Feature", "properties": { "RCID": 24, "PRIM": 1, "GRUP": 2, "OBJL": 19, "RVER": 1, "AGEN": 550, "FIDN": 391412973, "FIDS": 2005, "LNAM": "022617547CED07D5", "LNAM_REFS": [ "022625898E4307D5" ], "FFPT_RIND": [ 2 ], "BOYSHP": 4, "CATSPM": [ "10" ], "COLOUR": [ "6" ], "OBJNAM": "Buzzards Bay Wave Lighted Buoy", "STATUS": [ "8" ], "SCAMIN": 999999, "SORDAT": "20250506", "SORIND": "US,US,reprt,1stCGD,LNM 19/25" }, "geometry": { "type": "Point", "coordinates": [ -71.0330169, 41.3870669 ] } }
]
}
