{
"type": "FeatureCollection",
"name": "BOYSAW",
"crs": { "type": "name", "properties": { "name": "urn:ogc:def:crs:OGC:1.3:CRS84" } },
"features": [
{ "type": "Feature", "properties": { "RCID": 15, "PRIM": 1, "GRUP": 2, "OBJL": 18, "RVER": 1, "AGEN": 550, "FIDN": 35291982, "FIDS": 50, "LNAM": "0226021A834E0032", "LNAM_REFS": [ "0226021A7C930032", "0226021A7CA90032", "0226021A85000032", "0226021A7CB50032" ], "FFPT_RIND": [ 2, 2, 2, 2 ], "BOYSHP": 4, "COLOUR": [ "3", "1" ], "COLPAT": [ "2" ], "OBJNAM": "Narragansett Bay Entrance Lighted Whistle Buoy NB", "STATUS": [ "1" ], "INFORM": "AIS: MMSI 993672153(21)", "SCAMIN": 999999, "SORDAT": "20151013", "SORIND": "US,US,reprt,1stCGD,LNM 41/15" }, "geometry": { "type": "Point", "coordinates": [ -71.3892972, 41.3833333 ] } }
]
}
