{
"type": "FeatureCollection",
"name": "BRIDGE",
"crs": { "type": "name", "properties": { "name": "urn:ogc:def:crs:OGC:1.3:CRS84" } },
"features": [
{ "type": "Feature", "properties": { "RCID": 295, "PRIM": 2, "GRUP": 2, "OBJL": 11, "RVER": 1, "AGEN": 550, "FIDN": 1812551145, "FIDS": 48294, "LNAM": "02266C0955E9BCA6", "CATBRG": [ "1" ], "SCAMIN": 499999, "SORDAT": "20020119", "SORIND": "US,US,graph,Chart 13200" }, "geometry": { "type": "LineString", "coordinates": [ [ -70.9139027, 41.619849 ], [ -70.9097296, 41.6233318 ], [ -70.9045132, 41.6253167 ] ] } },
{ "type": "Feature", "properties": { "RCID": 296, "PRIM": 2, "GRUP": 2, "OBJL": 11, "RVER": 1, "AGEN": 550, "FIDN": -2026158780, "FIDS": 48294, "LNAM": "0226873B4544BCA6", "CATBRG": [ "1" ], "SCAMIN": 1499999, "SORDAT": "20060522", "SORIND": "US,US,graph,GC-10641" }, "geometry": { "type": "LineString", "coordinates": [ [ -71.9636873, 41.3237198 ], [ -71.9646313, 41.3255804 ] ] } },
{ "type": "Feature", "properties": { "RCID": 297, "PRIM": 2, "GRUP": 2, "OBJL": 11, "RVER": 1, "AGEN": 550, "FIDN": 152711535, "FIDS": 48294, "LNAM": "0226091A316FBCA6", "CATBRG": [ "1" ], "SCAMIN": 499999, "SORDAT": "20060522", "SORIND": "US,US,graph,GC-10641" }, "geometry": { "type": "LineString", "coordinates": [ [ -71.7623662, 41.3305627 ], [ -71.7631892, 41.3306276 ] ] } },
{ "type": "Feature", "properties": { "RCID": 298, "PRIM": 2, "GRUP": 2, "OBJL": 11, "RVER": 1, "AGEN": 550, "FIDN": -1278455200, "FIDS": 48294, "LNAM": "0226B3CC5260BCA6", "CATBRG": [ "1" ], "INFORM": "Railway bridge", "SCAMIN": 499999, "SORDAT": "20060522", "SORIND": "US,US,graph,GC-10641" }, "geometry": { "type": "LineString", "coordinates": [ [ -71.8844951, 41.3448034 ], [ -71.881215, 41.3469048 ] ] } },
{ "type": "Feature", "properties": { "RCID": 299, "PRIM": 2, "GRUP": 2, "OBJL": 11, "RVER": 1, "AGEN": 550, "FIDN": -22868397, "FIDS": 48294, "LNAM": "0226FEA30E53BCA6", "CATBRG": [ "1" ], "SCAMIN": 499999, "SORDAT": "20060522", "SORIND": "US,US,graph,GC-10641" }, "geometry": { "type": "LineString", "coordinates": [ [ -71.9662019, 41.3735228 ], [ -71.9647627, 41.3737938 ] ] } },
{ "type": "Feature", "properties": { "RCID": 300, "PRIM": 2, "GRUP": 2, "OBJL": 11, "RVER": 1, "AGEN": 550, "FIDN": 89372425, "FIDS": 48294, "LNAM": "02260553B709BCA6", "CATBRG": [ "1" ], "SCAMIN": 1499999, "SORDAT": "200306", "SORIND": "US,US,graph,Chart 13006" }, "geometry": { "type": "LineString", "coordinates": [ [ -71.2215023, 41.642723 ], [ -71.2143813, 41.6428225 ] ] } },
{ "type": "Feature", "properties": { "RCID": 301, "PRIM": 2, "GRUP": 2, "OBJL": 11, "RVER": 1, "AGEN": 550, "FIDN": 1094731448, "FIDS": 48294, "LNAM": "0226414046B8BCA6", "CATBRG": [ "1" ], "SCAMIN": 499999, "SORDAT": "20060522", "SORIND": "US,US,graph,GC-10641" }, "geometry": { "type": "LineString", "coordinates": [ [ -71.6266917, 41.3653863 ], [ -71.6266917, 41.364645 ] ] } },
{ "type": "Feature", "properties": { "RCID": 302, "PRIM": 2, "GRUP": 2, "OBJL": 11, "RVER": 1, "AGEN": 550, "FIDN": -1210821933, "FIDS": 48294, "LNAM": "0226B7D452D3BCA6", "CATBRG": [ "1" ], "SCAMIN": 1499999, "SORDAT": "20060522", "SORIND": "US,US,graph,GC-10641" }, "geometry": { "type": "LineString", "coordinates": [ [ -71.9611299, 41.3408857 ], [ -71.9593194, 41.3408432 ] ] } },
{ "type": "Feature", "properties": { "RCID": 303, "PRIM": 2, "GRUP": 2, "OBJL": 11, "RVER": 1, "AGEN": 550, "FIDN": -139233689, "FIDS": 48294, "LNAM": "0226F7B37667BCA6", "CATBRG": [ "1" ], "SCAMIN": 499999, "SORDAT": "20020119", "SORIND": "US,US,graph,Chart 13200" }, "geometry": { "type": "LineString", "coordinates": [ [ -70.9190112, 41.6558975 ], [ -70.9166143, 41.6559902 ] ] } },
{ "type": "Feature", "properties": { "RCID": 304, "PRIM": 2, "GRUP": 2, "OBJL": 11, "RVER": 1, "AGEN": 550, "FIDN": -1123667967, "FIDS": 48294, "LNAM": "0226BD063001BCA6", "CATBRG": [ "1" ], "SCAMIN": 499999, "SORDAT": "20020119", "SORIND": "US,US,graph,Chart 13200" }, "geometry": { "type": "LineString", "coordinates": [ [ -70.9500046, 41.5850127 ], [ -70.9467335, 41.5870636 ] ] } },
{ "type": "Feature", "properties": { "RCID": 305, "PRIM": 2, "GRUP": 2, "OBJL": 11, "RVER": 1, "AGEN": 550, "FIDN": -1084314957, "FIDS": 48294, "LNAM": "0226BF5EAAB3BCA6", "CATBRG": [ "1" ], "SCAMIN": 1499999, "SORDAT": "20020119", "SORIND": "US,US,graph,Chart 13200" }, "geometry": { "type": "LineString", "coordinates": [ [ -70.8499661, 41.5951936 ], [ -70.8463622, 41.5960458 ] ] } },
{ "type": "Feature", "properties": { "RCID": 306, "PRIM": 2, "GRUP": 2, "OBJL": 11, "RVER": 1, "AGEN": 550, "FIDN": 1899861879, "FIDS": 48294, "LNAM": "0226713D9777BCA6", "CATBRG": [ "1" ], "SCAMIN": 1499999, "SORDAT": "20020119", "SORIND": "US,US,graph,Chart 13200" }, "geometry": { "type": "LineString", "coordinates": [ [ -70.8428712, 41.5966404 ], [ -70.8397742, 41.5967244 ] ] } },
{ "type": "Feature", "properties": { "RCID": 307, "PRIM": 2, "GRUP": 2, "OBJL": 11, "RVER": 1, "AGEN": 550, "FIDN": -557188699, "FIDS": 48294, "LNAM": "0226DEC9F9A5BCA6", "CATBRG": [ "1" ], "SCAMIN": 1499999, "SORDAT": "20140818", "SORIND": "US,US,graph,GC-11187" }, "geometry": { "type": "LineString", "coordinates": [ [ -71.3285082, 41.4912297 ], [ -71.3265141, 41.4913094 ], [ -71.3259311, 41.4913196 ], [ -71.3253084, 41.4913307 ], [ -71.3246815, 41.491341 ], [ -71.3237957, 41.4913508 ], [ -71.3229433, 41.4913596 ] ] } },
{ "type": "Feature", "properties": { "RCID": 308, "PRIM": 2, "GRUP": 2, "OBJL": 11, "RVER": 1, "AGEN": 550, "FIDN": -1622260439, "FIDS": 48294, "LNAM": "02269F4E4529BCA6", "CATBRG": [ "1" ], "SCAMIN": 499999, "SORDAT": "20020119", "SORIND": "US,US,graph,Chart 13200" }, "geometry": { "type": "LineString", "coordinates": [ [ -70.9170076, 41.6396376 ], [ -70.9196508, 41.6382503 ] ] } },
{ "type": "Feature", "properties": { "RCID": 309, "PRIM": 2, "GRUP": 2, "OBJL": 11, "RVER": 1, "AGEN": 550, "FIDN": 1541278332, "FIDS": 48294, "LNAM": "02265BDE0A7CBCA6", "CATBRG": [ "1" ], "SCAMIN": 499999, "SORDAT": "20020119", "SORIND": "US,US,graph,Chart 13200" }, "geometry": { "type": "LineString", "coordinates": [ [ -70.9109113, 41.6415572 ], [ -70.9089169, 41.6419806 ] ] } },
{ "type": "Feature", "properties": { "RCID": 310, "PRIM": 2, "GRUP": 2, "OBJL": 11, "RVER": 1, "AGEN": 550, "FIDN": 1697567468, "FIDS": 48294, "LNAM": "0226652ED2ECBCA6", "CATBRG": [ "1" ], "SCAMIN": 1499999, "SORDAT": "20140818", "SORIND": "US,US,graph,GC-11187" }, "geometry": { "type": "LineString", "coordinates": [ [ -71.4156684, 41.5302462 ], [ -71.4136547, 41.5301043 ], [ -71.4096137, 41.5295267 ], [ -71.3916563, 41.5264227 ] ] } },
{ "type": "Feature", "properties": { "RCID": 311, "PRIM": 2, "GRUP": 2, "OBJL": 11, "RVER": 1, "AGEN": 550, "FIDN": 342769508, "FIDS": 48294, "LNAM": "0226146E3F64BCA6", "CATBRG": [ "1" ], "SCAMIN": 1499999, "SORDAT": "20140818", "SORIND": "US,US,graph,GC-11187" }, "geometry": { "type": "LineString", "coordinates": [ [ -71.3582555, 41.5071193 ], [ -71.3281454, 41.5003738 ], [ -71.3234177, 41.499422 ], [ -71.3219994, 41.4994803 ] ] } },
{ "type": "Feature", "properties": { "RCID": 312, "PRIM": 2, "GRUP": 2, "OBJL": 11, "RVER": 1, "AGEN": 550, "FIDN": -377529678, "FIDS": 48294, "LNAM": "0226E97F5AB2BCA6", "CATBRG": [ "1" ], "SCAMIN": 1499999, "SORDAT": "200303", "SORIND": "US,US,graph,Chart 12300" }, "geometry": { "type": "LineString", "coordinates": [ [ -71.5063518, 41.3886696 ], [ -71.5060786, 41.3853123 ] ] } },
{ "type": "Feature", "properties": { "RCID": 313, "PRIM": 2, "GRUP": 2, "OBJL": 11, "RVER": 1, "AGEN": 550, "FIDN": 788849464, "FIDS": 48294, "LNAM": "02262F04E338BCA6", "CATBRG": [ "1" ], "INFORM": "Railway bridge", "SCAMIN": 499999, "SORDAT": "20060522", "SORIND": "US,US,graph,GC-10641" }, "geometry": { "type": "LineString", "coordinates": [ [ -71.9723517, 41.3487629 ], [ -71.9678742, 41.3503283 ] ] } },
{ "type": "Feature", "properties": { "RCID": 314, "PRIM": 2, "GRUP": 2, "OBJL": 11, "RVER": 1, "AGEN": 550, "FIDN": -925800452, "FIDS": 48294, "LNAM": "0226C8D167FCBCA6", "CATBRG": [ "1" ], "INFORM": "Railway bridge", "SCAMIN": 499999, "SORDAT": "20060522", "SORIND": "US,US,graph,GC-10641" }, "geometry": { "type": "LineString", "coordinates": [ [ -71.9782444, 41.3430472 ], [ -71.9798905, 41.3415421 ] ] } },
{ "type": "Feature", "properties": { "RCID": 315, "PRIM": 2, "GRUP": 2, "OBJL": 11, "RVER": 1, "AGEN": 550, "FIDN": 816803122, "FIDS": 48294, "LNAM": "022630AF6D32BCA6", "CATBRG": [ "1" ], "INFORM": "Railway bridge", "SCAMIN": 499999, "SORDAT": "20060522", "SORIND": "US,US,graph,GC-10641" }, "geometry": { "type": "LineString", "coordinates": [ [ -71.9859475, 41.330081 ], [ -71.9834989, 41.3328691 ] ] } },
{ "type": "Feature", "properties": { "RCID": 316, "PRIM": 2, "GRUP": 2, "OBJL": 11, "RVER": 1, "AGEN": 550, "FIDN": -249060326, "FIDS": 48294, "LNAM": "0226F127A41ABCA6", "CATBRG": [ "1" ], "INFORM": "Railway bridge", "SCAMIN": 499999, "SORDAT": "20060522", "SORIND": "US,US,graph,GC-10641" }, "geometry": { "type": "LineString", "coordinates": [ [ -71.9375646, 41.3387964 ], [ -71.9363378, 41.3385478 ] ] } },
{ "type": "Feature", "properties": { "RCID": 317, "PRIM": 2, "GRUP": 2, "OBJL": 11, "RVER": 1, "AGEN": 550, "FIDN": -1697343251, "FIDS": 48294, "LNAM": "02269AD498EDBCA6", "CATBRG": [ "1" ], "SCAMIN": 1499999, "SORDAT": "200306", "SORIND": "US,US,graph,Chart 13006" }, "geometry": { "type": "LineString", "coordinates": [ [ -71.2642871, 41.6475582 ], [ -71.2589134, 41.6373024 ] ] } }
]
}
