{
"type": "FeatureCollection",
"name": "BUAARE",
"crs": { "type": "name", "properties": { "name": "urn:ogc:def:crs:OGC:1.3:CRS84" } },
"features": [
{ "type": "Feature", "properties": { "RCID": 286, "PRIM": 3, "GRUP": 2, "OBJL": 13, "RVER": 1, "AGEN": 550, "FIDN": 1345649744, "FIDS": 48294, "LNAM": "02265034FC50BCA6", "CATBUA": 1, "OBJNAM": "Montauk", "SCAMIN": 499999, "SORDAT": "200303", "SORIND": "US,US,graph,Chart 12300" }, "geometry": { "type": "Polygon", "coordinates": [ [ [ -71.945088, 41.0313536 ], [ -71.9378951, 41.0336798 ], [ -71.9471077, 41.0500688 ], [ -71.9557936, 41.0480418 ], [ -71.945088, 41.0313536 ] ] ] } },
{ "type": "Feature", "properties": { "RCID": 287, "PRIM": 3, "GRUP": 2, "OBJL": 13, "RVER": 1, "AGEN": 550, "FIDN": -49146288, "FIDS": 48294, "LNAM": "0226FD121650BCA6", "CATBUA": 1, "OBJNAM": "Mystic", "SCAMIN": 499999, "SORDAT": "200303", "SORIND": "US,US,graph,Chart 12300" }, "geometry": { "type": "Polygon", "coordinates": [ [ [ -71.9678742, 41.3503283 ], [ -71.9675636, 41.3495477 ], [ -71.9677019, 41.3487662 ], [ -71.9689466, 41.3477761 ], [ -71.9679785, 41.3466819 ], [ -71.9665955, 41.3460566 ], [ -71.9650051, 41.3473072 ], [ -71.9636914, 41.3484536 ], [ -71.9625158, 41.3486098 ], [ -71.9600723, 41.3589858 ], [ -71.9652059, 41.3588754 ], [ -71.9655185, 41.3581525 ], [ -71.9674132, 41.3567941 ], [ -71.9683582, 41.3547242 ], [ -71.969279, 41.3534527 ], [ -71.9700464, 41.3512562 ], [ -71.9695863, 41.3506397 ], [ -71.9678742, 41.3503283 ] ] ] } },
{ "type": "Feature", "properties": { "RCID": 288, "PRIM": 3, "GRUP": 2, "OBJL": 13, "RVER": 1, "AGEN": 550, "FIDN": -752482248, "FIDS": 48294, "LNAM": "0226D3260838BCA6", "CATBUA": 1, "OBJNAM": "Newport", "SCAMIN": 499999, "SORDAT": "200303", "SORIND": "US,US,graph,Chart 12300" }, "geometry": { "type": "Polygon", "coordinates": [ [ [ -71.321736, 41.4889595 ], [ -71.3203433, 41.489167 ], [ -71.3187183, 41.4885141 ], [ -71.317384, 41.4895569 ], [ -71.3169683, 41.4879716 ], [ -71.3177335, 41.4865303 ], [ -71.3160775, 41.4861561 ], [ -71.3178798, 41.4850359 ], [ -71.3166863, 41.4841421 ], [ -71.3168362, 41.4824675 ], [ -71.3164645, 41.4806352 ], [ -71.3180657, 41.4793765 ], [ -71.3162418, 41.4776376 ], [ -71.3175307, 41.4775609 ], [ -71.3173519, 41.4770376 ], [ -71.316942, 41.4742169 ], [ -71.3148925, 41.4729324 ], [ -71.3087439, 41.4734462 ], [ -71.308539, 41.4897832 ], [ -71.3223485, 41.4897266 ], [ -71.321736, 41.4889595 ] ] ] } },
{ "type": "Feature", "properties": { "RCID": 289, "PRIM": 3, "GRUP": 2, "OBJL": 13, "RVER": 1, "AGEN": 550, "FIDN": -1821892610, "FIDS": 48294, "LNAM": "022693681FFEBCA6", "CATBUA": 1, "OBJNAM": "Providence", "SCAMIN": 499999, "SORDAT": "200306", "SORIND": "US,US,graph,Chart 13006" }, "geometry": { "type": "Polygon", "coordinates": [ [ [ -71.395255, 41.7823877 ], [ -71.4250054, 41.7839719 ], [ -71.4331988, 41.7863854 ], [ -71.4617514, 41.8118153 ], [ -71.4684552, 41.8329681 ], [ -71.4550476, 41.8461385 ], [ -71.4274884, 41.8528156 ], [ -71.3927289, 41.853001 ], [ -71.3773352, 41.8494772 ], [ -71.3698866, 41.8435417 ], [ -71.3696383, 41.8327825 ], [ -71.3701348, 41.8266601 ], [ -71.3760939, 41.8166402 ], [ -71.3815559, 41.8064331 ], [ -71.3853814, 41.8017668 ], [ -71.3897343, 41.8059183 ], [ -71.3942668, 41.8101245 ], [ -71.3953609, 41.8125781 ], [ -71.3948922, 41.8142135 ], [ -71.3937981, 41.8153818 ], [ -71.3928601, 41.8163165 ], [ -71.3914535, 41.8171342 ], [ -71.3900468, 41.8181856 ], [ -71.3878585, 41.8199378 ], [ -71.3864518, 41.8213396 ], [ -71.3852013, 41.8234423 ], [ -71.3850451, 41.825428 ], [ -71.3855139, 41.8264791 ], [ -71.3872334, 41.8272968 ], [ -71.3889526, 41.8271801 ], [ -71.3902031, 41.8267128 ], [ -71.391141, 41.8255448 ], [ -71.3916097, 41.8242598 ], [ -71.3922351, 41.8219236 ], [ -71.3928601, 41.8193537 ], [ -71.3936418, 41.8181856 ], [ -71.3962989, 41.8170174 ], [ -71.398331, 41.8163165 ], [ -71.4005193, 41.8161996 ], [ -71.4022385, 41.8163165 ], [ -71.4038014, 41.8167837 ], [ -71.4052081, 41.8174847 ], [ -71.4077093, 41.8199378 ], [ -71.4098973, 41.8222742 ], [ -71.4113039, 41.8223909 ], [ -71.4120856, 41.8223909 ], [ -71.412711, 41.82169 ], [ -71.412711, 41.8206388 ], [ -71.4119294, 41.8193537 ], [ -71.4108352, 41.8184192 ], [ -71.4084906, 41.8163165 ], [ -71.4056697, 41.8136842 ], [ -71.4047318, 41.8121653 ], [ -71.4047318, 41.8107633 ], [ -71.4045755, 41.8091277 ], [ -71.404263, 41.8077257 ], [ -71.4028564, 41.8055057 ], [ -71.4026997, 41.8039868 ], [ -71.4028564, 41.8017666 ], [ -71.401606, 41.8002476 ], [ -71.400668, 41.7996631 ], [ -71.3995739, 41.7996631 ], [ -71.3984797, 41.8000138 ], [ -71.3966039, 41.8001307 ], [ -71.3955101, 41.8000138 ], [ -71.3937905, 41.7988453 ], [ -71.3925401, 41.797443 ], [ -71.3894142, 41.7937035 ], [ -71.3878509, 41.7913661 ], [ -71.3876947, 41.78973 ], [ -71.3884763, 41.7891456 ], [ -71.3884803, 41.7891464 ], [ -71.3891013, 41.7892625 ], [ -71.3909772, 41.78973 ], [ -71.3928526, 41.789613 ], [ -71.3937905, 41.7890287 ], [ -71.3944159, 41.7880937 ], [ -71.3942596, 41.7871588 ], [ -71.3942596, 41.7855225 ], [ -71.3947284, 41.7842367 ], [ -71.3953534, 41.7834186 ], [ -71.395255, 41.7823877 ] ] ] } },
{ "type": "Feature", "properties": { "RCID": 290, "PRIM": 3, "GRUP": 2, "OBJL": 13, "RVER": 1, "AGEN": 550, "FIDN": 903980280, "FIDS": 48294, "LNAM": "022635E1A4F8BCA6", "CATBUA": 1, "OBJNAM": "Fall River", "SCAMIN": 499999, "SORDAT": "200306", "SORIND": "US,US,graph,Chart 13006" }, "geometry": { "type": "Polygon", "coordinates": [ [ [ -71.2017458, 41.6742497 ], [ -71.19197, 41.6753029 ], [ -71.1838258, 41.6784354 ], [ -71.1734806, 41.6860191 ], [ -71.1547711, 41.6959094 ], [ -71.1492681, 41.7064572 ], [ -71.1457464, 41.7122251 ], [ -71.1428848, 41.7199693 ], [ -71.1402436, 41.7252415 ], [ -71.1400234, 41.7282069 ], [ -71.1443737, 41.7358406 ], [ -71.1447935, 41.7354978 ], [ -71.1465361, 41.7336504 ], [ -71.1476981, 41.7319114 ], [ -71.1487145, 41.7301724 ], [ -71.1506026, 41.7286507 ], [ -71.15554, 41.7261507 ], [ -71.1584446, 41.7239767 ], [ -71.1597518, 41.7226724 ], [ -71.1612036, 41.7200635 ], [ -71.1610585, 41.7176719 ], [ -71.1610585, 41.7151716 ], [ -71.1617846, 41.7129973 ], [ -71.1626559, 41.7106054 ], [ -71.1638179, 41.7089745 ], [ -71.1655604, 41.7079961 ], [ -71.1680291, 41.7070174 ], [ -71.1713696, 41.7059301 ], [ -71.1739835, 41.7045167 ], [ -71.1787762, 41.7010372 ], [ -71.1844397, 41.6967962 ], [ -71.1902865, 41.6913701 ], [ -71.1936265, 41.686476 ], [ -71.1982736, 41.6797323 ], [ -71.1987401, 41.6789957 ], [ -71.2017458, 41.6742497 ] ] ] } },
{ "type": "Feature", "properties": { "RCID": 291, "PRIM": 3, "GRUP": 2, "OBJL": 13, "RVER": 1, "AGEN": 550, "FIDN": 1337182228, "FIDS": 48294, "LNAM": "02264FB3C814BCA6", "CATBUA": 1, "OBJNAM": "Westerly", "SCAMIN": 499999, "SORDAT": "200303", "SORIND": "US,US,graph,Chart 12300" }, "geometry": { "type": "Polygon", "coordinates": [ [ [ -71.8363182, 41.3748661 ], [ -71.8410794, 41.376174 ], [ -71.8384468, 41.3817431 ], [ -71.8336856, 41.3804353 ], [ -71.8363182, 41.3748661 ] ] ] } },
{ "type": "Feature", "properties": { "RCID": 292, "PRIM": 3, "GRUP": 2, "OBJL": 13, "RVER": 1, "AGEN": 550, "FIDN": 1788369702, "FIDS": 48294, "LNAM": "02266A985B26BCA6", "CATBUA": 1, "OBJNAM": "New Bedford", "SCAMIN": 499999, "SORDAT": "20020119", "SORIND": "US,US,graph,Chart 13200" }, "geometry": { "type": "Polygon", "coordinates": [ [ [ -70.9270124, 41.6429755 ], [ -70.9270124, 41.642901 ], [ -70.9267354, 41.64232 ], [ -70.9257943, 41.641573 ], [ -70.924687, 41.6406186 ], [ -70.9237938, 41.6387154 ], [ -70.9228366, 41.6365782 ], [ -70.921856, 41.6330711 ], [ -70.9207713, 41.6306883 ], [ -70.92648, 41.6292421 ], [ -70.9335379, 41.6416519 ], [ -70.9270124, 41.6429755 ] ] ] } },
{ "type": "Feature", "properties": { "RCID": 293, "PRIM": 3, "GRUP": 2, "OBJL": 13, "RVER": 1, "AGEN": 550, "FIDN": 1620667065, "FIDS": 48294, "LNAM": "022660996AB9BCA6", "CATBUA": 1, "SCAMIN": 499999, "SORDAT": "200303", "SORIND": "US,US,graph,Chart 12300" }, "geometry": { "type": "Polygon", "coordinates": [ [ [ -71.4990512, 41.4398632 ], [ -71.5118532, 41.4329079 ], [ -71.5180397, 41.4389601 ], [ -71.5029446, 41.4465014 ], [ -71.4990512, 41.4398632 ] ] ] } },
{ "type": "Feature", "properties": { "RCID": 294, "PRIM": 3, "GRUP": 2, "OBJL": 13, "RVER": 1, "AGEN": 550, "FIDN": 1934253977, "FIDS": 48294, "LNAM": "0226734A5F99BCA6", "CATBUA": 1, "OBJNAM": "Mystic", "SCAMIN": 499999, "SORDAT": "200303", "SORIND": "US,US,graph,Chart 12300" }, "geometry": { "type": "Polygon", "coordinates": [ [ [ -71.9723517, 41.3487629 ], [ -71.9705577, 41.352027 ], [ -71.969739, 41.3548014 ], [ -71.9693294, 41.3573445 ], [ -71.9677758, 41.3590602 ], [ -71.9771606, 41.3589082 ], [ -71.9775723, 41.3522377 ], [ -71.9723517, 41.3487629 ] ] ] } },
{ "type": "Feature", "properties": { "RCID": 319, "PRIM": 1, "GRUP": 2, "OBJL": 13, "RVER": 1, "AGEN": 550, "FIDN": -1761343877, "FIDS": 48294, "LNAM": "02269704067BBCA6", "CATBUA": 1, "OBJNAM": "Mattapoiset", "SCAMIN": 499999, "SORDAT": "20020119", "SORIND": "US,US,graph,Chart 13200" }, "geometry": { "type": "Point", "coordinates": [ -70.8138985, 41.6576757 ] } },
{ "type": "Feature", "properties": { "RCID": 320, "PRIM": 1, "GRUP": 2, "OBJL": 13, "RVER": 1, "AGEN": 550, "FIDN": 1726249837, "FIDS": 48294, "LNAM": "022666E47B6DBCA6", "CATBUA": 1, "OBJNAM": "Stonington", "SCAMIN": 499999, "SORDAT": "200303", "SORIND": "US,US,graph,Chart 12300" }, "geometry": { "type": "Point", "coordinates": [ -71.8896181, 41.3603489 ] } },
{ "type": "Feature", "properties": { "RCID": 321, "PRIM": 1, "GRUP": 2, "OBJL": 13, "RVER": 1, "AGEN": 550, "FIDN": 1254840911, "FIDS": 48294, "LNAM": "02264ACB5A4FBCA6", "CATBUA": 2, "OBJNAM": "Wickford", "SCAMIN": 499999, "SORDAT": "200303", "SORIND": "US,US,graph,Chart 12300" }, "geometry": { "type": "Point", "coordinates": [ -71.4524505, 41.5705066 ] } },
{ "type": "Feature", "properties": { "RCID": 322, "PRIM": 1, "GRUP": 2, "OBJL": 13, "RVER": 1, "AGEN": 550, "FIDN": 1169020709, "FIDS": 48294, "LNAM": "022645ADD725BCA6", "CATBUA": 2, "OBJNAM": "Narragansett Pier", "SCAMIN": 499999, "SORDAT": "200303", "SORIND": "US,US,graph,Chart 12300" }, "geometry": { "type": "Point", "coordinates": [ -71.4637496, 41.4287607 ] } }
]
}
