{
"type": "FeatureCollection",
"name": "CBLOHD",
"crs": { "type": "name", "properties": { "name": "urn:ogc:def:crs:OGC:1.3:CRS84" } },
"features": [
{ "type": "Feature", "properties": { "RCID": 318, "PRIM": 2, "GRUP": 2, "OBJL": 21, "RVER": 1, "AGEN": 550, "FIDN": -1640794101, "FIDS": 48294, "LNAM": "02269E33780BBCA6", "SCAMIN": 499999, "SORDAT": "20060522", "SORIND": "US,US,graph,GC-10641" }, "geometry": { "type": "LineString", "coordinates": [ [ -71.9654261, 41.376728 ], [ -71.9615499, 41.3768969 ] ] } }
]
}
