{
"type": "FeatureCollection",
"name": "CBLSUB",
"crs": { "type": "name", "properties": { "name": "urn:ogc:def:crs:OGC:1.3:CRS84" } },
"features": [
{ "type": "Feature", "properties": { "RCID": 858, "PRIM": 2, "GRUP": 2, "OBJL": 22, "RVER": 1, "AGEN": 550, "FIDN": 2068466317, "FIDS": 48294, "LNAM": "02267B4A4A8DBCA6", "SCAMIN": 999999, "SORDAT": "200303", "SORIND": "US,US,graph,Chart 12300" }, "geometry": { "type": "LineString", "coordinates": [ [ -71.6018027, 41.3643055 ], [ -71.6028487, 41.360329 ], [ -71.6036815, 41.3576399 ], [ -71.6039789, 41.3548163 ], [ -71.6040384, 41.3516339 ], [ -71.6053209, 41.3481036 ], [ -71.6072054, 41.3443597 ], [ -71.6082333, 41.3391953 ], [ -71.6118309, 41.3331911 ], [ -71.6229444, 41.3185178 ], [ -71.6332365, 41.3023473 ], [ -71.6399303, 41.294272 ], [ -71.6422334, 41.2908276 ], [ -71.6433648, 41.2893863 ], [ -71.6605696, 41.2674696 ], [ -71.6815162, 41.2407863 ], [ -71.7101041, 41.2035471 ], [ -71.71724, 41.1942517 ], [ -71.7253675, 41.1826637 ], [ -71.7263158, 41.1805999 ], [ -71.726561, 41.1800664 ], [ -71.7281631, 41.1737974 ], [ -71.7330435, 41.1659598 ], [ -71.7347956, 41.1606006 ], [ -71.7378345, 41.1513056 ], [ -71.7386113, 41.1489296 ], [ -71.7401917, 41.145489 ], [ -71.7402918, 41.1452711 ], [ -71.7408576, 41.1440393 ], [ -71.7421092, 41.1413144 ] ] } },
{ "type": "Feature", "properties": { "RCID": 859, "PRIM": 2, "GRUP": 2, "OBJL": 22, "RVER": 1, "AGEN": 550, "FIDN": 586873551, "FIDS": 48294, "LNAM": "022622FAFACFBCA6", "SCAMIN": 999999, "SORDAT": "20160829", "SORIND": "US,US,reprt,L-1171/16" }, "geometry": { "type": "LineString", "coordinates": [ [ -71.565436, 41.1838459 ], [ -71.5633685, 41.1841956 ], [ -71.5596068, 41.1855454 ], [ -71.5541523, 41.1868953 ], [ -71.5502025, 41.1869663 ], [ -71.5448421, 41.1863269 ], [ -71.5384472, 41.1842666 ], [ -71.5299834, 41.1796485 ], [ -71.5241528, 41.1752431 ], [ -71.5187924, 41.1704112 ], [ -71.5162532, 41.1667159 ], [ -71.5077894, 41.1502977 ], [ -71.504686, 41.1450373 ], [ -71.502523, 41.1389945 ], [ -71.5040277, 41.1330933 ], [ -71.506943, 41.1255561 ], [ -71.5132439, 41.1200092 ], [ -71.5212375, 41.1146753 ], [ -71.5376389, 41.1063306 ] ] } },
{ "type": "Feature", "properties": { "RCID": 860, "PRIM": 2, "GRUP": 2, "OBJL": 22, "RVER": 1, "AGEN": 550, "FIDN": -1648530952, "FIDS": 48294, "LNAM": "02269DBD69F8BCA6", "SCAMIN": 999999, "SORDAT": "200303", "SORIND": "US,US,graph,Chart 12300" }, "geometry": { "type": "LineString", "coordinates": [ [ -71.7314167, 41.13857 ], [ -71.7349119, 41.1421294 ], [ -71.738658, 41.1449683 ], [ -71.7401917, 41.145489 ], [ -71.7444044, 41.1469193 ], [ -71.7595988, 41.1490794 ], [ -71.8068508, 41.1507431 ], [ -71.8150712, 41.1510326 ], [ -71.8458253, 41.1521154 ], [ -71.8510253, 41.1522985 ], [ -71.8810745, 41.1522985 ], [ -71.9446992, 41.1489375 ], [ -71.9611027, 41.1503781 ], [ -71.9771804, 41.1549314 ], [ -71.9872032, 41.1577308 ], [ -71.9915165, 41.1593505 ], [ -71.9916209, 41.159021 ], [ -72.0, 41.1623146 ] ] } },
{ "type": "Feature", "properties": { "RCID": 861, "PRIM": 2, "GRUP": 2, "OBJL": 22, "RVER": 1, "AGEN": 550, "FIDN": 457084582, "FIDS": 48294, "LNAM": "02261B3E8EA6BCA6", "CATCBL": 1, "SCAMIN": 999999, "SORDAT": "20170419", "SORIND": "US,US,reprt,L-223/17" }, "geometry": { "type": "LineString", "coordinates": [ [ -71.5654662, 41.183974 ], [ -71.5645533, 41.1843333 ], [ -71.5606633, 41.1858233 ], [ -71.5519633, 41.188 ], [ -71.5363833, 41.1918733 ], [ -71.5363717, 41.1918767 ], [ -71.5363167, 41.1918917 ], [ -71.5350833, 41.1921933 ], [ -71.535, 41.1922133 ], [ -71.5282467, 41.1939167 ], [ -71.5157633, 41.1982033 ], [ -71.5057933, 41.20451 ], [ -71.4877533, 41.21806 ], [ -71.4835267, 41.2212367 ], [ -71.46385, 41.235985 ], [ -71.4634733, 41.2362717 ], [ -71.4631333, 41.2365383 ], [ -71.4619, 41.2374433 ], [ -71.46185, 41.2374833 ], [ -71.46115, 41.23801 ], [ -71.4610783, 41.2380633 ], [ -71.460955, 41.2381617 ], [ -71.46095, 41.238165 ], [ -71.4602667, 41.2386683 ], [ -71.4602167, 41.2387083 ], [ -71.4601733, 41.2387333 ], [ -71.46015, 41.238745 ], [ -71.4601167, 41.2387867 ], [ -71.45915, 41.239515 ], [ -71.4591, 41.239555 ], [ -71.459015, 41.2396117 ], [ -71.4588883, 41.2397067 ], [ -71.4588667, 41.2397167 ], [ -71.4588167, 41.2397567 ], [ -71.44665, 41.24889 ], [ -71.44632, 41.249135 ], [ -71.4459333, 41.249415 ], [ -71.4417, 41.25258 ], [ -71.4416, 41.2526617 ], [ -71.4415967, 41.2526633 ], [ -71.4415167, 41.2527217 ], [ -71.4414717, 41.25276 ], [ -71.4414667, 41.25276 ], [ -71.4414333, 41.2527783 ], [ -71.4413833, 41.2528183 ], [ -71.4403167, 41.2536233 ], [ -71.4403133, 41.2536383 ], [ -71.4402667, 41.253665 ], [ -71.4359333, 41.2569167 ], [ -71.4359267, 41.2569233 ], [ -71.4358833, 41.256955 ], [ -71.4335667, 41.2586983 ], [ -71.4335167, 41.2587367 ], [ -71.4334833, 41.2587683 ], [ -71.4333983, 41.2588283 ], [ -71.4312167, 41.2604717 ], [ -71.4311667, 41.26051 ], [ -71.4284, 41.2625733 ], [ -71.4283217, 41.26263 ], [ -71.4282, 41.2627317 ], [ -71.4281867, 41.26273 ], [ -71.4281333, 41.2627783 ], [ -71.42806, 41.2628233 ], [ -71.4279667, 41.2628917 ], [ -71.42337, 41.2663483 ], [ -71.4190867, 41.2738967 ], [ -71.4179033, 41.27597 ], [ -71.41618, 41.2790383 ], [ -71.41502, 41.28221 ], [ -71.4144333, 41.28441 ], [ -71.4143933, 41.2845117 ], [ -71.4144, 41.2845167 ], [ -71.41421, 41.28531 ], [ -71.4131, 41.290135 ], [ -71.4130933, 41.290195 ], [ -71.4130833, 41.290245 ], [ -71.4130683, 41.2903283 ], [ -71.4130417, 41.2904683 ], [ -71.41304, 41.2905017 ], [ -71.4130167, 41.293105 ], [ -71.4130167, 41.2931583 ], [ -71.4130167, 41.29422 ], [ -71.41302, 41.2943117 ], [ -71.41302, 41.294445 ], [ -71.4130167, 41.294495 ], [ -71.41302, 41.2945783 ], [ -71.4130333, 41.29461 ], [ -71.4130333, 41.2947217 ], [ -71.4130333, 41.2953633 ], [ -71.413025, 41.2954083 ], [ -71.4130333, 41.2954183 ], [ -71.4130267, 41.295545 ], [ -71.4130333, 41.29561 ], [ -71.41303, 41.2956783 ], [ -71.4130333, 41.2958167 ], [ -71.4130333, 41.2958833 ], [ -71.4130367, 41.295955 ], [ -71.4130367, 41.2960967 ], [ -71.4130333, 41.2962267 ], [ -71.4130367, 41.2962333 ], [ -71.413035, 41.2963667 ], [ -71.4130333, 41.2964483 ], [ -71.4130333, 41.2965033 ], [ -71.4130333, 41.2965633 ], [ -71.4130317, 41.2966417 ], [ -71.4130267, 41.2967783 ], [ -71.4130333, 41.29678 ], [ -71.4130167, 41.2972033 ], [ -71.4130167, 41.2972583 ], [ -71.413, 41.298685 ], [ -71.4129983, 41.2987 ], [ -71.413, 41.29874 ], [ -71.4130033, 41.2988383 ], [ -71.4130067, 41.2989783 ], [ -71.4130167, 41.2990167 ], [ -71.4130167, 41.2990717 ], [ -71.4130333, 41.2996033 ], [ -71.4130083, 41.2996633 ], [ -71.4130167, 41.299765 ], [ -71.4130117, 41.2998 ], [ -71.4130167, 41.299865 ], [ -71.4130167, 41.29992 ], [ -71.413015, 41.2999417 ], [ -71.4130167, 41.3000717 ], [ -71.4130283, 41.3000767 ], [ -71.4132167, 41.3020983 ], [ -71.4132117, 41.30213 ], [ -71.4132167, 41.3022083 ], [ -71.4135433, 41.3052717 ], [ -71.4140167, 41.3072 ], [ -71.4144767, 41.3091167 ], [ -71.41869, 41.32635 ], [ -71.41909, 41.3279033 ], [ -71.4195617, 41.329835 ], [ -71.4291, 41.3684233 ], [ -71.4291167, 41.3684783 ], [ -71.4294, 41.3696833 ], [ -71.429425, 41.3697617 ], [ -71.4294667, 41.3698883 ], [ -71.4295167, 41.3699883 ], [ -71.43105, 41.376345 ], [ -71.43105, 41.376375 ], [ -71.4310667, 41.3763983 ], [ -71.431225, 41.37709 ], [ -71.4316917, 41.3789767 ], [ -71.4317267, 41.3790767 ], [ -71.43179, 41.3791983 ], [ -71.43177, 41.3792217 ], [ -71.4318333, 41.3792533 ], [ -71.4318667, 41.3793017 ], [ -71.4318833, 41.3793333 ], [ -71.43195, 41.3794 ], [ -71.4319833, 41.3794467 ], [ -71.4319767, 41.3794517 ], [ -71.4320333, 41.379505 ], [ -71.4320667, 41.37955 ], [ -71.43393, 41.3815383 ], [ -71.4394283, 41.38397 ], [ -71.4482683, 41.3867967 ], [ -71.4496133, 41.3872167 ], [ -71.4539667, 41.3885867 ], [ -71.4540833, 41.3886267 ], [ -71.4558, 41.3891683 ], [ -71.4608333, 41.3917617 ], [ -71.4609167, 41.3917817 ], [ -71.4609667, 41.3917983 ], [ -71.46105, 41.3918217 ], [ -71.4611813, 41.3918955 ], [ -71.4614467, 41.3918867 ], [ -71.4615167, 41.3918967 ], [ -71.4625833, 41.391845 ], [ -71.4626667, 41.39184 ], [ -71.46272, 41.3918367 ], [ -71.4627333, 41.391835 ], [ -71.4629, 41.3918217 ], [ -71.46295, 41.3918183 ], [ -71.46406, 41.39175 ], [ -71.4640617, 41.3917233 ], [ -71.46425, 41.3917417 ], [ -71.4693982, 41.3919859 ] ] } },
{ "type": "Feature", "properties": { "RCID": 862, "PRIM": 2, "GRUP": 2, "OBJL": 22, "RVER": 1, "AGEN": 550, "FIDN": -159138636, "FIDS": 48294, "LNAM": "0226F683BCB4BCA6", "CATCBL": 1, "SCAMIN": 999999, "SORDAT": "20231006", "SORIND": "US,US,reprt,L-281-2023" }, "geometry": { "type": "LineString", "coordinates": [ [ -72.0, 40.9222165 ], [ -71.9936705, 40.9238856 ], [ -71.9868863, 40.9256684 ], [ -71.9826724, 40.926782 ], [ -71.9752703, 40.9287254 ], [ -71.9738684, 40.9290934 ], [ -71.9729022, 40.9293699 ], [ -71.9724624, 40.929482 ], [ -71.9723203, 40.9294986 ], [ -71.9718803, 40.9296081 ], [ -71.9712894, 40.9297721 ], [ -71.970628, 40.9299175 ], [ -71.9662467, 40.9307267 ], [ -71.9643745, 40.9310593 ], [ -71.9640158, 40.9311226 ], [ -71.96357, 40.9312184 ], [ -71.9629459, 40.9313649 ], [ -71.9617126, 40.9316899 ], [ -71.955362, 40.9333516 ], [ -71.953752, 40.9337862 ], [ -71.9522075, 40.9342513 ], [ -71.9458316, 40.9362206 ], [ -71.9444503, 40.9366305 ], [ -71.9440142, 40.9367483 ], [ -71.9432886, 40.9369193 ], [ -71.9428151, 40.9370392 ], [ -71.9424176, 40.9371593 ], [ -71.9420456, 40.9372537 ], [ -71.9416669, 40.9373296 ], [ -71.9412292, 40.9374442 ], [ -71.939534, 40.9378549 ], [ -71.9380269, 40.9382703 ], [ -71.9375633, 40.9383802 ], [ -71.9370832, 40.9385125 ], [ -71.9360439, 40.9387963 ], [ -71.9354923, 40.9389354 ], [ -71.9348501, 40.9391249 ], [ -71.9339906, 40.9393332 ], [ -71.9328981, 40.9396093 ], [ -71.9318941, 40.9398864 ], [ -71.9276073, 40.9410349 ], [ -71.9238785, 40.9420303 ], [ -71.9201078, 40.9429884 ], [ -71.9144764, 40.9444114 ], [ -71.9144764, 40.9444119 ], [ -71.9136579, 40.9446274 ], [ -71.9131014, 40.9447561 ], [ -71.9119131, 40.9450107 ], [ -71.9093045, 40.9455237 ], [ -71.9082027, 40.9457448 ], [ -71.9074265, 40.945913 ], [ -71.9069971, 40.9460176 ], [ -71.9065385, 40.9461404 ], [ -71.9057321, 40.9463812 ], [ -71.9035858, 40.9470628 ], [ -71.9016994, 40.9476554 ], [ -71.899504, 40.9482664 ], [ -71.8967125, 40.949004 ], [ -71.8945935, 40.949564 ], [ -71.8867529, 40.9516536 ], [ -71.8789686, 40.9537299 ], [ -71.8766709, 40.9543391 ], [ -71.876108, 40.9544818 ], [ -71.8755182, 40.9546196 ], [ -71.8750251, 40.9547205 ], [ -71.874171, 40.9548765 ], [ -71.8714684, 40.9553657 ], [ -71.8707428, 40.9555033 ], [ -71.8701941, 40.9556195 ], [ -71.8695734, 40.9557719 ], [ -71.8689425, 40.9559567 ], [ -71.8661272, 40.9569167 ], [ -71.8655141, 40.9571108 ], [ -71.8648808, 40.9572921 ], [ -71.8642315, 40.9574663 ], [ -71.8580571, 40.9590798 ], [ -71.8503606, 40.9611029 ], [ -71.8431114, 40.9630054 ], [ -71.8405651, 40.9636763 ], [ -71.8404283, 40.963707 ], [ -71.8393737, 40.9639846 ], [ -71.837568, 40.9644611 ], [ -71.8305979, 40.9662875 ], [ -71.8256817, 40.967576 ], [ -71.8203626, 40.9689731 ], [ -71.8161124, 40.9700406 ], [ -71.8150057, 40.9703139 ], [ -71.8139099, 40.9705823 ], [ -71.8125691, 40.9708917 ], [ -71.8115119, 40.9711341 ], [ -71.8101007, 40.9714536 ], [ -71.8089136, 40.971712 ], [ -71.8078257, 40.9719001 ], [ -71.8067423, 40.9720094 ], [ -71.8058162, 40.9720392 ], [ -71.804866, 40.9720117 ], [ -71.8040394, 40.9719374 ], [ -71.8031867, 40.9718159 ], [ -71.8022603, 40.9716192 ], [ -71.8013026, 40.9713512 ], [ -71.8002633, 40.9709964 ], [ -71.7970455, 40.9698158 ], [ -71.796459, 40.9695785 ], [ -71.7958547, 40.9692753 ], [ -71.7951224, 40.968891 ], [ -71.7939395, 40.9682726 ], [ -71.7933675, 40.9679986 ], [ -71.7929136, 40.9678033 ], [ -71.7924813, 40.967634 ], [ -71.7917407, 40.9673682 ], [ -71.7876313, 40.965954 ], [ -71.7830662, 40.9643863 ], [ -71.7817764, 40.9639434 ], [ -71.7816907, 40.963914 ], [ -71.7815901, 40.9638794 ], [ -71.7804051, 40.9634725 ], [ -71.7730757, 40.9609459 ], [ -71.7703251, 40.9600075 ], [ -71.7698044, 40.9598535 ], [ -71.769031, 40.9596029 ], [ -71.7686365, 40.9594796 ], [ -71.7682729, 40.9593955 ], [ -71.7676706, 40.9592972 ], [ -71.7672508, 40.9592391 ], [ -71.766744, 40.9591991 ], [ -71.7661286, 40.9591774 ], [ -71.7655012, 40.9591775 ], [ -71.7649473, 40.9592139 ], [ -71.7645346, 40.9592497 ], [ -71.7641622, 40.9593006 ], [ -71.763637, 40.9594123 ], [ -71.7629894, 40.9595536 ], [ -71.762523, 40.959686 ], [ -71.7619154, 40.9599074 ], [ -71.7612563, 40.9601722 ], [ -71.7607203, 40.960421 ], [ -71.7596143, 40.9609827 ], [ -71.7590957, 40.961267 ], [ -71.7584938, 40.9616025 ], [ -71.7578324, 40.962041 ], [ -71.7571867, 40.9624393 ], [ -71.7557933, 40.963363 ], [ -71.7554292, 40.963609 ], [ -71.7549799, 40.9639534 ], [ -71.7536867, 40.9649723 ], [ -71.753135, 40.9653837 ], [ -71.7520668, 40.9662147 ], [ -71.7512372, 40.9668714 ], [ -71.7503391, 40.9675657 ], [ -71.7493275, 40.9683397 ], [ -71.7487567, 40.968786 ], [ -71.7483517, 40.9690903 ], [ -71.7479802, 40.9693437 ], [ -71.747524, 40.9696324 ], [ -71.7470369, 40.9699211 ], [ -71.7405067, 40.9739792 ], [ -71.7338756, 40.9781153 ], [ -71.7332292, 40.9785116 ], [ -71.7325488, 40.9789037 ], [ -71.7320729, 40.9791578 ], [ -71.7310668, 40.9796532 ], [ -71.7268634, 40.9817397 ], [ -71.7261384, 40.9821312 ], [ -71.7257206, 40.9823837 ], [ -71.725218, 40.9827141 ], [ -71.7245963, 40.9831724 ], [ -71.7205982, 40.9860351 ], [ -71.7163111, 40.9891117 ], [ -71.7159425, 40.9893665 ], [ -71.7153794, 40.9897396 ], [ -71.7148794, 40.9900583 ], [ -71.7087693, 40.9938964 ], [ -71.7015352, 40.9984284 ], [ -71.7002306, 40.9992391 ], [ -71.6995956, 40.9996019 ], [ -71.6989052, 40.9999527 ], [ -71.6982974, 41.0002178 ], [ -71.6976794, 41.0004495 ], [ -71.6970308, 41.0006513 ], [ -71.6961252, 41.000899 ], [ -71.6944475, 41.0013275 ], [ -71.6530821, 41.0119688 ], [ -71.6047301, 41.0244075 ], [ -71.5863705, 41.0288686 ], [ -71.5858535, 41.0289726 ], [ -71.5853859, 41.0290374 ], [ -71.5847726, 41.0290961 ], [ -71.5843342, 41.0291216 ], [ -71.583669, 41.0291417 ], [ -71.5782611, 41.0292092 ], [ -71.5708918, 41.029303 ], [ -71.559767, 41.0294518 ], [ -71.5496651, 41.029588 ], [ -71.5417987, 41.029764 ], [ -71.5346935, 41.0299408 ], [ -71.5288586, 41.0300652 ], [ -71.5076736, 41.0303392 ], [ -71.5001386, 41.0307731 ], [ -71.4894465, 41.0309251 ], [ -71.4838636, 41.0310254 ], [ -71.4806876, 41.0310824 ], [ -71.466183, 41.0313429 ], [ -71.4455126, 41.0316798 ], [ -71.423579, 41.0316032 ], [ -71.3956966, 41.0323452 ], [ -71.387791, 41.0323991 ], [ -71.3684477, 41.0324997 ], [ -71.3618763, 41.0323992 ], [ -71.3535318, 41.0324685 ], [ -71.342799, 41.0331433 ], [ -71.3392451, 41.0331379 ], [ -71.3366542, 41.0330877 ], [ -71.3338431, 41.0326858 ], [ -71.3221706, 41.0327504 ], [ -71.3063907, 41.03364 ], [ -71.3033492, 41.0337135 ], [ -71.3021494, 41.0338343 ], [ -71.3009627, 41.0341501 ], [ -71.298397, 41.0351325 ], [ -71.2976653, 41.0356157 ], [ -71.2964326, 41.0368945 ], [ -71.2959424, 41.0372713 ], [ -71.2943584, 41.03819 ], [ -71.2908288, 41.041225 ], [ -71.2889047, 41.0429009 ], [ -71.2878219, 41.0437849 ], [ -71.2873618, 41.0441367 ], [ -71.2866697, 41.0445902 ], [ -71.2859232, 41.045065 ], [ -71.2854892, 41.045398 ], [ -71.2847903, 41.0459999 ], [ -71.2840247, 41.0467461 ], [ -71.2836947, 41.0470874 ], [ -71.2834009, 41.0473702 ], [ -71.2822968, 41.0478825 ], [ -71.2818521, 41.0480736 ], [ -71.2810518, 41.0483504 ], [ -71.2805948, 41.0485235 ], [ -71.2798303, 41.0487489 ], [ -71.2793426, 41.0489354 ], [ -71.2790359, 41.0491051 ], [ -71.2786899, 41.0493649 ], [ -71.2783523, 41.0496905 ], [ -71.2780777, 41.0500015 ], [ -71.2777949, 41.0503218 ], [ -71.2776253, 41.0505138 ], [ -71.2774881, 41.0506647 ], [ -71.2763718, 41.0518928 ], [ -71.2758687, 41.0525354 ], [ -71.275477, 41.0530189 ], [ -71.2753748, 41.0531651 ], [ -71.2751879, 41.0534327 ], [ -71.2745374, 41.0544243 ], [ -71.2741325, 41.0549748 ], [ -71.2739192, 41.0552454 ], [ -71.2737144, 41.0554664 ], [ -71.2734206, 41.0556893 ], [ -71.2730885, 41.0559079 ], [ -71.2704145, 41.0574843 ], [ -71.269725, 41.0578036 ], [ -71.269397, 41.0579494 ], [ -71.2691364, 41.0580098 ], [ -71.2685662, 41.0580988 ], [ -71.267757, 41.0581996 ], [ -71.2662759, 41.0583635 ], [ -71.2621389, 41.0589402 ], [ -71.2610081, 41.0590574 ], [ -71.2604614, 41.0590713 ], [ -71.2598925, 41.0590382 ], [ -71.2587058, 41.0588966 ], [ -71.2573559, 41.0587333 ], [ -71.2564713, 41.0586479 ], [ -71.2559137, 41.0586173 ], [ -71.2554143, 41.058622 ], [ -71.2549274, 41.0586422 ], [ -71.2528046, 41.0588453 ], [ -71.2519924, 41.0589332 ], [ -71.248562, 41.0592642 ], [ -71.2475476, 41.0593567 ], [ -71.2465291, 41.0594162 ], [ -71.2451886, 41.0594807 ], [ -71.2438459, 41.0594944 ], [ -71.2314271, 41.0591867 ], [ -71.2281925, 41.0588991 ], [ -71.2270087, 41.0588168 ], [ -71.2262713, 41.058821 ], [ -71.2253938, 41.0588666 ], [ -71.2247695, 41.0589292 ], [ -71.2238938, 41.0590574 ], [ -71.2223331, 41.0593422 ], [ -71.2204044, 41.0597013 ], [ -71.2198018, 41.059805 ], [ -71.2191434, 41.0598766 ], [ -71.2182636, 41.0598873 ], [ -71.2173126, 41.0598908 ], [ -71.2168558, 41.0598321 ], [ -71.2158296, 41.0595737 ], [ -71.2151067, 41.0593936 ], [ -71.2144519, 41.0593049 ], [ -71.2138342, 41.0592948 ], [ -71.2131655, 41.0593745 ], [ -71.2125779, 41.0595453 ], [ -71.2119076, 41.0598363 ], [ -71.2107843, 41.0604874 ], [ -71.2098527, 41.0610325 ], [ -71.2090012, 41.0615232 ], [ -71.2084949, 41.0617917 ], [ -71.2078279, 41.0620694 ], [ -71.2071438, 41.0623222 ], [ -71.2064632, 41.0625995 ], [ -71.2059102, 41.0628641 ], [ -71.205421, 41.0631356 ], [ -71.204761, 41.063457 ], [ -71.2042015, 41.0637777 ], [ -71.2035285, 41.0640828 ], [ -71.2010887, 41.0653531 ], [ -71.1985199, 41.0667968 ], [ -71.196873, 41.0677606 ], [ -71.1962809, 41.0680778 ], [ -71.1944833, 41.0690063 ], [ -71.1926773, 41.0699737 ], [ -71.1908229, 41.0709324 ] ] } },
{ "type": "Feature", "properties": { "RCID": 863, "PRIM": 2, "GRUP": 2, "OBJL": 22, "RVER": 1, "AGEN": 550, "FIDN": -747549556, "FIDS": 48294, "LNAM": "0226D3714C8CBCA6", "CATCBL": 4, "OBJNAM": "AT&T Interlink SL100 Cable System", "SCAMIN": 999999, "SORDAT": "19950811", "SORIND": "US,US,reprt,L-957-1995" }, "geometry": { "type": "LineString", "coordinates": [ [ -71.7483588, 41.0577425 ], [ -71.7486091, 41.0546943 ], [ -71.7477384, 41.0398737 ], [ -71.7503506, 41.0270265 ], [ -71.7538337, 41.0065976 ], [ -71.7612436, 40.9891195 ], [ -71.7648562, 40.9824521 ], [ -71.7763712, 40.9694573 ], [ -71.7830662, 40.9643863 ], [ -71.7908215, 40.9585123 ], [ -71.8100132, 40.9499603 ], [ -71.8358664, 40.9378799 ], [ -71.8504592, 40.9310611 ], [ -71.8917778, 40.9149756 ], [ -71.9582914, 40.8881668 ], [ -71.993137, 40.873703 ], [ -72.0, 40.8708543 ] ] } },
{ "type": "Feature", "properties": { "RCID": 864, "PRIM": 2, "GRUP": 2, "OBJL": 22, "RVER": 1, "AGEN": 550, "FIDN": -991441492, "FIDS": 48294, "LNAM": "0226C4E7CDACBCA6", "CATCBL": 1, "SCAMIN": 999999, "SORDAT": "20241219", "SORIND": "US,US,graph,L-464-2024" }, "geometry": { "type": "LineString", "coordinates": [ [ -71.1905264, 41.0921013 ], [ -71.1886316, 41.0896531 ], [ -71.1911065, 41.0777608 ], [ -71.1900112, 41.0755 ] ] } },
{ "type": "Feature", "properties": { "RCID": 865, "PRIM": 2, "GRUP": 2, "OBJL": 22, "RVER": 1, "AGEN": 550, "FIDN": -991441492, "FIDS": 65533, "LNAM": "0226C4E7CDACFFFD", "CATCBL": 1, "SCAMIN": 999999, "SORDAT": "20241219", "SORIND": "US,US,graph,L-464-2024" }, "geometry": { "type": "LineString", "coordinates": [ [ -71.1897955, 41.1088135 ], [ -71.1874371, 41.1067808 ], [ -71.1913239, 41.0949473 ], [ -71.1905709, 41.092173 ] ] } },
{ "type": "Feature", "properties": { "RCID": 866, "PRIM": 2, "GRUP": 2, "OBJL": 22, "RVER": 1, "AGEN": 550, "FIDN": -991441492, "FIDS": 65532, "LNAM": "0226C4E7CDACFFFC", "CATCBL": 1, "SCAMIN": 999999, "SORDAT": "20241219", "SORIND": "US,US,graph,L-464-2024" }, "geometry": { "type": "LineString", "coordinates": [ [ -71.1691588, 41.1092073 ], [ -71.1591478, 41.1081869 ], [ -71.1472558, 41.1096302 ] ] } },
{ "type": "Feature", "properties": { "RCID": 867, "PRIM": 2, "GRUP": 2, "OBJL": 22, "RVER": 1, "AGEN": 550, "FIDN": -991441492, "FIDS": 65531, "LNAM": "0226C4E7CDACFFFB", "CATCBL": 1, "SCAMIN": 999999, "SORDAT": "20241219", "SORIND": "US,US,graph,L-464-2024" }, "geometry": { "type": "LineString", "coordinates": [ [ -71.1692537, 41.1092246 ], [ -71.1897729, 41.1088356 ] ] } },
{ "type": "Feature", "properties": { "RCID": 868, "PRIM": 2, "GRUP": 2, "OBJL": 22, "RVER": 1, "AGEN": 550, "FIDN": 467936580, "FIDS": 48294, "LNAM": "02261BE42544BCA6", "CATCBL": 1, "SCAMIN": 999999, "SORDAT": "20241219", "SORIND": "US,US,graph,L-464-2024" }, "geometry": { "type": "LineString", "coordinates": [ [ -71.1678944, 41.0759754 ], [ -71.1520372, 41.0771829 ], [ -71.1459917, 41.0763055 ] ] } },
{ "type": "Feature", "properties": { "RCID": 869, "PRIM": 2, "GRUP": 2, "OBJL": 22, "RVER": 1, "AGEN": 550, "FIDN": 467936580, "FIDS": 65533, "LNAM": "02261BE42544FFFD", "CATCBL": 1, "SCAMIN": 999999, "SORDAT": "20241219", "SORIND": "US,US,graph,L-464-2024" }, "geometry": { "type": "LineString", "coordinates": [ [ -71.1679406, 41.0760081 ], [ -71.16629, 41.0897826 ], [ -71.1678455, 41.0919311 ] ] } },
{ "type": "Feature", "properties": { "RCID": 870, "PRIM": 2, "GRUP": 2, "OBJL": 22, "RVER": 1, "AGEN": 550, "FIDN": 467936580, "FIDS": 65532, "LNAM": "02261BE42544FFFC", "CATCBL": 1, "SCAMIN": 999999, "SORDAT": "20241219", "SORIND": "US,US,graph,L-464-2024" }, "geometry": { "type": "LineString", "coordinates": [ [ -71.1458758, 41.0762922 ], [ -71.1239758, 41.076748 ] ] } },
{ "type": "Feature", "properties": { "RCID": 871, "PRIM": 2, "GRUP": 2, "OBJL": 22, "RVER": 1, "AGEN": 550, "FIDN": 467936580, "FIDS": 65531, "LNAM": "02261BE42544FFFB", "CATCBL": 1, "SCAMIN": 999999, "SORDAT": "20241219", "SORIND": "US,US,graph,L-464-2024" }, "geometry": { "type": "LineString", "coordinates": [ [ -71.1238686, 41.076736 ], [ -71.1198708, 41.0771945 ], [ -71.1176281, 41.0847472 ], [ -71.1076942, 41.0939508 ], [ -71.1054409, 41.0946632 ], [ -71.1024547, 41.0937945 ] ] } },
{ "type": "Feature", "properties": { "RCID": 872, "PRIM": 2, "GRUP": 2, "OBJL": 22, "RVER": 1, "AGEN": 550, "FIDN": 467936580, "FIDS": 65530, "LNAM": "02261BE42544FFFA", "CATCBL": 1, "SCAMIN": 999999, "SORDAT": "20241219", "SORIND": "US,US,graph,L-464-2024" }, "geometry": { "type": "LineString", "coordinates": [ [ -71.167828, 41.09198 ], [ -71.1651169, 41.0937471 ], [ -71.1673119, 41.1063539 ], [ -71.1691737, 41.10918 ] ] } },
{ "type": "Feature", "properties": { "RCID": 873, "PRIM": 2, "GRUP": 2, "OBJL": 22, "RVER": 1, "AGEN": 550, "FIDN": 467936580, "FIDS": 65529, "LNAM": "02261BE42544FFF9", "CATCBL": 1, "SCAMIN": 999999, "SORDAT": "20241219", "SORIND": "US,US,graph,L-464-2024" }, "geometry": { "type": "LineString", "coordinates": [ [ -71.1024538, 41.0937692 ], [ -71.1052699, 41.0925841 ], [ -71.1053177, 41.0873938 ], [ -71.1019077, 41.0775492 ] ] } },
{ "type": "Feature", "properties": { "RCID": 874, "PRIM": 2, "GRUP": 2, "OBJL": 22, "RVER": 1, "AGEN": 550, "FIDN": 1701527923, "FIDS": 48294, "LNAM": "0226656B4173BCA6", "CATCBL": 1, "SCAMIN": 999999, "SORDAT": "20241219", "SORIND": "US,US,graph,L-464-2024" }, "geometry": { "type": "LineString", "coordinates": [ [ -71.1239218, 41.0767798 ], [ -71.1251271, 41.0844332 ], [ -71.1220365, 41.0910926 ], [ -71.1233864, 41.0933599 ] ] } },
{ "type": "Feature", "properties": { "RCID": 875, "PRIM": 2, "GRUP": 2, "OBJL": 22, "RVER": 1, "AGEN": 550, "FIDN": 1701527923, "FIDS": 65533, "LNAM": "0226656B4173FFFD", "CATCBL": 1, "SCAMIN": 999999, "SORDAT": "20241219", "SORIND": "US,US,graph,L-464-2024" }, "geometry": { "type": "LineString", "coordinates": [ [ -71.1233541, 41.0934067 ], [ -71.1208845, 41.0952075 ], [ -71.1232626, 41.1074315 ], [ -71.1250115, 41.1093055 ] ] } },
{ "type": "Feature", "properties": { "RCID": 876, "PRIM": 2, "GRUP": 2, "OBJL": 22, "RVER": 1, "AGEN": 550, "FIDN": -1792870168, "FIDS": 48294, "LNAM": "02269522F8E8BCA6", "SCAMIN": 999999, "SORDAT": "200303", "SORIND": "US,US,graph,Chart 12300" }, "geometry": { "type": "LineString", "coordinates": [ [ -71.3963173, 40.8 ], [ -71.399553, 40.8103508 ], [ -71.4089573, 40.8440328 ], [ -71.4242574, 40.9079643 ], [ -71.430429, 40.9335797 ], [ -71.43326, 40.9498373 ], [ -71.4376549, 40.975075 ], [ -71.4392514, 40.9842433 ], [ -71.4425661, 40.9985352 ], [ -71.4460108, 41.0133878 ], [ -71.4482255, 41.0227914 ], [ -71.4488136, 41.0252889 ], [ -71.4513007, 41.0358491 ], [ -71.4515945, 41.0427417 ], [ -71.4501251, 41.050745 ], [ -71.4454229, 41.0578582 ], [ -71.4454229, 41.0631926 ], [ -71.4463087, 41.0668307 ], [ -71.4489537, 41.0923839 ], [ -71.4474138, 41.1337623 ], [ -71.4445171, 41.1639877 ], [ -71.4432585, 41.1771208 ], [ -71.4429796, 41.1799935 ], [ -71.4427633, 41.1822224 ], [ -71.4410737, 41.1996264 ], [ -71.4407353, 41.2031124 ], [ -71.4398321, 41.2253362 ], [ -71.4379884, 41.2287611 ], [ -71.4383519, 41.2302285 ], [ -71.439351, 41.2342614 ], [ -71.4392247, 41.2366055 ], [ -71.4420076, 41.241875 ], [ -71.4447298, 41.2420288 ], [ -71.4520367, 41.2429946 ], [ -71.4626909, 41.2444029 ], [ -71.4647808, 41.2446791 ], [ -71.4678377, 41.2457431 ], [ -71.4749274, 41.2482107 ], [ -71.4862788, 41.2521617 ], [ -71.5158384, 41.2646306 ], [ -71.5267941, 41.2697734 ], [ -71.5418257, 41.288104 ], [ -71.5602024, 41.3123871 ], [ -71.5632019, 41.3163506 ], [ -71.563816, 41.3170524 ], [ -71.57156, 41.3290933 ], [ -71.5771692, 41.3335554 ], [ -71.5883904, 41.3478223 ], [ -71.5893212, 41.3508234 ], [ -71.5915519, 41.3535875 ], [ -71.5951209, 41.3585924 ], [ -71.6004594, 41.3644643 ] ] } },
{ "type": "Feature", "properties": { "RCID": 877, "PRIM": 2, "GRUP": 2, "OBJL": 22, "RVER": 1, "AGEN": 550, "FIDN": -1943438864, "FIDS": 48294, "LNAM": "02268C2979F0BCA6", "SCAMIN": 999999, "SORDAT": "200303", "SORIND": "US,US,graph,Chart 12300" }, "geometry": { "type": "LineString", "coordinates": [ [ -71.3555565, 40.8 ], [ -71.3617781, 40.8238029 ], [ -71.3633386, 40.8616689 ], [ -71.3772793, 40.9313524 ], [ -71.3788855, 40.9418685 ], [ -71.3831475, 40.9697722 ], [ -71.3845079, 40.9786792 ], [ -71.3869279, 40.9915784 ], [ -71.3873104, 40.9936171 ], [ -71.3898992, 41.0074161 ], [ -71.3904911, 41.0105714 ], [ -71.3995038, 41.0586111 ], [ -71.4031951, 41.1046183 ], [ -71.4114389, 41.1389851 ], [ -71.4145734, 41.1605838 ], [ -71.417797, 41.1686162 ], [ -71.4202587, 41.1747501 ], [ -71.4334776, 41.1905482 ], [ -71.4410737, 41.1996264 ], [ -71.4456457, 41.2050904 ], [ -71.4560955, 41.2232711 ], [ -71.4656667, 41.2399231 ], [ -71.4749274, 41.2482107 ], [ -71.4881822, 41.2600728 ], [ -71.5056103, 41.2709177 ], [ -71.5139235, 41.2760907 ], [ -71.5263835, 41.2880423 ], [ -71.5379952, 41.2991803 ], [ -71.5408906, 41.3019575 ], [ -71.5556768, 41.3124733 ], [ -71.5598535, 41.3148232 ], [ -71.5623569, 41.3176739 ], [ -71.5687598, 41.3226566 ], [ -71.5737582, 41.3272342 ], [ -71.58471, 41.3411642 ], [ -71.592443, 41.351564 ], [ -71.5941483, 41.3537528 ], [ -71.5961807, 41.3550227 ], [ -71.5978661, 41.3558818 ], [ -71.5997002, 41.3568902 ], [ -71.600642, 41.3587577 ], [ -71.6006916, 41.3608118 ], [ -71.6011801, 41.3643791 ] ] } },
{ "type": "Feature", "properties": { "RCID": 878, "PRIM": 2, "GRUP": 2, "OBJL": 22, "RVER": 1, "AGEN": 550, "FIDN": -1622647387, "FIDS": 48294, "LNAM": "02269F485DA5BCA6", "SCAMIN": 999999, "SORDAT": "200303", "SORIND": "US,US,graph,Chart 12300" }, "geometry": { "type": "LineString", "coordinates": [ [ -71.5720675, 40.8 ], [ -71.5731522, 40.8028705 ], [ -71.600612, 40.875535 ], [ -71.6116986, 40.9048724 ], [ -71.6282135, 40.9497485 ], [ -71.648738, 41.0055199 ], [ -71.6530821, 41.0119688 ], [ -71.6635298, 41.0274788 ], [ -71.682304, 41.0489999 ], [ -71.7152888, 41.0906968 ] ] } },
{ "type": "Feature", "properties": { "RCID": 879, "PRIM": 2, "GRUP": 2, "OBJL": 22, "RVER": 1, "AGEN": 550, "FIDN": 670850785, "FIDS": 48294, "LNAM": "022627FC5EE1BCA6", "SCAMIN": 999999, "SORDAT": "200303", "SORIND": "US,US,graph,Chart 12300" }, "geometry": { "type": "LineString", "coordinates": [ [ -71.1281045, 40.8 ], [ -71.158834, 40.8613118 ], [ -71.1640916, 40.8718018 ], [ -71.1657742, 40.8753065 ], [ -71.2315617, 41.012335 ], [ -71.2396916, 41.0220037 ], [ -71.2442404, 41.0255326 ], [ -71.2558334, 41.0345264 ], [ -71.267471, 41.0435547 ], [ -71.2780777, 41.0500015 ], [ -71.2926902, 41.0588829 ], [ -71.2933409, 41.0604935 ], [ -71.2976533, 41.0711666 ], [ -71.2991576, 41.0774626 ], [ -71.3001908, 41.0817866 ], [ -71.2999775, 41.0843426 ], [ -71.3039699, 41.0976029 ], [ -71.3074958, 41.1081075 ], [ -71.3195056, 41.1438872 ], [ -71.3253856, 41.1520588 ], [ -71.3477294, 41.163071 ], [ -71.3696091, 41.1704963 ], [ -71.3745032, 41.1723438 ], [ -71.3825187, 41.1753696 ], [ -71.3891681, 41.1778797 ], [ -71.3906713, 41.1790802 ], [ -71.3986367, 41.1854412 ], [ -71.4105945, 41.1949906 ], [ -71.4141602, 41.1978381 ], [ -71.4240626, 41.21134 ], [ -71.4247203, 41.2122368 ], [ -71.4314196, 41.2206891 ], [ -71.4333261, 41.2239706 ], [ -71.4348058, 41.2259882 ], [ -71.4387104, 41.2362581 ], [ -71.4414037, 41.2418409 ], [ -71.4431489, 41.2460341 ], [ -71.4513482, 41.2537826 ], [ -71.4703142, 41.2717058 ], [ -71.4786882, 41.2770036 ], [ -71.4848108, 41.280877 ], [ -71.5127282, 41.2985389 ], [ -71.5168267, 41.3007824 ], [ -71.5590904, 41.3239171 ], [ -71.5676435, 41.3310853 ], [ -71.5727151, 41.3370175 ], [ -71.5835081, 41.3479917 ], [ -71.5941034, 41.3592617 ], [ -71.5996699, 41.3645576 ] ] } },
{ "type": "Feature", "properties": { "RCID": 880, "PRIM": 2, "GRUP": 2, "OBJL": 22, "RVER": 1, "AGEN": 550, "FIDN": 954493064, "FIDS": 48294, "LNAM": "022638E46888BCA6", "SCAMIN": 999999, "SORDAT": "200303", "SORIND": "US,US,graph,Chart 12300" }, "geometry": { "type": "LineString", "coordinates": [ [ -71.2664324, 40.8 ], [ -71.2502101, 40.8119062 ], [ -71.2463752, 40.8157057 ], [ -71.2454717, 40.8184491 ], [ -71.2484526, 40.8229745 ], [ -71.2498086, 40.8250331 ], [ -71.2595665, 40.839296 ], [ -71.2731192, 40.8606846 ], [ -71.2771211, 40.869835 ], [ -71.2771211, 40.8749061 ], [ -71.2749526, 40.8875139 ], [ -71.2681949, 40.9171622 ], [ -71.2664597, 40.924775 ], [ -71.2541687, 40.9804596 ], [ -71.2456719, 41.0189985 ], [ -71.2442404, 41.0255326 ], [ -71.2438629, 41.0272554 ], [ -71.2460313, 41.0308105 ], [ -71.2512717, 41.0342286 ], [ -71.253643, 41.0357683 ], [ -71.2645292, 41.0428365 ], [ -71.2774881, 41.0506647 ], [ -71.2808862, 41.0527174 ], [ -71.2933409, 41.0604935 ], [ -71.3017525, 41.0657452 ], [ -71.3050029, 41.0678263 ], [ -71.3223939, 41.078961 ], [ -71.3289837, 41.0840324 ], [ -71.3347498, 41.0908825 ], [ -71.3420458, 41.0981766 ], [ -71.3477136, 41.1059047 ], [ -71.3492053, 41.1090993 ], [ -71.3498636, 41.1125845 ], [ -71.3498636, 41.1160695 ], [ -71.3495815, 41.119981 ], [ -71.3515564, 41.1238212 ], [ -71.3558823, 41.1278033 ], [ -71.362597, 41.1329656 ], [ -71.3731065, 41.1416321 ], [ -71.3801076, 41.1485066 ], [ -71.3843081, 41.1508861 ], [ -71.3871085, 41.1559091 ], [ -71.3846582, 41.1609317 ], [ -71.3745032, 41.1723438 ], [ -71.3696121, 41.1778404 ], [ -71.369606, 41.1778472 ], [ -71.3623543, 41.1855453 ], [ -71.3568367, 41.1936609 ], [ -71.3550314, 41.1972944 ], [ -71.3546303, 41.2024415 ], [ -71.3582409, 41.2044094 ], [ -71.367871, 41.2081774 ], [ -71.3744887, 41.2107667 ], [ -71.3847189, 41.2128858 ], [ -71.3869254, 41.2143993 ], [ -71.3875272, 41.2154587 ], [ -71.3847189, 41.2207557 ], [ -71.3768899, 41.2294782 ], [ -71.3762882, 41.2323531 ], [ -71.3786952, 41.2356818 ], [ -71.3807012, 41.2378 ], [ -71.3828709, 41.2398349 ], [ -71.3838666, 41.2407688 ], [ -71.3963472, 41.252474 ], [ -71.409185, 41.2656325 ], [ -71.4097249, 41.2662254 ], [ -71.4105246, 41.2671035 ], [ -71.4107448, 41.2673454 ], [ -71.4180646, 41.2753833 ], [ -71.419007, 41.2762252 ], [ -71.4261203, 41.2825798 ], [ -71.4288965, 41.2850599 ], [ -71.4330406, 41.2869446 ], [ -71.4405308, 41.2903511 ], [ -71.4559747, 41.2945608 ], [ -71.4593864, 41.2954908 ], [ -71.4671144, 41.2982155 ], [ -71.4794481, 41.3025641 ], [ -71.4812508, 41.3031997 ], [ -71.4848645, 41.3044921 ], [ -71.4931972, 41.3074723 ], [ -71.4968078, 41.3103437 ], [ -71.5100468, 41.3239437 ], [ -71.5170767, 41.330512 ], [ -71.5196843, 41.3326271 ], [ -71.5377375, 41.3353464 ], [ -71.5569943, 41.3341379 ], [ -71.5626756, 41.3335453 ], [ -71.5666465, 41.3343574 ], [ -71.5694004, 41.3344872 ], [ -71.5725674, 41.3342796 ], [ -71.5742198, 41.3344872 ], [ -71.5762852, 41.3367963 ], [ -71.5845691, 41.3474859 ], [ -71.5896748, 41.353425 ], [ -71.5941362, 41.3587287 ], [ -71.6001666, 41.3644989 ] ] } },
{ "type": "Feature", "properties": { "RCID": 881, "PRIM": 2, "GRUP": 2, "OBJL": 22, "RVER": 1, "AGEN": 550, "FIDN": 930873681, "FIDS": 48294, "LNAM": "0226377C0151BCA6", "SCAMIN": 999999, "SORDAT": "200303", "SORIND": "US,US,graph,Chart 12300" }, "geometry": { "type": "LineString", "coordinates": [ [ -71.4758291, 40.8 ], [ -71.4769158, 40.8348694 ], [ -71.4800938, 40.9265741 ], [ -71.4815167, 40.9676314 ], [ -71.4838636, 41.0310254 ], [ -71.4842376, 41.0411288 ], [ -71.4844514, 41.0469058 ], [ -71.4845538, 41.0496716 ], [ -71.4848627, 41.0580146 ], [ -71.4857065, 41.1281076 ], [ -71.4836158, 41.146744 ], [ -71.4822501, 41.1502817 ], [ -71.4787081, 41.1594574 ], [ -71.4783897, 41.160282 ], [ -71.4775246, 41.162523 ], [ -71.4698173, 41.1824886 ], [ -71.4666017, 41.1923405 ], [ -71.4681149, 41.1979082 ], [ -71.478086, 41.2133673 ], [ -71.4785184, 41.2140377 ], [ -71.4832826, 41.2186144 ], [ -71.5072726, 41.2416602 ], [ -71.5231991, 41.2569599 ], [ -71.5630965, 41.3013435 ], [ -71.5761909, 41.3159103 ], [ -71.5857604, 41.3293769 ], [ -71.5854613, 41.3337863 ], [ -71.5863864, 41.3371177 ], [ -71.5906008, 41.343625 ], [ -71.5959008, 41.3510514 ], [ -71.5989462, 41.3554284 ], [ -71.6002658, 41.3568118 ], [ -71.6011838, 41.3576547 ], [ -71.6014706, 41.3589299 ], [ -71.601528, 41.3632309 ], [ -71.6016055, 41.3643288 ] ] } },
{ "type": "Feature", "properties": { "RCID": 1161, "PRIM": 2, "GRUP": 2, "OBJL": 22, "RVER": 1, "AGEN": 550, "FIDN": 1139449899, "FIDS": 48674, "LNAM": "022643EAA02BBE22", "CATCBL": 1, "SCAMIN": 999999, "SORDAT": "20260413", "SORIND": "US,US,reprt,L-95-2026" }, "geometry": { "type": "LineString", "coordinates": [ [ -71.1283666, 41.2101211 ], [ -71.1237715, 41.2055263 ], [ -71.1250443, 41.1923676 ], [ -71.1258929, 41.1860982 ], [ -71.128722, 41.1748619 ], [ -71.1269274, 41.1697874 ], [ -71.1268738, 41.1600628 ], [ -71.1164942, 41.1503816 ], [ -71.1123474, 41.1474386 ], [ -71.1057944, 41.1467391 ], [ -71.0822548, 41.1442265 ], [ -71.0759166, 41.136163 ], [ -71.0746455, 41.1333573 ], [ -71.0806614, 41.1275373 ] ] } },
{ "type": "Feature", "properties": { "RCID": 1162, "PRIM": 2, "GRUP": 2, "OBJL": 22, "RVER": 1, "AGEN": 550, "FIDN": -383347413, "FIDS": 48674, "LNAM": "0226E926952BBE22", "CATCBL": 1, "SCAMIN": 999999, "SORDAT": "20260413", "SORIND": "US,US,reprt,L-95-2026" }, "geometry": { "type": "LineString", "coordinates": [ [ -71.0627704, 41.2279435 ], [ -71.1109952, 41.2275023 ], [ -71.1286434, 41.2266902 ], [ -71.1727261, 41.2259167 ] ] } },
{ "type": "Feature", "properties": { "RCID": 1163, "PRIM": 2, "GRUP": 2, "OBJL": 22, "RVER": 1, "AGEN": 550, "FIDN": 1010340230, "FIDS": 48674, "LNAM": "02263C389186BE22", "CATCBL": 1, "SCAMIN": 999999, "SORDAT": "20260413", "SORIND": "US,US,reprt,L-95-2026" }, "geometry": { "type": "LineString", "coordinates": [ [ -71.1712585, 41.1757997 ], [ -71.1725856, 41.1785973 ], [ -71.1778168, 41.1767375 ], [ -71.1932331, 41.1754847 ], [ -71.1963548, 41.1759624 ], [ -71.1995903, 41.1755023 ], [ -71.2153441, 41.1750581 ], [ -71.2144177, 41.165339 ], [ -71.2149385, 41.1583711 ], [ -71.236876, 41.1578384 ], [ -71.2451118, 41.1583958 ], [ -71.2588377, 41.1575342 ] ] } },
{ "type": "Feature", "properties": { "RCID": 1164, "PRIM": 2, "GRUP": 2, "OBJL": 22, "RVER": 1, "AGEN": 550, "FIDN": 909208416, "FIDS": 48674, "LNAM": "022636316B60BE22", "CATCBL": 1, "SCAMIN": 999999, "SORDAT": "20260413", "SORIND": "US,US,reprt,L-95-2026" }, "geometry": { "type": "LineString", "coordinates": [ [ -71.0163684, 41.0898834 ], [ -71.0125375, 41.0871867 ], [ -70.9492145, 41.0928338 ], [ -70.9481278, 41.0933273 ], [ -70.9269075, 41.1132677 ], [ -70.8822751, 41.1143622 ], [ -70.8604368, 41.1146114 ], [ -70.8387457, 41.1150593 ] ] } },
{ "type": "Feature", "properties": { "RCID": 1165, "PRIM": 2, "GRUP": 2, "OBJL": 22, "RVER": 1, "AGEN": 550, "FIDN": -994125016, "FIDS": 48674, "LNAM": "0226C4BEDB28BE22", "CATCBL": 1, "SCAMIN": 999999, "SORDAT": "20260413", "SORIND": "US,US,reprt,L-95-2026" }, "geometry": { "type": "LineString", "coordinates": [ [ -71.1941141, 41.2088064 ], [ -71.176007, 41.2091716 ], [ -71.156661, 41.209014 ], [ -71.1531907, 41.2060351 ], [ -71.1542256, 41.1977551 ], [ -71.1497271, 41.192986 ], [ -71.1463992, 41.1915685 ], [ -71.1429655, 41.1914577 ], [ -71.1365335, 41.1928355 ], [ -71.1340711, 41.198166 ], [ -71.133974, 41.2087515 ], [ -71.1283666, 41.2101211 ] ] } },
{ "type": "Feature", "properties": { "RCID": 1166, "PRIM": 2, "GRUP": 2, "OBJL": 22, "RVER": 1, "AGEN": 550, "FIDN": 2135479686, "FIDS": 48674, "LNAM": "02267F48D586BE22", "CATCBL": 1, "SCAMIN": 999999, "SORDAT": "20260413", "SORIND": "US,US,reprt,L-95-2026" }, "geometry": { "type": "LineString", "coordinates": [ [ -71.1057944, 41.1467391 ], [ -71.1115802, 41.1521441 ], [ -71.1145532, 41.1566846 ], [ -71.1128195, 41.1879195 ], [ -71.112795, 41.1922833 ], [ -71.1144369, 41.1962886 ], [ -71.1179722, 41.2020663 ], [ -71.1237715, 41.2055263 ] ] } },
{ "type": "Feature", "properties": { "RCID": 1167, "PRIM": 2, "GRUP": 2, "OBJL": 22, "RVER": 1, "AGEN": 550, "FIDN": 1005997135, "FIDS": 48674, "LNAM": "02263BF64C4FBE22", "CATCBL": 1, "SCAMIN": 999999, "SORDAT": "20260413", "SORIND": "US,US,reprt,L-95-2026" }, "geometry": { "type": "LineString", "coordinates": [ [ -71.0590556, 41.1280972 ], [ -71.0579915, 41.1266018 ], [ -71.0566709, 41.12601 ], [ -71.0556027, 41.1244562 ], [ -71.0551171, 41.1229023 ], [ -71.0557969, 41.1210572 ], [ -71.0623035, 41.1119284 ], [ -71.062692, 41.1069756 ], [ -71.0610046, 41.1012701 ], [ -71.0581152, 41.0877834 ], [ -71.057248, 41.0807542 ], [ -71.0580252, 41.0778461 ], [ -71.0282387, 41.0784936 ], [ -71.022017, 41.081339 ], [ -71.019176, 41.0815515 ], [ -71.0179882, 41.0811697 ], [ -71.0138342, 41.0821421 ], [ -71.0126285, 41.0829039 ], [ -71.0113545, 41.0831831 ], [ -70.9954623, 41.0827264 ], [ -70.9940053, 41.082105 ], [ -70.9903819, 41.079108 ], [ -70.9476384, 41.0798064 ] ] } },
{ "type": "Feature", "properties": { "RCID": 1168, "PRIM": 2, "GRUP": 2, "OBJL": 22, "RVER": 1, "AGEN": 550, "FIDN": -132520374, "FIDS": 48674, "LNAM": "0226F819E64ABE22", "CATCBL": 1, "SCAMIN": 999999, "SORDAT": "20260413", "SORIND": "US,US,reprt,L-95-2026" }, "geometry": { "type": "LineString", "coordinates": [ [ -71.1062511, 41.2104717 ], [ -71.1058927, 41.1915955 ], [ -71.1049881, 41.1891946 ], [ -71.1047449, 41.1817682 ], [ -71.1055575, 41.1743369 ], [ -71.1066256, 41.1702031 ], [ -71.106793, 41.162993 ], [ -71.1053098, 41.160549 ] ] } },
{ "type": "Feature", "properties": { "RCID": 1169, "PRIM": 2, "GRUP": 2, "OBJL": 22, "RVER": 1, "AGEN": 550, "FIDN": -1576072446, "FIDS": 48674, "LNAM": "0226A20F0B02BE22", "CATCBL": 1, "SCAMIN": 999999, "SORDAT": "20260413", "SORIND": "US,US,reprt,L-95-2026" }, "geometry": { "type": "LineString", "coordinates": [ [ -71.0590556, 41.1280972 ], [ -71.0681398, 41.1323625 ], [ -71.0758894, 41.1422077 ], [ -71.0764136, 41.146113 ], [ -71.0700601, 41.1521085 ], [ -71.0613275, 41.1537807 ], [ -71.0594961, 41.1557268 ], [ -71.0602799, 41.1612458 ] ] } },
{ "type": "Feature", "properties": { "RCID": 1170, "PRIM": 2, "GRUP": 2, "OBJL": 22, "RVER": 1, "AGEN": 550, "FIDN": -891154397, "FIDS": 48674, "LNAM": "0226CAE21023BE22", "CATCBL": 1, "SCAMIN": 999999, "SORDAT": "20260413", "SORIND": "US,US,reprt,L-95-2026" }, "geometry": { "type": "LineString", "coordinates": [ [ -70.9441694, 41.0970553 ], [ -70.9448074, 41.110367 ], [ -70.9439992, 41.1145371 ], [ -70.9258034, 41.1289389 ], [ -70.9220054, 41.1294976 ], [ -70.9174898, 41.1273473 ], [ -70.9049948, 41.1305649 ], [ -70.8828069, 41.1309295 ], [ -70.8463161, 41.1316746 ], [ -70.8397785, 41.1314431 ] ] } },
{ "type": "Feature", "properties": { "RCID": 1171, "PRIM": 2, "GRUP": 2, "OBJL": 22, "RVER": 1, "AGEN": 550, "FIDN": -1456731602, "FIDS": 48674, "LNAM": "0226A92C0A2EBE22", "CATCBL": 1, "SCAMIN": 999999, "SORDAT": "20260413", "SORIND": "US,US,reprt,L-95-2026" }, "geometry": { "type": "LineString", "coordinates": [ [ -71.1498377, 41.1930323 ], [ -71.1528069, 41.1923504 ], [ -71.1581046, 41.1928833 ], [ -71.2157253, 41.1917295 ] ] } },
{ "type": "Feature", "properties": { "RCID": 1172, "PRIM": 2, "GRUP": 2, "OBJL": 22, "RVER": 1, "AGEN": 550, "FIDN": -1714648420, "FIDS": 48674, "LNAM": "022699CC8A9CBE22", "CATCBL": 1, "SCAMIN": 999999, "SORDAT": "20260413", "SORIND": "US,US,reprt,L-95-2026" }, "geometry": { "type": "LineString", "coordinates": [ [ -71.4117216, 41.4398398 ], [ -71.4027235, 41.4188181 ], [ -71.3960808, 41.4140502 ], [ -71.3696241, 41.4144946 ], [ -71.366515, 41.4140343 ], [ -71.3612764, 41.4108356 ], [ -71.3512028, 41.3902978 ], [ -71.3416328, 41.382039 ], [ -71.3315242, 41.3761646 ], [ -71.3229238, 41.3750644 ], [ -71.2818397, 41.377005 ], [ -71.2601315, 41.3799953 ], [ -71.2484252, 41.3804866 ], [ -71.2390917, 41.3761598 ], [ -71.2383069, 41.3736229 ], [ -71.2343989, 41.2897502 ], [ -71.2332336, 41.2786696 ], [ -71.2349542, 41.2638876 ], [ -71.234252, 41.2383813 ], [ -71.231368, 41.2288927 ], [ -71.2269987, 41.2226286 ], [ -71.2227594, 41.2188886 ], [ -71.2123015, 41.2165257 ], [ -71.2001588, 41.2168221 ], [ -71.1411508, 41.2197139 ], [ -71.1354788, 41.2176689 ], [ -71.1303923, 41.2119221 ], [ -71.1283666, 41.2101211 ] ] } },
{ "type": "Feature", "properties": { "RCID": 1173, "PRIM": 2, "GRUP": 2, "OBJL": 22, "RVER": 1, "AGEN": 550, "FIDN": 1074946591, "FIDS": 48674, "LNAM": "02264012621FBE22", "CATCBL": 1, "SCAMIN": 999999, "SORDAT": "20260413", "SORIND": "US,US,reprt,L-95-2026" }, "geometry": { "type": "LineString", "coordinates": [ [ -71.1283666, 41.2101211 ], [ -71.126125, 41.2113155 ], [ -71.1245371, 41.2115621 ], [ -71.1121298, 41.2112885 ], [ -71.1093221, 41.2106004 ], [ -71.1062511, 41.2104717 ], [ -71.0939842, 41.2109917 ], [ -71.0892707, 41.2107922 ], [ -71.0622954, 41.2112616 ] ] } },
{ "type": "Feature", "properties": { "RCID": 1174, "PRIM": 2, "GRUP": 2, "OBJL": 22, "RVER": 1, "AGEN": 550, "FIDN": 1805931858, "FIDS": 48674, "LNAM": "02266BA45552BE22", "CATCBL": 1, "SCAMIN": 999999, "SORDAT": "20260413", "SORIND": "US,US,reprt,L-95-2026" }, "geometry": { "type": "LineString", "coordinates": [ [ -71.0590556, 41.1280972 ], [ -71.0566899, 41.1298375 ], [ -71.0471075, 41.13319 ], [ -71.0376604, 41.1449785 ], [ -71.035753, 41.1431974 ], [ -71.0354164, 41.1424041 ], [ -71.0370601, 41.1275261 ], [ -71.0376574, 41.109721 ], [ -71.0375983, 41.1057497 ], [ -71.036873, 41.1034833 ], [ -71.0372692, 41.1004921 ], [ -71.0370386, 41.0981401 ], [ -71.0353028, 41.0950563 ] ] } },
{ "type": "Feature", "properties": { "RCID": 1175, "PRIM": 2, "GRUP": 2, "OBJL": 22, "RVER": 1, "AGEN": 550, "FIDN": 443374224, "FIDS": 48674, "LNAM": "02261A6D5A90BE22", "CATCBL": 1, "SCAMIN": 999999, "SORDAT": "20260413", "SORIND": "US,US,reprt,L-95-2026" }, "geometry": { "type": "LineString", "coordinates": [ [ -71.0824846, 41.1606392 ], [ -71.0602799, 41.1612458 ], [ -71.0382882, 41.161589 ], [ -71.0239122, 41.1621301 ], [ -71.0159036, 41.1622751 ], [ -70.999767, 41.1615196 ], [ -70.9942317, 41.1624708 ], [ -70.9838953, 41.1625747 ], [ -70.9727913, 41.1626248 ] ] } },
{ "type": "Feature", "properties": { "RCID": 1176, "PRIM": 2, "GRUP": 2, "OBJL": 22, "RVER": 1, "AGEN": 550, "FIDN": -712305251, "FIDS": 48674, "LNAM": "0226D58B159DBE22", "CATCBL": 1, "SCAMIN": 999999, "SORDAT": "20260413", "SORIND": "US,US,reprt,L-95-2026" }, "geometry": { "type": "LineString", "coordinates": [ [ -71.1486526, 41.1596386 ], [ -71.1912922, 41.158808 ] ] } },
{ "type": "Feature", "properties": { "RCID": 1177, "PRIM": 2, "GRUP": 2, "OBJL": 22, "RVER": 1, "AGEN": 550, "FIDN": 999857316, "FIDS": 48674, "LNAM": "02263B989CA4BE22", "CATCBL": 1, "SCAMIN": 999999, "SORDAT": "20260413", "SORIND": "US,US,reprt,L-95-2026" }, "geometry": { "type": "LineString", "coordinates": [ [ -71.1283666, 41.2101211 ], [ -71.1285951, 41.2124089 ], [ -71.1282058, 41.2218017 ], [ -71.1286434, 41.2266902 ] ] } },
{ "type": "Feature", "properties": { "RCID": 1178, "PRIM": 2, "GRUP": 2, "OBJL": 22, "RVER": 1, "AGEN": 550, "FIDN": 1619720616, "FIDS": 48674, "LNAM": "0226608AF9A8BE22", "CATCBL": 1, "SCAMIN": 999999, "SORDAT": "20260413", "SORIND": "US,US,reprt,L-95-2026" }, "geometry": { "type": "LineString", "coordinates": [ [ -71.1707162, 41.1593765 ], [ -71.1712585, 41.1757997 ], [ -71.1652274, 41.1773393 ], [ -71.1492649, 41.178343 ], [ -71.1449828, 41.180407 ], [ -71.1333058, 41.1899346 ], [ -71.1259927, 41.194869 ] ] } },
{ "type": "Feature", "properties": { "RCID": 1179, "PRIM": 2, "GRUP": 2, "OBJL": 22, "RVER": 1, "AGEN": 550, "FIDN": -139128648, "FIDS": 48674, "LNAM": "0226F7B510B8BE22", "CATCBL": 1, "SCAMIN": 999999, "SORDAT": "20260413", "SORIND": "US,US,reprt,L-95-2026" }, "geometry": { "type": "LineString", "coordinates": [ [ -71.0590542, 41.1280967 ], [ -71.0538546, 41.1281465 ], [ -71.0521065, 41.1216399 ], [ -71.0576421, 41.1105688 ], [ -71.0582247, 41.1049362 ], [ -71.0482024, 41.0916413 ], [ -71.0414239, 41.089841 ], [ -71.0294485, 41.0883782 ], [ -71.0199131, 41.0886816 ], [ -71.0079493, 41.0928113 ], [ -70.9966, 41.0962229 ], [ -70.9922925, 41.0966882 ], [ -70.9819358, 41.0938965 ], [ -70.9807488, 41.0956986 ], [ -70.9930925, 41.1064934 ], [ -70.9927876, 41.1117479 ] ] } }
]
}
