{
"type": "FeatureCollection",
"name": "CONZNE",
"crs": { "type": "name", "properties": { "name": "urn:ogc:def:crs:OGC:1.3:CRS84" } },
"features": [
{ "type": "Feature", "properties": { "RCID": 1037, "PRIM": 3, "GRUP": 2, "OBJL": 31, "RVER": 1, "AGEN": 550, "FIDN": 1724527771, "FIDS": 20317, "LNAM": "022666CA349B4F5D", "NATION": "US", "INFORM": "For more information about maritime zones, please refer to the Coast Pilot, Chapter 1.", "SCAMIN": 999999, "SORDAT": "20240119", "SORIND": "US,US,reprt,L-30-2024" }, "geometry": { "type": "Polygon", "coordinates": [ [ [ -70.8, 41.041225 ], [ -70.8, 41.0488713 ], [ -70.8053274, 41.0488011 ], [ -70.8145528, 41.0489227 ], [ -70.8199519, 41.0491408 ], [ -70.8254968, 41.0493649 ], [ -70.8341416, 41.0498456 ], [ -70.8387341, 41.0501794 ], [ -70.8462048, 41.0508532 ], [ -70.8552424, 41.0518257 ], [ -70.8597934, 41.0524005 ], [ -70.8613017, 41.0526217 ], [ -70.8688522, 41.0537293 ], [ -70.8842456, 41.0562643 ], [ -70.8895705, 41.0572359 ], [ -70.8951012, 41.0583605 ], [ -70.8977508, 41.0588993 ], [ -70.9065783, 41.0609356 ], [ -70.9153071, 41.0632032 ], [ -70.9239268, 41.0656993 ], [ -70.9324266, 41.068421 ], [ -70.9407966, 41.0713647 ], [ -70.942323, 41.0719513 ], [ -70.9490264, 41.0745273 ], [ -70.9571062, 41.0779047 ], [ -70.9610869, 41.0796727 ], [ -70.9689235, 41.0833647 ], [ -70.9765856, 41.0872608 ], [ -70.9840645, 41.0913564 ], [ -70.991351, 41.0956464 ], [ -70.9984358, 41.1001259 ], [ -71.0053282, 41.1048006 ], [ -71.0119847, 41.1096421 ], [ -71.0184149, 41.1146561 ], [ -71.0309404, 41.1251028 ], [ -71.0371322, 41.1306594 ], [ -71.0428374, 41.1361533 ], [ -71.0498906, 41.1434713 ], [ -71.0551543, 41.1493406 ], [ -71.0600718, 41.1552546 ], [ -71.0624275, 41.1582592 ], [ -71.06693, 41.1643593 ], [ -71.0711487, 41.1705743 ], [ -71.07315, 41.1737226 ], [ -71.0750785, 41.1768965 ], [ -71.0787149, 41.1833184 ], [ -71.0820528, 41.1898323 ], [ -71.0850886, 41.1964301 ], [ -71.0878182, 41.2031037 ], [ -71.0890672, 41.2064666 ], [ -71.0895408, 41.2078833 ], [ -71.0913313, 41.2132388 ], [ -71.0923457, 41.2166464 ], [ -71.0937858, 41.2220878 ], [ -71.1017751, 41.2254206 ], [ -71.1057647, 41.2271886 ], [ -71.1097129, 41.2290086 ], [ -71.1174809, 41.2328031 ], [ -71.1250697, 41.2367994 ], [ -71.13247, 41.2409928 ], [ -71.1396731, 41.245378 ], [ -71.1431978, 41.2476409 ], [ -71.147791, 41.250722 ], [ -71.1497422, 41.2504728 ], [ -71.2851475, 41.2064174 ], [ -71.2841236, 41.2025943 ], [ -71.2824113, 41.1954566 ], [ -71.2809922, 41.1885546 ], [ -71.2801138, 41.1830111 ], [ -71.2798932, 41.1816192 ], [ -71.2787916, 41.1729897 ], [ -71.2784428, 41.1695071 ], [ -71.2779872, 41.1625308 ], [ -71.277899, 41.1579069 ], [ -71.277854, 41.1555466 ], [ -71.2779084, 41.1520542 ], [ -71.2782589, 41.1450743 ], [ -71.2789313, 41.1381079 ], [ -71.2790571, 41.1371505 ], [ -71.279354, 41.1348916 ], [ -71.2793881, 41.1346324 ], [ -71.2799248, 41.1311635 ], [ -71.281238, 41.1242495 ], [ -71.2828692, 41.1173743 ], [ -71.2848163, 41.1105463 ], [ -71.2859075, 41.1071526 ], [ -71.2883238, 41.100411 ], [ -71.2910489, 41.0937372 ], [ -71.2916379, 41.0924182 ], [ -71.2925265, 41.0904281 ], [ -71.2957088, 41.0838713 ], [ -71.2976351, 41.0802927 ], [ -71.2991909, 41.0774023 ], [ -71.3010431, 41.0742033 ], [ -71.3049667, 41.0678808 ], [ -71.3050029, 41.0678263 ], [ -71.3070371, 41.0647593 ], [ -71.3113916, 41.0586007 ], [ -71.3160262, 41.0525608 ], [ -71.3184471, 41.0495875 ], [ -71.320936, 41.0466465 ], [ -71.3257924, 41.041225 ], [ -71.3261143, 41.0408656 ], [ -71.3315549, 41.0352247 ], [ -71.3315929, 41.0351881 ], [ -71.3372516, 41.0297306 ], [ -71.3401936, 41.0270408 ], [ -71.3462605, 41.0217796 ], [ -71.3525653, 41.0166817 ], [ -71.3591001, 41.0117529 ], [ -71.3624513, 41.0093541 ], [ -71.3656829, 41.0071589 ], [ -71.3693163, 41.0046907 ], [ -71.373644, 41.0019633 ], [ -71.3805904, 40.9975856 ], [ -71.3878659, 40.9932954 ], [ -71.3914275, 40.991342 ], [ -71.3953337, 40.9891996 ], [ -71.3991369, 40.9872263 ], [ -71.4100853, 40.9818778 ], [ -71.4140188, 40.9800576 ], [ -71.4220079, 40.9765742 ], [ -71.4308685, 40.973028 ], [ -71.4349492, 40.9714911 ], [ -71.4349953, 40.9714737 ], [ -71.4433527, 40.9685298 ], [ -71.4518397, 40.9658081 ], [ -71.4604462, 40.9633119 ], [ -71.466183, 40.9618193 ], [ -71.4691618, 40.9610442 ], [ -71.4735573, 40.9599969 ], [ -71.4824168, 40.9580772 ], [ -71.4917078, 40.9563315 ], [ -71.5023374, 40.9541498 ], [ -71.5113161, 40.9525831 ], [ -71.5211779, 40.9511422 ], [ -71.5257221, 40.9505674 ], [ -71.5348459, 40.9495983 ], [ -71.5442232, 40.9488565 ], [ -71.5481015, 40.9485498 ], [ -71.5520021, 40.9482412 ], [ -71.5603498, 40.9473641 ], [ -71.5695124, 40.946636 ], [ -71.5741047, 40.9463628 ], [ -71.5815919, 40.9460478 ], [ -71.5928302, 40.9458669 ], [ -71.6060576, 40.946015 ], [ -71.6152575, 40.9463794 ], [ -71.6198498, 40.9466526 ], [ -71.6244352, 40.9469863 ], [ -71.6320599, 40.947694 ], [ -71.6335795, 40.947835 ], [ -71.6381358, 40.9483498 ], [ -71.6450912, 40.9492624 ], [ -71.6471091, 40.947187 ], [ -71.6486892, 40.9455619 ], [ -71.6536496, 40.9407495 ], [ -71.6593068, 40.9350813 ], [ -71.6655832, 40.929114 ], [ -71.6686614, 40.9261873 ], [ -71.6715986, 40.9234973 ], [ -71.6776561, 40.9182359 ], [ -71.6845814, 40.9126158 ], [ -71.6911061, 40.9076872 ], [ -71.694452, 40.9052881 ], [ -71.6956757, 40.9044555 ], [ -71.7013063, 40.9006246 ], [ -71.7089272, 40.895797 ], [ -71.7125347, 40.8936279 ], [ -71.7198961, 40.8894341 ], [ -71.7274449, 40.8854375 ], [ -71.7356685, 40.8814046 ], [ -71.7420415, 40.8785085 ], [ -71.7435647, 40.8778163 ], [ -71.747573, 40.8761009 ], [ -71.7557045, 40.8728303 ], [ -71.7598252, 40.871276 ], [ -71.7694646, 40.8678115 ], [ -71.778639, 40.863942 ], [ -71.7868427, 40.8607793 ], [ -71.7917985, 40.8589925 ], [ -71.8002079, 40.8561592 ], [ -71.8040915, 40.8549417 ], [ -71.8044598, 40.8548263 ], [ -71.8087416, 40.8535498 ], [ -71.8173895, 40.8511675 ], [ -71.8226059, 40.8498588 ], [ -71.8267864, 40.84881 ], [ -71.8355857, 40.8467735 ], [ -71.8444728, 40.8449708 ], [ -71.8529744, 40.8434818 ], [ -71.8610177, 40.8404652 ], [ -71.8643745, 40.8392063 ], [ -71.8643748, 40.8392062 ], [ -71.8734142, 40.8358161 ], [ -71.8794447, 40.8334372 ], [ -71.8927374, 40.8283688 ], [ -71.9004637, 40.825508 ], [ -71.9004642, 40.8255078 ], [ -71.9004841, 40.8255005 ], [ -71.9014833, 40.8251066 ], [ -71.9072585, 40.8228297 ], [ -71.9155284, 40.8197759 ], [ -71.9256155, 40.8163163 ], [ -71.934725, 40.813019 ], [ -71.9389105, 40.8115747 ], [ -71.9505984, 40.8078444 ], [ -71.9584746, 40.8052044 ], [ -71.9653417, 40.802687 ], [ -71.9696648, 40.8011844 ], [ -71.9696654, 40.8011842 ], [ -71.969666, 40.801184 ], [ -71.9730725, 40.8 ], [ -71.9730557, 40.8 ], [ -71.8221249, 40.8 ], [ -71.767163, 40.8 ], [ -71.7326083, 40.8 ], [ -71.5993927, 40.8 ], [ -71.587095, 40.8 ], [ -71.5809726, 40.8 ], [ -71.5720675, 40.8 ], [ -71.5501019, 40.8 ], [ -71.4758291, 40.8 ], [ -71.466183, 40.8 ], [ -71.3963173, 40.8 ], [ -71.3555565, 40.8 ], [ -71.2979139, 40.8 ], [ -71.2946681, 40.8013301 ], [ -71.2866537, 40.8047519 ], [ -71.278718, 40.808279 ], [ -71.2708639, 40.8119101 ], [ -71.2640624, 40.8151708 ], [ -71.252196, 40.8210343 ], [ -71.2484526, 40.8229745 ], [ -71.2445998, 40.8249713 ], [ -71.2370945, 40.8290079 ], [ -71.229682, 40.8331429 ], [ -71.2223645, 40.8373751 ], [ -71.2151448, 40.8417031 ], [ -71.2038182, 40.8487513 ], [ -71.1967994, 40.8532672 ], [ -71.1898845, 40.8578748 ], [ -71.1830757, 40.8625731 ], [ -71.1810415, 40.8640265 ], [ -71.1763749, 40.8673606 ], [ -71.1697842, 40.8722357 ], [ -71.1657742, 40.8753065 ], [ -71.1633056, 40.877197 ], [ -71.1569412, 40.8822429 ], [ -71.1506927, 40.887372 ], [ -71.1445621, 40.8925829 ], [ -71.1385515, 40.8978738 ], [ -71.1374867, 40.8988445 ], [ -71.1326624, 40.9032431 ], [ -71.1268968, 40.9086892 ], [ -71.1212564, 40.9142108 ], [ -71.1175912, 40.9179301 ], [ -71.1122375, 40.9152614 ], [ -71.1044553, 40.9115273 ], [ -71.0965892, 40.9078962 ], [ -71.0886417, 40.9043693 ], [ -71.0806151, 40.9009477 ], [ -71.0725119, 40.8976322 ], [ -71.0705266, 40.8968533 ], [ -71.0643345, 40.894424 ], [ -71.0560851, 40.891324 ], [ -71.0477666, 40.8883331 ], [ -71.0393814, 40.8854522 ], [ -71.0309317, 40.8826823 ], [ -71.0224204, 40.880024 ], [ -71.0138499, 40.8774781 ], [ -71.0052229, 40.8750456 ], [ -70.9965417, 40.8727271 ], [ -70.9878093, 40.8705233 ], [ -70.9790282, 40.8684349 ], [ -70.9702007, 40.8664624 ], [ -70.9613298, 40.8646065 ], [ -70.9526095, 40.8629055 ], [ -70.9523157, 40.8628482 ], [ -70.9433659, 40.861227 ], [ -70.9234909, 40.8579426 ], [ -70.9144729, 40.8565581 ], [ -70.905425, 40.8552927 ], [ -70.8963495, 40.8541467 ], [ -70.8872495, 40.8531204 ], [ -70.8753409, 40.8519311 ], [ -70.8661999, 40.851145 ], [ -70.8570421, 40.8504796 ], [ -70.8478707, 40.8499347 ], [ -70.8384425, 40.8494877 ], [ -70.8329132, 40.8492255 ], [ -70.8273376, 40.8490418 ], [ -70.8237226, 40.8489227 ], [ -70.8145263, 40.8487409 ], [ -70.8053274, 40.8486804 ], [ -70.8, 40.8487154 ], [ -70.8, 41.041225 ] ] ] } }
]
}
