{
"type": "FeatureCollection",
"name": "DAYMAR",
"crs": { "type": "name", "properties": { "name": "urn:ogc:def:crs:OGC:1.3:CRS84" } },
"features": [
{ "type": "Feature", "properties": { "RCID": 25, "PRIM": 1, "GRUP": 2, "OBJL": 39, "RVER": 1, "AGEN": 550, "FIDN": 34463095, "FIDS": 50, "LNAM": "0226020DDD770032", "COLOUR": [ "3", "3" ], "COLPAT": [ "6" ], "TOPSHP": 24, "SCAMIN": 999999, "SORDAT": "201308", "SORIND": "US,US,graph,Chart 13217" }, "geometry": { "type": "Point", "coordinates": [ -71.5931767, 41.1993014 ] } },
{ "type": "Feature", "properties": { "RCID": 26, "PRIM": 1, "GRUP": 2, "OBJL": 39, "RVER": 1, "AGEN": 550, "FIDN": 34463068, "FIDS": 50, "LNAM": "0226020DDD5C0032", "COLOUR": [ "4", "4" ], "COLPAT": [ "6" ], "TOPSHP": 19, "SCAMIN": 999999, "SORDAT": "20150310", "SORIND": "US,US,reprt,1stCGD,LNM 10/15" }, "geometry": { "type": "Point", "coordinates": [ -71.5540383, 41.1773589 ] } }
]
}
