{
"type": "FeatureCollection",
"name": "DMPGRD",
"crs": { "type": "name", "properties": { "name": "urn:ogc:def:crs:OGC:1.3:CRS84" } },
"features": [
{ "type": "Feature", "properties": { "RCID": 1039, "PRIM": 3, "GRUP": 2, "OBJL": 48, "RVER": 1, "AGEN": 550, "FIDN": -2138165559, "FIDS": 48294, "LNAM": "0226808E2EC9BCA6", "CATDPG": [ "4" ], "INFORM": "Unexploded bombs may exist in this area", "SCAMIN": 699999, "SORDAT": "200303", "SORIND": "US,US,graph,Chart 12300" }, "geometry": { "type": "Polygon", "coordinates": [ [ [ -70.8495205, 40.8 ], [ -70.8, 40.8 ], [ -70.8, 40.816397 ], [ -70.8, 40.8208336 ], [ -70.8, 40.8336402 ], [ -70.8250375, 40.8336445 ], [ -70.8551602, 40.8336496 ], [ -70.9350236, 40.8336633 ], [ -70.997186, 40.833674 ], [ -70.9970323, 40.8 ], [ -70.9246177, 40.8 ], [ -70.904912, 40.8 ], [ -70.8633834, 40.8 ], [ -70.8580041, 40.8 ], [ -70.8495205, 40.8 ] ] ] } },
{ "type": "Feature", "properties": { "RCID": 1040, "PRIM": 3, "GRUP": 2, "OBJL": 48, "RVER": 1, "AGEN": 550, "FIDN": -1759240909, "FIDS": 48294, "LNAM": "022697241D33BCA6", "CATDPG": [ "4" ], "SCAMIN": 699999, "SORDAT": "197106", "SORIND": "US,US,graph,Chart 12300" }, "geometry": { "type": "Polygon", "coordinates": [ [ [ -71.068487, 41.166605 ], [ -71.0992938, 41.1666266 ], [ -71.0993593, 41.1791662 ], [ -71.0995471, 41.2005404 ], [ -71.09474, 41.2005452 ], [ -71.0868003, 41.2005361 ], [ -71.057814, 41.200524 ], [ -71.0577903, 41.1667036 ], [ -71.068487, 41.166605 ] ] ] } },
{ "type": "Feature", "properties": { "RCID": 1041, "PRIM": 3, "GRUP": 2, "OBJL": 48, "RVER": 1, "AGEN": 550, "FIDN": -635437142, "FIDS": 48294, "LNAM": "0226DA1FFFAABCA6", "CATDPG": [ "4" ], "INFORM": "Danger, position approximate", "SCAMIN": 699999, "SORDAT": "195212", "SORIND": "US,US,graph,Chart 12300" }, "geometry": { "type": "Polygon", "coordinates": [ [ [ -71.3117303, 41.2324751 ], [ -71.3108572, 41.2298986 ], [ -71.3126539, 41.2249573 ], [ -71.3149638, 41.2231164 ], [ -71.3183005, 41.2213723 ], [ -71.3220222, 41.2209847 ], [ -71.3258722, 41.2212754 ], [ -71.3283106, 41.2218567 ], [ -71.3306205, 41.2232133 ], [ -71.3325455, 41.2249573 ], [ -71.3342139, 41.227864 ], [ -71.3344705, 41.2301893 ], [ -71.3342139, 41.2321269 ], [ -71.3337006, 41.2332894 ], [ -71.3311339, 41.2363894 ], [ -71.3270272, 41.2383269 ], [ -71.3216372, 41.2388113 ], [ -71.3177872, 41.2378426 ], [ -71.3157339, 41.2368738 ], [ -71.3122689, 41.2340645 ], [ -71.3117303, 41.2324751 ] ] ] } },
{ "type": "Feature", "properties": { "RCID": 1042, "PRIM": 3, "GRUP": 2, "OBJL": 48, "RVER": 1, "AGEN": 550, "FIDN": 1068823158, "FIDS": 48294, "LNAM": "02263FB4F276BCA6", "CATDPG": [ "5" ], "SCAMIN": 699999, "SORDAT": "200303", "SORIND": "US,US,graph,Chart 12300" }, "geometry": { "type": "Polygon", "coordinates": [ [ [ -71.3084679, 41.3965343 ], [ -71.3039643, 41.40299 ], [ -71.2840345, 41.3952636 ], [ -71.294217, 41.3803318 ], [ -71.3140598, 41.3885185 ], [ -71.3134131, 41.3894456 ], [ -71.3084679, 41.3965343 ] ] ] } },
{ "type": "Feature", "properties": { "RCID": 1043, "PRIM": 3, "GRUP": 2, "OBJL": 48, "RVER": 1, "AGEN": 550, "FIDN": 1926974025, "FIDS": 48294, "LNAM": "022672DB4A49BCA6", "CATDPG": [ "4" ], "INFORM": "Danger", "SCAMIN": 699999, "SORDAT": "194505", "SORIND": "US,US,graph,Chart 12300" }, "geometry": { "type": "Polygon", "coordinates": [ [ [ -71.4079839, 41.2183438 ], [ -71.4111833, 41.2175134 ], [ -71.4143879, 41.2173467 ], [ -71.417703, 41.2172633 ], [ -71.4209662, 41.2169047 ], [ -71.4213444, 41.2169722 ], [ -71.425694, 41.2177489 ], [ -71.4286776, 41.218916 ], [ -71.4314196, 41.2206891 ], [ -71.4318161, 41.2209455 ], [ -71.4325453, 41.221417 ], [ -71.4350868, 41.2240013 ], [ -71.4370759, 41.2270022 ], [ -71.4379884, 41.2287611 ], [ -71.4380705, 41.2289194 ], [ -71.4383519, 41.2302285 ], [ -71.4387335, 41.2320035 ], [ -71.4389544, 41.2338372 ], [ -71.4387335, 41.2361709 ], [ -71.4387104, 41.2362581 ], [ -71.4382914, 41.2378378 ], [ -71.4374711, 41.2402438 ], [ -71.4346448, 41.2439216 ], [ -71.4317005, 41.2464411 ], [ -71.4292302, 41.2478383 ], [ -71.4246995, 41.2496715 ], [ -71.4210529, 41.2507548 ], [ -71.4178483, 41.2510047 ], [ -71.4150857, 41.2510047 ], [ -71.409027, 41.2502473 ], [ -71.4056929, 41.2492548 ], [ -71.4030408, 41.2480049 ], [ -71.3997257, 41.2460049 ], [ -71.3971257, 41.2428699 ], [ -71.3954478, 41.2405553 ], [ -71.394117, 41.2376728 ], [ -71.393979, 41.2360973 ], [ -71.3936541, 41.2323879 ], [ -71.3946864, 41.2287611 ], [ -71.3961861, 41.2262701 ], [ -71.3975858, 41.224232 ], [ -71.4002853, 41.2220429 ], [ -71.4039846, 41.2197027 ], [ -71.4079839, 41.2183438 ] ] ] } },
{ "type": "Feature", "properties": { "RCID": 1044, "PRIM": 3, "GRUP": 2, "OBJL": 48, "RVER": 1, "AGEN": 550, "FIDN": 922369325, "FIDS": 48294, "LNAM": "022636FA3D2DBCA6", "CATDPG": [ "5" ], "OBJNAM": "Rhode Island Sound Disposal Site (RISDS)", "SCAMIN": 699999, "TXTDSC": "US064AAB.TXT", "SORDAT": "20041216", "SORIND": "US,US,reprt,L-497/17" }, "geometry": { "type": "Polygon", "coordinates": [ [ [ -71.3913889, 41.2391667 ], [ -71.3691667, 41.2391667 ], [ -71.3691667, 41.2225 ], [ -71.3913889, 41.2225 ], [ -71.3913889, 41.2391667 ] ] ] } },
{ "type": "Feature", "properties": { "RCID": 1058, "PRIM": 1, "GRUP": 2, "OBJL": 48, "RVER": 1, "AGEN": 550, "FIDN": -1145068526, "FIDS": 48294, "LNAM": "0226BBBFA412BCA6", "CATDPG": [ "4" ], "INFORM": "Unexploded torpedo, Reported in Nov 1965", "SCAMIN": 699999, "SORDAT": "196511", "SORIND": "US,US,graph,Chart 12300" }, "geometry": { "type": "Point", "coordinates": [ -71.6765655, 40.8374814 ] } },
{ "type": "Feature", "properties": { "RCID": 1059, "PRIM": 1, "GRUP": 2, "OBJL": 48, "RVER": 1, "AGEN": 550, "FIDN": 2053093001, "FIDS": 48294, "LNAM": "02267A5FB689BCA6", "CATDPG": [ "4" ], "INFORM": "Unexploded ordnance (rep 2022)", "SCAMIN": 699999, "SORDAT": "20220720", "SORIND": "US,US,reprt,1stCGD,LNM 29/22" }, "geometry": { "type": "Point", "coordinates": [ -71.39545, 41.4146167 ] } },
{ "type": "Feature", "properties": { "RCID": 1060, "PRIM": 1, "GRUP": 2, "OBJL": 48, "RVER": 1, "AGEN": 550, "FIDN": 1324094247, "FIDS": 48294, "LNAM": "02264EEC1327BCA6", "CATDPG": [ "4" ], "INFORM": "Unexploded torpedo, Reported in 1985", "SCAMIN": 699999, "SORDAT": "1985", "SORIND": "US,US,graph,Chart 12300" }, "geometry": { "type": "Point", "coordinates": [ -71.3880256, 40.9906041 ] } },
{ "type": "Feature", "properties": { "RCID": 1061, "PRIM": 1, "GRUP": 2, "OBJL": 48, "RVER": 1, "AGEN": 550, "FIDN": 895710694, "FIDS": 48294, "LNAM": "0226356375E6BCA6", "CATDPG": [ "4" ], "INFORM": "Position approximate", "SCAMIN": 699999, "SORDAT": "196011", "SORIND": "US,US,graph,Chart 12300" }, "geometry": { "type": "Point", "coordinates": [ -71.1241645, 40.8917241 ] } },
{ "type": "Feature", "properties": { "RCID": 1062, "PRIM": 1, "GRUP": 2, "OBJL": 48, "RVER": 1, "AGEN": 550, "FIDN": -1050797437, "FIDS": 48294, "LNAM": "0226C15E1A83BCA6", "CATDPG": [ "4" ], "INFORM": "Unexploded bomb, Position approximate", "SCAMIN": 699999, "SORDAT": "196808", "SORIND": "US,US,graph,Chart 12300" }, "geometry": { "type": "Point", "coordinates": [ -70.9641179, 40.9078368 ] } },
{ "type": "Feature", "properties": { "RCID": 1063, "PRIM": 1, "GRUP": 2, "OBJL": 48, "RVER": 1, "AGEN": 550, "FIDN": 943918364, "FIDS": 48294, "LNAM": "022638430D1CBCA6", "CATDPG": [ "4" ], "INFORM": "Position approximate", "SCAMIN": 699999, "SORDAT": "200303", "SORIND": "US,US,graph,Chart 12300" }, "geometry": { "type": "Point", "coordinates": [ -71.6894607, 40.9630543 ] } },
{ "type": "Feature", "properties": { "RCID": 1064, "PRIM": 1, "GRUP": 2, "OBJL": 48, "RVER": 1, "AGEN": 550, "FIDN": 1287575397, "FIDS": 48294, "LNAM": "02264CBED765BCA6", "CATDPG": [ "4" ], "INFORM": "Unexploded ordnance (rep 2022)", "SCAMIN": 699999, "SORDAT": "20220907", "SORIND": "US,US,reprt,1stCGD,LNM 36/22" }, "geometry": { "type": "Point", "coordinates": [ -71.1870928, 40.9756061 ] } },
{ "type": "Feature", "properties": { "RCID": 1065, "PRIM": 1, "GRUP": 2, "OBJL": 48, "RVER": 1, "AGEN": 550, "FIDN": 816360504, "FIDS": 48294, "LNAM": "022630A8AC38BCA6", "CATDPG": [ "4" ], "INFORM": "Unexploded bombs", "SCAMIN": 699999, "SORDAT": "195812", "SORIND": "US,US,graph,Chart 12300" }, "geometry": { "type": "Point", "coordinates": [ -71.3024231, 41.1191037 ] } },
{ "type": "Feature", "properties": { "RCID": 1066, "PRIM": 1, "GRUP": 2, "OBJL": 48, "RVER": 1, "AGEN": 550, "FIDN": 2107946347, "FIDS": 48294, "LNAM": "02267DA4B56BBCA6", "CATDPG": [ "4" ], "INFORM": "Unexploded ordnance (rep 2022)", "SCAMIN": 699999, "SORDAT": "20220706", "SORIND": "US,US,reprt,1stCGD,LNM 27/22" }, "geometry": { "type": "Point", "coordinates": [ -71.3828333, 41.41385 ] } },
{ "type": "Feature", "properties": { "RCID": 1067, "PRIM": 1, "GRUP": 2, "OBJL": 48, "RVER": 1, "AGEN": 550, "FIDN": 192794650, "FIDS": 48294, "LNAM": "02260B7DD01ABCA6", "CATDPG": [ "4" ], "SCAMIN": 699999, "SORDAT": "19471031", "SORIND": "US,US,graph,Chart 12300" }, "geometry": { "type": "Point", "coordinates": [ -71.2084516, 41.2378784 ] } },
{ "type": "Feature", "properties": { "RCID": 1068, "PRIM": 1, "GRUP": 2, "OBJL": 48, "RVER": 1, "AGEN": 550, "FIDN": 179997084, "FIDS": 48294, "LNAM": "02260ABA899CBCA6", "CATDPG": [ "4" ], "INFORM": "Unexploded ordnance (rep 2022)", "SCAMIN": 699999, "SORDAT": "20220706", "SORIND": "US,US,reprt,1stCGD,LNM 27/22" }, "geometry": { "type": "Point", "coordinates": [ -71.4084667, 41.4333833 ] } },
{ "type": "Feature", "properties": { "RCID": 1069, "PRIM": 1, "GRUP": 2, "OBJL": 48, "RVER": 1, "AGEN": 550, "FIDN": -1995537445, "FIDS": 48294, "LNAM": "0226890E83DBBCA6", "CATDPG": [ "4" ], "INFORM": "Unexploded ordnance (rep 2024)", "SCAMIN": 699999, "SORDAT": "20241105", "SORIND": "US,US,reprt,1stCGD,LNM 45/24" }, "geometry": { "type": "Point", "coordinates": [ -71.4022833, 41.4429 ] } },
{ "type": "Feature", "properties": { "RCID": 1070, "PRIM": 1, "GRUP": 2, "OBJL": 48, "RVER": 1, "AGEN": 550, "FIDN": 950426395, "FIDS": 48294, "LNAM": "022638A65B1BBCA6", "CATDPG": [ "4" ], "INFORM": "Unexploded ordnance (rep 2022)", "SCAMIN": 699999, "SORDAT": "20220720", "SORIND": "US,US,reprt,1stCGD,LNM 29/22" }, "geometry": { "type": "Point", "coordinates": [ -71.3595667, 41.41215 ] } },
{ "type": "Feature", "properties": { "RCID": 1071, "PRIM": 1, "GRUP": 2, "OBJL": 48, "RVER": 1, "AGEN": 550, "FIDN": 1981169175, "FIDS": 48294, "LNAM": "022676163E17BCA6", "CATDPG": [ "4" ], "SCAMIN": 699999, "SORDAT": "200303", "SORIND": "US,US,graph,Chart 12300" }, "geometry": { "type": "Point", "coordinates": [ -71.3372573, 41.3888097 ] } },
{ "type": "Feature", "properties": { "RCID": 1072, "PRIM": 1, "GRUP": 2, "OBJL": 48, "RVER": 1, "AGEN": 550, "FIDN": 1863260931, "FIDS": 48294, "LNAM": "02266F0F1B03BCA6", "CATDPG": [ "4" ], "INFORM": "Unexploded ordnance (rep 2024)", "SCAMIN": 699999, "SORDAT": "20241105", "SORIND": "US,US,reprt,1stCGD,LNM 45/24" }, "geometry": { "type": "Point", "coordinates": [ -71.074, 41.41215 ] } },
{ "type": "Feature", "properties": { "RCID": 1073, "PRIM": 1, "GRUP": 2, "OBJL": 48, "RVER": 1, "AGEN": 550, "FIDN": -1590606263, "FIDS": 48294, "LNAM": "0226A1314649BCA6", "CATDPG": [ "4" ], "INFORM": "Unexploded ordnance (rep 2024)", "SCAMIN": 699999, "SORDAT": "20241105", "SORIND": "US,US,reprt,1stCGD,LNM 45/24" }, "geometry": { "type": "Point", "coordinates": [ -71.4019383, 41.4608 ] } },
{ "type": "Feature", "properties": { "RCID": 1074, "PRIM": 1, "GRUP": 2, "OBJL": 48, "RVER": 1, "AGEN": 550, "FIDN": -492962426, "FIDS": 48294, "LNAM": "0226E29DFD86BCA6", "CATDPG": [ "4" ], "SCAMIN": 699999, "SORDAT": "1987", "SORIND": "US,US,graph,Chart 12300" }, "geometry": { "type": "Point", "coordinates": [ -71.5126508, 40.9952897 ] } },
{ "type": "Feature", "properties": { "RCID": 1075, "PRIM": 1, "GRUP": 2, "OBJL": 48, "RVER": 1, "AGEN": 550, "FIDN": 1126172790, "FIDS": 48294, "LNAM": "022643200876BCA6", "CATDPG": [ "4" ], "INFORM": "Unexploded ordnance (rep 2022)", "SCAMIN": 699999, "SORDAT": "20220817", "SORIND": "US,US,reprt,1stCGD,LNM 33/22" }, "geometry": { "type": "Point", "coordinates": [ -71.3665667, 41.4157 ] } },
{ "type": "Feature", "properties": { "RCID": 1076, "PRIM": 1, "GRUP": 2, "OBJL": 48, "RVER": 1, "AGEN": 550, "FIDN": 480370923, "FIDS": 48294, "LNAM": "02261CA1E0EBBCA6", "CATDPG": [ "4" ], "INFORM": "Existence doubtful", "SCAMIN": 699999, "SORDAT": "200303", "SORIND": "US,US,graph,Chart 12300" }, "geometry": { "type": "Point", "coordinates": [ -71.0659823, 41.2855291 ] } },
{ "type": "Feature", "properties": { "RCID": 1077, "PRIM": 1, "GRUP": 2, "OBJL": 48, "RVER": 1, "AGEN": 550, "FIDN": 651648794, "FIDS": 48294, "LNAM": "022626D75F1ABCA6", "CATDPG": [ "4" ], "INFORM": "Reported in 1992", "SCAMIN": 699999, "SORDAT": "1992", "SORIND": "US,US,graph,Chart 12300" }, "geometry": { "type": "Point", "coordinates": [ -70.864398, 41.0918642 ] } }
]
}
