{
"type": "FeatureCollection",
"name": "DSID",
"features": [
{ "type": "Feature", "properties": { "DSID_EXPP": 1, "DSID_INTU": 3, "DSID_DSNM": "US3RI1AA.000", "DSID_EDTN": "1", "DSID_UPDN": "1", "DSID_UADT": "20260417", "DSID_ISDT": "20260518", "DSID_STED": 3.1, "DSID_PRSP": 1, "DSID_PSDN": "", "DSID_PRED": "2.0", "DSID_PROF": 1, "DSID_AGEN": 550, "DSID_COMT": "Produced by NOAA", "DSSI_DSTR": 2, "DSSI_AALL": 1, "DSSI_NALL": 1, "DSSI_NOMR": 6, "DSSI_NOCR": 0, "DSSI_NOGR": 1009, "DSSI_NOLR": 1, "DSSI_NOIN": 269, "DSSI_NOCN": 707, "DSSI_NOED": 875, "DSSI_NOFA": 0, "DSPM_HDAT": 2, "DSPM_VDAT": 16, "DSPM_SDAT": 12, "DSPM_CSCL": 350000, "DSPM_DUNI": 1, "DSPM_HUNI": 1, "DSPM_PUNI": 1, "DSPM_COUN": 1, "DSPM_COMF": 10000000, "DSPM_SOMF": 10, "DSPM_COMT": "Produced by NOAA" }, "geometry": null }
]
}
