{
"type": "FeatureCollection",
"name": "FOGSIG",
"crs": { "type": "name", "properties": { "name": "urn:ogc:def:crs:OGC:1.3:CRS84" } },
"features": [
{ "type": "Feature", "properties": { "RCID": 27, "PRIM": 1, "GRUP": 2, "OBJL": 58, "RVER": 1, "AGEN": 550, "FIDN": 719182810, "FIDS": 5553, "LNAM": "02262ADDDBDA15B1", "CATFOG": 8, "SCAMIN": 999999, "SORDAT": "200611", "SORIND": "US,US,graph,Chart 13217" }, "geometry": { "type": "Point", "coordinates": [ -71.5338581, 41.2101708 ] } },
{ "type": "Feature", "properties": { "RCID": 28, "PRIM": 1, "GRUP": 2, "OBJL": 58, "RVER": 1, "AGEN": 550, "FIDN": 37635117, "FIDS": 64400, "LNAM": "0226023E442DFB90", "CATFOG": 8, "STATUS": [ "5" ], "INFORM": "(Seasonal aid: Replaced by nun when endangered by ice)", "SCAMIN": 999999, "SORDAT": "19970716", "SORIND": "US,US,reprt,1stCGD,LNM 29/97" }, "geometry": { "type": "Point", "coordinates": [ -70.95697, 41.3680325 ] } },
{ "type": "Feature", "properties": { "RCID": 29, "PRIM": 1, "GRUP": 2, "OBJL": 58, "RVER": 1, "AGEN": 550, "FIDN": 35106374, "FIDS": 50, "LNAM": "02260217AE460032", "CATFOG": 9, "STATUS": [ "5" ], "INFORM": "Seasonal aid: Replaced by can when endangered by ice", "SCAMIN": 999999, "SORDAT": "200509", "SORIND": "US,US,graph,Chart 13233" }, "geometry": { "type": "Point", "coordinates": [ -70.8631983, 41.3637156 ] } },
{ "type": "Feature", "properties": { "RCID": 30, "PRIM": 1, "GRUP": 2, "OBJL": 58, "RVER": 1, "AGEN": 550, "FIDN": 36834345, "FIDS": 50, "LNAM": "022602320C290032", "CATFOG": 8, "SCAMIN": 999999, "SORDAT": "20220504", "SORIND": "US,US,reprt,1stCGD,LNM 18/22" }, "geometry": { "type": "Point", "coordinates": [ -71.6697006, 41.1080214 ] } },
{ "type": "Feature", "properties": { "RCID": 31, "PRIM": 1, "GRUP": 2, "OBJL": 58, "RVER": 1, "AGEN": 550, "FIDN": 36668071, "FIDS": 50, "LNAM": "0226022F82A70032", "CATFOG": 9, "SCAMIN": 999999, "SORDAT": "20211027", "SORIND": "US,US,reprt,1stCGD,LNM 43/21" }, "geometry": { "type": "Point", "coordinates": [ -71.7726975, 41.1016389 ] } },
{ "type": "Feature", "properties": { "RCID": 32, "PRIM": 1, "GRUP": 2, "OBJL": 58, "RVER": 1, "AGEN": 550, "FIDN": 36668047, "FIDS": 50, "LNAM": "0226022F828F0032", "CATFOG": 7, "SCAMIN": 999999, "SORDAT": "19820501", "SORIND": "US,US,reprt,1stCGD,LNM 19/82" }, "geometry": { "type": "Point", "coordinates": [ -71.9137611, 41.1172842 ] } },
{ "type": "Feature", "properties": { "RCID": 33, "PRIM": 1, "GRUP": 2, "OBJL": 58, "RVER": 1, "AGEN": 550, "FIDN": 36668050, "FIDS": 50, "LNAM": "0226022F82920032", "CATFOG": 9, "SCAMIN": 999999, "SORDAT": "19991030", "SORIND": "US,US,graph,Chart 13209" }, "geometry": { "type": "Point", "coordinates": [ -71.9510981, 41.174299 ] } },
{ "type": "Feature", "properties": { "RCID": 34, "PRIM": 1, "GRUP": 2, "OBJL": 58, "RVER": 1, "AGEN": 550, "FIDN": 36851364, "FIDS": 50, "LNAM": "022602324EA40032", "CATFOG": 10, "SIGPER": 30.0, "SIGSEQ": "03.0+(27.0)", "INFORM": "MRASS", "SCAMIN": 999999, "SORDAT": "20190115", "SORIND": "US,US,reprt,1stCGD, LNM 03/19" }, "geometry": { "type": "Point", "coordinates": [ -71.858568, 41.3038941 ] } },
{ "type": "Feature", "properties": { "RCID": 35, "PRIM": 1, "GRUP": 2, "OBJL": 58, "RVER": 1, "AGEN": 550, "FIDN": 36668073, "FIDS": 50, "LNAM": "0226022F82A90032", "CATFOG": 10, "SIGGRP": "(1)", "SIGPER": 15.0, "SIGSEQ": "02.0+(13.0)", "INFORM": "MRASS", "SCAMIN": 999999, "SORDAT": "20190521", "SORIND": "US,US,reprt,1stCGD,LNM 21/19" }, "geometry": { "type": "Point", "coordinates": [ -71.8568767, 41.0706234 ] } },
{ "type": "Feature", "properties": { "RCID": 36, "PRIM": 1, "GRUP": 2, "OBJL": 58, "RVER": 1, "AGEN": 550, "FIDN": 34463091, "FIDS": 50, "LNAM": "0226020DDD730032", "CATFOG": 10, "SIGGRP": "(1)", "SIGPER": 30.0, "SIGSEQ": "03.0+(27.0)", "INFORM": "MRASS", "SCAMIN": 999999, "SORDAT": "20220928", "SORIND": "US,US,reprt,1stCGD,LNM 39/22" }, "geometry": { "type": "Point", "coordinates": [ -71.552065, 41.15341 ] } },
{ "type": "Feature", "properties": { "RCID": 37, "PRIM": 1, "GRUP": 2, "OBJL": 58, "RVER": 1, "AGEN": 550, "FIDN": 34463097, "FIDS": 50, "LNAM": "0226020DDD790032", "CATFOG": 10, "SIGGRP": "(1)", "SIGPER": 10.0, "SIGSEQ": "01.0+(09.0)", "INFORM": "MRASS", "SCAMIN": 999999, "SORDAT": "20170725", "SORIND": "US,US,reprt,1stCGD,LNM 29/17" }, "geometry": { "type": "Point", "coordinates": [ -71.5931767, 41.1993014 ] } },
{ "type": "Feature", "properties": { "RCID": 38, "PRIM": 1, "GRUP": 2, "OBJL": 58, "RVER": 1, "AGEN": 550, "FIDN": 34463066, "FIDS": 50, "LNAM": "0226020DDD5A0032", "CATFOG": 10, "SIGGRP": "(2)", "SIGPER": 30.0, "SIGSEQ": "02.0+(02.0)+02.0+(24.0)", "INFORM": "MRASS", "SCAMIN": 999999, "SORDAT": "20150310", "SORIND": "US,US,reprt,1stCGD,LNM 10/15" }, "geometry": { "type": "Point", "coordinates": [ -71.5540383, 41.1773589 ] } },
{ "type": "Feature", "properties": { "RCID": 39, "PRIM": 1, "GRUP": 2, "OBJL": 58, "RVER": 1, "AGEN": 550, "FIDN": 34413444, "FIDS": 50, "LNAM": "0226020D1B840032", "CATFOG": 10, "SIGGRP": "(1)", "SIGPER": 15.0, "SIGSEQ": "02.0+(13.0)", "INFORM": "MRASS", "SCAMIN": 999999, "SORDAT": "20190115", "SORIND": "US,US,reprt,1stCGD,LNM 03/19" }, "geometry": { "type": "Point", "coordinates": [ -71.4813837, 41.361055 ] } },
{ "type": "Feature", "properties": { "RCID": 40, "PRIM": 1, "GRUP": 2, "OBJL": 58, "RVER": 1, "AGEN": 550, "FIDN": 35323746, "FIDS": 50, "LNAM": "0226021AFF620032", "CATFOG": 10, "SIGGRP": "(2)", "SIGPER": 30.0, "SIGSEQ": "02.0+(02.0)+02.0+(24.0)", "INFORM": "MRASS", "SCAMIN": 999999, "SORDAT": "20150203", "SORIND": "US,US,reprt,1stCGD, LNM 05/15" }, "geometry": { "type": "Point", "coordinates": [ -71.0346848, 41.3969771 ] } },
{ "type": "Feature", "properties": { "RCID": 41, "PRIM": 1, "GRUP": 2, "OBJL": 58, "RVER": 1, "AGEN": 550, "FIDN": 19031478, "FIDS": 64375, "LNAM": "0226012265B6FB77", "CATFOG": 10, "SIGGRP": "(1)", "SIGPER": 10.0, "SIGSEQ": "01.0+(09.0)", "INFORM": "MRASS", "SCAMIN": 999999, "SORDAT": "20150310", "SORIND": "US,US,reprt,1stCGD,LNM 10/15" }, "geometry": { "type": "Point", "coordinates": [ -71.3629167, 41.4621667 ] } },
{ "type": "Feature", "properties": { "RCID": 42, "PRIM": 1, "GRUP": 2, "OBJL": 58, "RVER": 1, "AGEN": 550, "FIDN": 36834469, "FIDS": 50, "LNAM": "022602320CA50032", "CATFOG": 10, "SIGGRP": "(1)", "SIGPER": 20.0, "SIGSEQ": "02.0+(18.0)", "INFORM": "MRASS", "SCAMIN": 999999, "SORDAT": "20151208", "SORIND": "US,US,reprt,1stCGD,LNM 49/15" }, "geometry": { "type": "Point", "coordinates": [ -71.5211611, 41.1147111 ] } },
{ "type": "Feature", "properties": { "RCID": 43, "PRIM": 1, "GRUP": 2, "OBJL": 58, "RVER": 1, "AGEN": 550, "FIDN": 19031467, "FIDS": 64375, "LNAM": "0226012265ABFB77", "CATFOG": 10, "SIGGRP": "(1)", "SIGPER": 30.0, "SIGSEQ": "03.0+(27.0)", "INFORM": "MRASS", "SCAMIN": 999999, "SORDAT": "20190402", "SORIND": "US,US,reprt,1stCGD,LNM 14/19" }, "geometry": { "type": "Point", "coordinates": [ -71.3994125, 41.4493656 ] } },
{ "type": "Feature", "properties": { "RCID": 44, "PRIM": 1, "GRUP": 2, "OBJL": 58, "RVER": 1, "AGEN": 550, "FIDN": 35290259, "FIDS": 50, "LNAM": "0226021A7C930032", "CATFOG": 8, "SCAMIN": 999999, "SORDAT": "20151013", "SORIND": "US,US,reprt,1stCGD,LNM 41/15" }, "geometry": { "type": "Point", "coordinates": [ -71.3892972, 41.3833333 ] } },
{ "type": "Feature", "properties": { "RCID": 45, "PRIM": 1, "GRUP": 2, "OBJL": 58, "RVER": 1, "AGEN": 550, "FIDN": 36852493, "FIDS": 50, "LNAM": "02260232530D0032", "CATFOG": 7, "SIGPER": 15.0, "SIGSEQ": "02.0+(13.0)", "SCAMIN": 999999, "SORDAT": "20070619", "SORIND": "US,US,reprt,1stCGD,LNM 25/07" }, "geometry": { "type": "Point", "coordinates": [ -71.9333158, 41.3045075 ] } },
{ "type": "Feature", "properties": { "RCID": 46, "PRIM": 1, "GRUP": 2, "OBJL": 58, "RVER": 1, "AGEN": 550, "FIDN": 34463083, "FIDS": 50, "LNAM": "0226020DDD6B0032", "CATFOG": 8, "SCAMIN": 999999, "SORDAT": "200611", "SORIND": "US,US,graph,Chart 13217" }, "geometry": { "type": "Point", "coordinates": [ -71.6224441, 41.1454658 ] } },
{ "type": "Feature", "properties": { "RCID": 47, "PRIM": 1, "GRUP": 2, "OBJL": 58, "RVER": 1, "AGEN": 550, "FIDN": 541158895, "FIDS": 5553, "LNAM": "022620416DEF15B1", "CATFOG": 7, "SCAMIN": 999999, "SORDAT": "20210901", "SORIND": "US,US,reprt,1stCGD,LNM 35/21" }, "geometry": { "type": "Point", "coordinates": [ -71.5759328, 41.2573131 ] } }
]
}
