{
"type": "FeatureCollection",
"name": "LAKARE",
"crs": { "type": "name", "properties": { "name": "urn:ogc:def:crs:OGC:1.3:CRS84" } },
"features": [
{ "type": "Feature", "properties": { "RCID": 666, "PRIM": 3, "GRUP": 2, "OBJL": 69, "RVER": 1, "AGEN": 550, "FIDN": -1051490606, "FIDS": 48294, "LNAM": "0226C15386D2BCA6", "OBJNAM": "Gardiner Pond", "SCAMIN": 499999, "SORDAT": "20140818", "SORIND": "US,US,graph,GC-11187" }, "geometry": { "type": "Polygon", "coordinates": [ [ [ -71.2504682, 41.4916106 ], [ -71.2513928, 41.4878339 ], [ -71.2585737, 41.4902346 ], [ -71.2550705, 41.4954011 ], [ -71.2522323, 41.4951955 ], [ -71.2504682, 41.4916106 ] ] ] } },
{ "type": "Feature", "properties": { "RCID": 667, "PRIM": 3, "GRUP": 2, "OBJL": 69, "RVER": 1, "AGEN": 550, "FIDN": 1664670824, "FIDS": 48294, "LNAM": "02266338DC68BCA6", "SCAMIN": 499999, "SORDAT": "20140818", "SORIND": "US,US,graph,GC-11187" }, "geometry": { "type": "Polygon", "coordinates": [ [ [ -71.8877577, 41.3379244 ], [ -71.8899788, 41.3368863 ], [ -71.8927783, 41.3346234 ], [ -71.895781, 41.3340967 ], [ -71.8933648, 41.3361126 ], [ -71.8926622, 41.338905 ], [ -71.8900097, 41.3392973 ], [ -71.8877577, 41.3379244 ] ] ] } },
{ "type": "Feature", "properties": { "RCID": 668, "PRIM": 3, "GRUP": 2, "OBJL": 69, "RVER": 1, "AGEN": 550, "FIDN": -157195241, "FIDS": 48294, "LNAM": "0226F6A16417BCA6", "OBJNAM": "Long Pond", "SCAMIN": 499999, "SORDAT": "20140818", "SORIND": "US,US,graph,GC-11187" }, "geometry": { "type": "Polygon", "coordinates": [ [ [ -71.176547, 41.4620289 ], [ -71.1784179, 41.4619724 ], [ -71.1791168, 41.4631503 ], [ -71.1809728, 41.4639206 ], [ -71.180714, 41.4650568 ], [ -71.1810442, 41.4661989 ], [ -71.1811632, 41.4683732 ], [ -71.1795481, 41.4685873 ], [ -71.1775345, 41.4673768 ], [ -71.1769277, 41.4661514 ], [ -71.1773798, 41.4629926 ], [ -71.176547, 41.4620289 ] ] ] } },
{ "type": "Feature", "properties": { "RCID": 669, "PRIM": 3, "GRUP": 2, "OBJL": 69, "RVER": 1, "AGEN": 550, "FIDN": 402015098, "FIDS": 48294, "LNAM": "022617F6437ABCA6", "OBJNAM": "Round Pond", "SCAMIN": 499999, "SORDAT": "20140818", "SORIND": "US,US,graph,GC-11187" }, "geometry": { "type": "Polygon", "coordinates": [ [ [ -71.1845476, 41.4616568 ], [ -71.1871007, 41.4608144 ], [ -71.1890182, 41.4627389 ], [ -71.1885572, 41.4640415 ], [ -71.1875507, 41.4656048 ], [ -71.1860124, 41.4651372 ], [ -71.1843072, 41.4637983 ], [ -71.1840669, 41.4624253 ], [ -71.1845476, 41.4616568 ] ] ] } },
{ "type": "Feature", "properties": { "RCID": 670, "PRIM": 3, "GRUP": 2, "OBJL": 69, "RVER": 1, "AGEN": 550, "FIDN": -1699984963, "FIDS": 48294, "LNAM": "02269AAC49BDBCA6", "OBJNAM": "Almy Pond", "SCAMIN": 499999, "SORDAT": "20140818", "SORIND": "US,US,graph,GC-11187" }, "geometry": { "type": "Polygon", "coordinates": [ [ [ -71.3112024, 41.4631343 ], [ -71.3110685, 41.4578786 ], [ -71.3144097, 41.460082 ], [ -71.3143381, 41.4633544 ], [ -71.3116188, 41.4653828 ], [ -71.3112024, 41.4631343 ] ] ] } },
{ "type": "Feature", "properties": { "RCID": 671, "PRIM": 3, "GRUP": 2, "OBJL": 69, "RVER": 1, "AGEN": 550, "FIDN": 118899014, "FIDS": 48294, "LNAM": "022607164146BCA6", "SCAMIN": 499999, "SORDAT": "20140818", "SORIND": "US,US,graph,GC-11187" }, "geometry": { "type": "Polygon", "coordinates": [ [ [ -71.1010149, 41.505892 ], [ -71.1064167, 41.505412 ], [ -71.1046922, 41.5093414 ], [ -71.0993388, 41.5103991 ], [ -71.099971, 41.5082268 ], [ -71.0993764, 41.5063671 ], [ -71.1010149, 41.505892 ] ] ] } },
{ "type": "Feature", "properties": { "RCID": 672, "PRIM": 3, "GRUP": 2, "OBJL": 69, "RVER": 1, "AGEN": 550, "FIDN": -2046022566, "FIDS": 48294, "LNAM": "0226860C2C5ABCA6", "SCAMIN": 499999, "SORDAT": "20140818", "SORIND": "US,US,graph,GC-11187" }, "geometry": { "type": "Polygon", "coordinates": [ [ [ -71.1089193, 41.5024061 ], [ -71.1149917, 41.5008547 ], [ -71.1160625, 41.5061894 ], [ -71.1138543, 41.5071412 ], [ -71.1117461, 41.5051377 ], [ -71.1089193, 41.5024061 ] ] ] } },
{ "type": "Feature", "properties": { "RCID": 673, "PRIM": 3, "GRUP": 2, "OBJL": 69, "RVER": 1, "AGEN": 550, "FIDN": -1806177938, "FIDS": 48294, "LNAM": "02269457E96EBCA6", "SCAMIN": 499999, "SORDAT": "20140818", "SORIND": "US,US,graph,GC-11187" }, "geometry": { "type": "Polygon", "coordinates": [ [ [ -71.1263254, 41.4994163 ], [ -71.1331687, 41.4971677 ], [ -71.1344056, 41.5021857 ], [ -71.1237148, 41.504195 ], [ -71.1211947, 41.4997819 ], [ -71.1263254, 41.4994163 ] ] ] } },
{ "type": "Feature", "properties": { "RCID": 674, "PRIM": 3, "GRUP": 2, "OBJL": 69, "RVER": 1, "AGEN": 550, "FIDN": 1212840707, "FIDS": 48294, "LNAM": "0226484A7B03BCA6", "SCAMIN": 499999, "SORDAT": "20140818", "SORIND": "US,US,graph,GC-11187" }, "geometry": { "type": "Polygon", "coordinates": [ [ [ -71.1367607, 41.4945802 ], [ -71.1387597, 41.4937868 ], [ -71.1426158, 41.4970323 ], [ -71.1432497, 41.4999511 ], [ -71.1397184, 41.4993308 ], [ -71.1389036, 41.4976196 ], [ -71.1355731, 41.4956039 ], [ -71.1367607, 41.4945802 ] ] ] } },
{ "type": "Feature", "properties": { "RCID": 675, "PRIM": 3, "GRUP": 2, "OBJL": 69, "RVER": 1, "AGEN": 550, "FIDN": -43542652, "FIDS": 48294, "LNAM": "0226FD679784BCA6", "SCAMIN": 499999, "SORDAT": "20140818", "SORIND": "US,US,graph,GC-11187" }, "geometry": { "type": "Polygon", "coordinates": [ [ [ -71.1603395, 41.4801533 ], [ -71.1583103, 41.4770029 ], [ -71.1627826, 41.475127 ], [ -71.164679, 41.4728379 ], [ -71.1675182, 41.4733666 ], [ -71.1699843, 41.4710879 ], [ -71.1720903, 41.4804098 ], [ -71.1674323, 41.4800962 ], [ -71.1670633, 41.4846371 ], [ -71.1603395, 41.4801533 ] ] ] } },
{ "type": "Feature", "properties": { "RCID": 676, "PRIM": 3, "GRUP": 2, "OBJL": 69, "RVER": 1, "AGEN": 550, "FIDN": -1623607989, "FIDS": 48294, "LNAM": "02269F39B54BBCA6", "SCAMIN": 499999, "SORDAT": "20140818", "SORIND": "US,US,graph,GC-11187" }, "geometry": { "type": "Polygon", "coordinates": [ [ [ -71.5871497, 41.1955912 ], [ -71.5792957, 41.2014231 ], [ -71.5757861, 41.2014129 ], [ -71.5738737, 41.1996009 ], [ -71.5736533, 41.195354 ], [ -71.5748799, 41.1920978 ], [ -71.5732386, 41.1902764 ], [ -71.5702456, 41.1901233 ], [ -71.5692962, 41.1878794 ], [ -71.5724643, 41.180919 ], [ -71.583574, 41.1837504 ], [ -71.5840676, 41.1871241 ], [ -71.5878346, 41.1906816 ], [ -71.5904202, 41.1884756 ], [ -71.5916879, 41.1891634 ], [ -71.591807, 41.190919 ], [ -71.5871497, 41.1955912 ] ] ] } },
{ "type": "Feature", "properties": { "RCID": 677, "PRIM": 3, "GRUP": 2, "OBJL": 69, "RVER": 1, "AGEN": 550, "FIDN": -266635989, "FIDS": 48294, "LNAM": "0226F01B752BBCA6", "OBJNAM": "Wesquage Pond", "INFORM": "<Null>", "SCAMIN": 499999, "SORDAT": "20140818", "SORIND": "US,US,graph,GC-11187" }, "geometry": { "type": "Polygon", "coordinates": [ [ [ -71.4225119, 41.4793411 ], [ -71.4233499, 41.4747286 ], [ -71.4246672, 41.4757623 ], [ -71.4283449, 41.4755491 ], [ -71.4287827, 41.477308 ], [ -71.4291196, 41.4794952 ], [ -71.4251336, 41.4802273 ], [ -71.4225119, 41.4793411 ] ] ] } }
]
}
