{
"type": "FeatureCollection",
"name": "LIGHTS",
"crs": { "type": "name", "properties": { "name": "urn:ogc:def:crs:OGC:1.3:CRS84" } },
"features": [
{ "type": "Feature", "properties": { "RCID": 48, "PRIM": 1, "GRUP": 2, "OBJL": 75, "RVER": 1, "AGEN": 550, "FIDN": 36668074, "FIDS": 50, "LNAM": "0226022F82AA0032", "CATLIT": [ ], "COLOUR": [ "1" ], "EXCLIT": 4, "HEIGHT": 51.2, "LITCHR": 2, "SIGGRP": "(1)", "SIGPER": 5.0, "SIGSEQ": "00.5+(04.5)", "VALNMR": 18.0, "SCAMIN": 999999, "SORDAT": "20050201", "SORIND": "US,US,reprt,1stCGD,LNM 05/05" }, "geometry": { "type": "Point", "coordinates": [ -71.8568767, 41.0706234 ] } },
{ "type": "Feature", "properties": { "RCID": 49, "PRIM": 1, "GRUP": 2, "OBJL": 75, "RVER": 1, "AGEN": 550, "FIDN": 36834505, "FIDS": 50, "LNAM": "022602320CC90032", "CATLIT": [ ], "COLOUR": [ "6" ], "EXCLIT": 4, "LITCHR": 2, "SIGGRP": "(1)", "SIGPER": 3.0, "SIGSEQ": "00.8+(02.2)", "SCAMIN": 999999, "SORDAT": "20200826", "SORIND": "US,US,reprt,1stCGD,LNM 34/20" }, "geometry": { "type": "Point", "coordinates": [ -71.5290611, 41.11015 ] } },
{ "type": "Feature", "properties": { "RCID": 50, "PRIM": 1, "GRUP": 2, "OBJL": 75, "RVER": 1, "AGEN": 550, "FIDN": 36834468, "FIDS": 50, "LNAM": "022602320CA40032", "CATLIT": [ ], "COLOUR": [ "6" ], "EXCLIT": 4, "LITCHR": 2, "SIGGRP": "(1)", "SIGPER": 3.0, "SIGSEQ": "00.8+(02.2)", "SCAMIN": 999999, "SORDAT": "20200826", "SORIND": "US,US,reprt,1stCGD,LNM 34/20" }, "geometry": { "type": "Point", "coordinates": [ -71.51395, 41.1198806 ] } },
{ "type": "Feature", "properties": { "RCID": 51, "PRIM": 1, "GRUP": 2, "OBJL": 75, "RVER": 2, "AGEN": 550, "FIDN": -880496601, "FIDS": 8389, "LNAM": "0226CB84B02720C5", "CATLIT": [ ], "COLOUR": [ "6" ], "EXCLIT": 4, "LITCHR": 2, "SIGGRP": "(1)", "SIGPER": 20.0, "SIGSEQ": "02.0+(18.0)", "STATUS": [ "8" ], "SCAMIN": 999999, "SORDAT": "20260428", "SORIND": "US,US,reprt,1stCGD,LNM 17/26" }, "geometry": { "type": "Point", "coordinates": [ -71.2215331, 41.0090669 ] } },
{ "type": "Feature", "properties": { "RCID": 52, "PRIM": 1, "GRUP": 2, "OBJL": 75, "RVER": 2, "AGEN": 550, "FIDN": 336351184, "FIDS": 8389, "LNAM": "0226140C4FD020C5", "CATLIT": [ ], "COLOUR": [ "6" ], "EXCLIT": 4, "LITCHR": 2, "SIGGRP": "(1)", "SIGPER": 20.0, "SIGSEQ": "02.0+(18.0)", "STATUS": [ "8" ], "SCAMIN": 999999, "SORDAT": "20260428", "SORIND": "US,US,reprt,1stCGD,LNM 17/26" }, "geometry": { "type": "Point", "coordinates": [ -70.905, 40.9808669 ] } },
{ "type": "Feature", "properties": { "RCID": 53, "PRIM": 1, "GRUP": 2, "OBJL": 75, "RVER": 2, "AGEN": 550, "FIDN": 1278655593, "FIDS": 8389, "LNAM": "02264C36BC6920C5", "CATLIT": [ ], "COLOUR": [ "6" ], "EXCLIT": 4, "LITCHR": 2, "SIGGRP": "(1)", "SIGPER": 20.0, "SIGSEQ": "02.0+(18.0)", "STATUS": [ "8" ], "SCAMIN": 999999, "SORDAT": "20260428", "SORIND": "US,US,reprt,1stCGD,LNM 17/26" }, "geometry": { "type": "Point", "coordinates": [ -70.8959, 41.02265 ] } },
{ "type": "Feature", "properties": { "RCID": 54, "PRIM": 1, "GRUP": 2, "OBJL": 75, "RVER": 2, "AGEN": 550, "FIDN": 1029991674, "FIDS": 8389, "LNAM": "02263D646CFA20C5", "CATLIT": [ ], "COLOUR": [ "6" ], "EXCLIT": 4, "LITCHR": 2, "SIGGRP": "(1)", "SIGPER": 20.0, "SIGSEQ": "02.0+(18.0)", "STATUS": [ "8" ], "SCAMIN": 999999, "SORDAT": "20260428", "SORIND": "US,US,reprt,1stCGD,LNM 17/26" }, "geometry": { "type": "Point", "coordinates": [ -71.2366831, 40.9827169 ] } },
{ "type": "Feature", "properties": { "RCID": 55, "PRIM": 1, "GRUP": 2, "OBJL": 75, "RVER": 2, "AGEN": 550, "FIDN": -1023705995, "FIDS": 8389, "LNAM": "0226C2FB7C7520C5", "CATLIT": [ ], "COLOUR": [ "6" ], "EXCLIT": 4, "LITCHR": 2, "SIGGRP": "(1)", "SIGPER": 20.0, "SIGSEQ": "02.0+(18.0)", "STATUS": [ "8" ], "SCAMIN": 999999, "SORDAT": "20260428", "SORIND": "US,US,reprt,1stCGD,LNM 17/26" }, "geometry": { "type": "Point", "coordinates": [ -71.0405831, 40.9886169 ] } },
{ "type": "Feature", "properties": { "RCID": 56, "PRIM": 1, "GRUP": 2, "OBJL": 75, "RVER": 1, "AGEN": 550, "FIDN": -49620119, "FIDS": 8389, "LNAM": "0226FD0ADB6920C5", "CATLIT": [ ], "COLOUR": [ "6" ], "EXCLIT": 4, "LITCHR": 2, "SIGGRP": "(1)", "SIGPER": 4.0, "SIGSEQ": "00.4+(03.6)", "STATUS": [ "8" ], "SCAMIN": 999999, "SORDAT": "20260217", "SORIND": "US,US,reprt,1stCGD,LNM 07/26" }, "geometry": { "type": "Point", "coordinates": [ -70.85741, 40.99652 ] } },
{ "type": "Feature", "properties": { "RCID": 57, "PRIM": 1, "GRUP": 2, "OBJL": 75, "RVER": 1, "AGEN": 550, "FIDN": 35106168, "FIDS": 50, "LNAM": "02260217AD780032", "CATLIT": [ ], "COLOUR": [ "1", "3" ], "EXCLIT": 4, "HEIGHT": 53.3, "LITCHR": 2, "SECTR1": 359.0, "SECTR2": 342.0, "SIGGRP": "(3+1)", "SIGPER": 30.0, "SIGSEQ": "01.0+(01.0)+01.0+(01.0)+01.0+(01.0)+01.0+(23.0)", "VALNMR": 14.0, "INFORM": "Light occasionally visible through notches in hilltop.", "SCAMIN": 999999, "SORDAT": "20250826", "SORIND": "US,US,reprt,1stCGD,LNM 35/25" }, "geometry": { "type": "Point", "coordinates": [ -70.8343544, 41.34845 ] } },
{ "type": "Feature", "properties": { "RCID": 58, "PRIM": 1, "GRUP": 2, "OBJL": 75, "RVER": 1, "AGEN": 550, "FIDN": 879175044, "FIDS": 2005, "LNAM": "02263467258407D5", "CATLIT": [ ], "COLOUR": [ "6" ], "EXCLIT": 4, "LITCHR": 2, "SIGGRP": "(1)", "SIGPER": 4.0, "SIGSEQ": "00.4+(03.6)", "STATUS": [ "8" ], "SCAMIN": 999999, "SORDAT": "20251111", "SORIND": "US,US,reprt,1stCGD,LNM 46/25" }, "geometry": { "type": "Point", "coordinates": [ -71.1869828, 41.0762664 ] } },
{ "type": "Feature", "properties": { "RCID": 59, "PRIM": 1, "GRUP": 2, "OBJL": 75, "RVER": 1, "AGEN": 550, "FIDN": 629771843, "FIDS": 2005, "LNAM": "022625898E4307D5", "CATLIT": [ ], "COLOUR": [ "6" ], "EXCLIT": 4, "LITCHR": 2, "SIGGRP": "(5)", "SIGPER": 20.0, "SIGSEQ": "00.5+(01.5)+00.5+(01.5)+00.5+(01.5)+00.5+(01.5)+00.5+(11.5)", "STATUS": [ "8" ], "SCAMIN": 999999, "SORDAT": "20250506", "SORIND": "US,US,reprt,1stCGD,LNM 19/25" }, "geometry": { "type": "Point", "coordinates": [ -71.0330169, 41.3870669 ] } },
{ "type": "Feature", "properties": { "RCID": 60, "PRIM": 1, "GRUP": 2, "OBJL": 75, "RVER": 1, "AGEN": 550, "FIDN": 37638212, "FIDS": 64400, "LNAM": "0226023E5044FB90", "CATLIT": [ ], "COLOUR": [ "3" ], "EXCLIT": 4, "LITCHR": 2, "SIGGRP": "(1)", "SIGPER": 2.5, "SIGSEQ": "00.3+(02.2)", "STATUS": [ "5" ], "INFORM": "(Seasonal aid: Replaced by nun when endangered by ice)", "SCAMIN": 999999, "SORDAT": "19970716", "SORIND": "US,US,reprt,1stCGD,LNM 29/97" }, "geometry": { "type": "Point", "coordinates": [ -70.95697, 41.3680325 ] } },
{ "type": "Feature", "properties": { "RCID": 61, "PRIM": 1, "GRUP": 2, "OBJL": 75, "RVER": 1, "AGEN": 550, "FIDN": 37886617, "FIDS": 50, "LNAM": "022602421A990032", "CATLIT": [ ], "COLOUR": [ "6" ], "EXCLIT": 4, "LITCHR": 2, "SIGGRP": "(5)", "SIGPER": 20.0, "SIGSEQ": "00.5+(01.5)+00.5+(01.5)+00.5+(01.5)+00.5+(01.5)+00.5+(11.5)", "SCAMIN": 999999, "SORDAT": "20230627", "SORIND": "US,US,reprt,1stCGD,LNM 26/23" }, "geometry": { "type": "Point", "coordinates": [ -71.1236131, 40.96715 ] } },
{ "type": "Feature", "properties": { "RCID": 62, "PRIM": 1, "GRUP": 2, "OBJL": 75, "RVER": 1, "AGEN": 550, "FIDN": 567784656, "FIDS": 2005, "LNAM": "022621D7B4D007D5", "CATLIT": [ ], "COLOUR": [ "6" ], "EXCLIT": 4, "LITCHR": 2, "SIGGRP": "(1)", "SIGPER": 3.0, "SIGSEQ": "00.8+(02.2)", "SCAMIN": 999999, "SORDAT": "20200826", "SORIND": "US,US,reprt,1stCGD,LNM 34/20" }, "geometry": { "type": "Point", "coordinates": [ -71.5211611, 41.1147111 ] } },
{ "type": "Feature", "properties": { "RCID": 63, "PRIM": 1, "GRUP": 2, "OBJL": 75, "RVER": 1, "AGEN": 550, "FIDN": 35106375, "FIDS": 50, "LNAM": "02260217AE470032", "CATLIT": [ ], "COLOUR": [ "4" ], "EXCLIT": 4, "LITCHR": 2, "SIGGRP": "(1)", "SIGPER": 4.0, "SIGSEQ": "00.4+(03.6)", "STATUS": [ "5" ], "INFORM": "Seasonal aid: Replaced by can when endangered by ice", "SCAMIN": 999999, "SORDAT": "200509", "SORIND": "US,US,graph,Chart 13233" }, "geometry": { "type": "Point", "coordinates": [ -70.8631983, 41.3637156 ] } },
{ "type": "Feature", "properties": { "RCID": 64, "PRIM": 1, "GRUP": 2, "OBJL": 75, "RVER": 1, "AGEN": 550, "FIDN": 36668072, "FIDS": 50, "LNAM": "0226022F82A80032", "CATLIT": [ ], "COLOUR": [ "4" ], "EXCLIT": 4, "LITCHR": 2, "SIGGRP": "(1)", "SIGPER": 4.0, "SIGSEQ": "00.4+(03.6)", "SCAMIN": 999999, "SORDAT": "20211027", "SORIND": "US,US,reprt,1stCGD,LNM 43/21" }, "geometry": { "type": "Point", "coordinates": [ -71.7726975, 41.1016389 ] } },
{ "type": "Feature", "properties": { "RCID": 65, "PRIM": 1, "GRUP": 2, "OBJL": 75, "RVER": 1, "AGEN": 550, "FIDN": 34463087, "FIDS": 50, "LNAM": "0226020DDD6F0032", "CATLIT": [ "5" ], "COLOUR": [ "1", "4" ], "EXCLIT": 4, "LITCHR": 19, "LITVIS": [ "1" ], "SIGGRP": "()", "SCAMIN": 999999, "SORDAT": "200611", "SORIND": "US,US,graph,Chart 13217" }, "geometry": { "type": "Point", "coordinates": [ -71.5795057, 41.1693067 ] } },
{ "type": "Feature", "properties": { "RCID": 66, "PRIM": 1, "GRUP": 2, "OBJL": 75, "RVER": 1, "AGEN": 550, "FIDN": 36668051, "FIDS": 50, "LNAM": "0226022F82930032", "CATLIT": [ ], "COLOUR": [ "4" ], "EXCLIT": 4, "LITCHR": 2, "SIGGRP": "(1)", "SIGPER": 4.0, "SIGSEQ": "00.4+(03.6)", "SCAMIN": 999999, "SORDAT": "19991030", "SORIND": "US,US,graph,Chart 13209" }, "geometry": { "type": "Point", "coordinates": [ -71.9510981, 41.174299 ] } },
{ "type": "Feature", "properties": { "RCID": 67, "PRIM": 1, "GRUP": 2, "OBJL": 75, "RVER": 1, "AGEN": 550, "FIDN": 36668048, "FIDS": 50, "LNAM": "0226022F82900032", "CATLIT": [ ], "COLOUR": [ "4" ], "EXCLIT": 4, "LITCHR": 2, "SIGGRP": "(1)", "SIGPER": 2.5, "SIGSEQ": "00.3+(02.2)", "SCAMIN": 999999, "SORDAT": "19820501", "SORIND": "US,US,reprt,1stCGD,LNM 19/82" }, "geometry": { "type": "Point", "coordinates": [ -71.9137611, 41.1172842 ] } },
{ "type": "Feature", "properties": { "RCID": 68, "PRIM": 1, "GRUP": 2, "OBJL": 75, "RVER": 1, "AGEN": 550, "FIDN": 36851366, "FIDS": 50, "LNAM": "022602324EA60032", "CATLIT": [ ], "COLOUR": [ "3", "1" ], "EXCLIT": 4, "HEIGHT": 18.6, "LITCHR": 28, "SIGGRP": "()", "SIGPER": 5.0, "VALNMR": 14.0, "SCAMIN": 999999, "SORDAT": "20190115", "SORIND": "US,US,reprt,1stCGD, LNM 03/19" }, "geometry": { "type": "Point", "coordinates": [ -71.858568, 41.3038941 ] } },
{ "type": "Feature", "properties": { "RCID": 69, "PRIM": 1, "GRUP": 2, "OBJL": 75, "RVER": 1, "AGEN": 550, "FIDN": 36851365, "FIDS": 50, "LNAM": "022602324EA50032", "CATLIT": [ "17" ], "COLOUR": [ "1" ], "EXCLIT": 1, "LITCHR": 2, "LITVIS": [ "5" ], "SIGGRP": "(1)", "SIGPER": 2.5, "SIGSEQ": "00.3+(02.2)", "SCAMIN": 999999, "SORDAT": "20190115", "SORIND": "US,US,reprt,1stCGD, LNM 03/19" }, "geometry": { "type": "Point", "coordinates": [ -71.858568, 41.3038941 ] } },
{ "type": "Feature", "properties": { "RCID": 70, "PRIM": 1, "GRUP": 2, "OBJL": 75, "RVER": 1, "AGEN": 550, "FIDN": 36834346, "FIDS": 50, "LNAM": "022602320C2A0032", "CATLIT": [ ], "COLOUR": [ "3" ], "EXCLIT": 4, "LITCHR": 2, "SIGGRP": "(1)", "SIGPER": 2.5, "SIGSEQ": "00.3+(02.2)", "SCAMIN": 999999, "SORDAT": "20220504", "SORIND": "US,US,reprt,1stCGD,LNM 18/22" }, "geometry": { "type": "Point", "coordinates": [ -71.6697006, 41.1080214 ] } },
{ "type": "Feature", "properties": { "RCID": 71, "PRIM": 1, "GRUP": 2, "OBJL": 75, "RVER": 1, "AGEN": 550, "FIDN": 34463093, "FIDS": 50, "LNAM": "0226020DDD750032", "CATLIT": [ "17" ], "COLOUR": [ "4" ], "EXCLIT": 4, "HEIGHT": 79.6, "LITCHR": 2, "LITVIS": [ "5" ], "SIGGRP": "(1)", "SIGPER": 5.0, "SIGSEQ": "00.5+(04.5)", "VALNMR": 17.0, "INFORM": "Lighted throughout 24 hours. Emergency light of reduced intensity when main light is extinguished. Emergency light is offset from main light.", "SCAMIN": 999999, "SORDAT": "20220928", "SORIND": "US,US,reprt,1stCGD,LNM 39/22" }, "geometry": { "type": "Point", "coordinates": [ -71.552065, 41.15341 ] } },
{ "type": "Feature", "properties": { "RCID": 72, "PRIM": 1, "GRUP": 2, "OBJL": 75, "RVER": 1, "AGEN": 550, "FIDN": 34463092, "FIDS": 50, "LNAM": "0226020DDD740032", "CATLIT": [ ], "COLOUR": [ "4" ], "EXCLIT": 1, "HEIGHT": 79.6, "LITCHR": 2, "SIGGRP": "(1)", "SIGPER": 5.0, "SIGSEQ": "00.5+(04.5)", "VALNMR": 17.0, "SCAMIN": 999999, "SORDAT": "20220928", "SORIND": "US,US,reprt,1stCGD,LNM 39/22" }, "geometry": { "type": "Point", "coordinates": [ -71.552065, 41.15341 ] } },
{ "type": "Feature", "properties": { "RCID": 73, "PRIM": 1, "GRUP": 2, "OBJL": 75, "RVER": 1, "AGEN": 550, "FIDN": 36852494, "FIDS": 50, "LNAM": "02260232530E0032", "CATLIT": [ ], "COLOUR": [ "1" ], "EXCLIT": 4, "HEIGHT": 16.8, "LITCHR": 2, "SIGGRP": "(1)", "SIGPER": 6.0, "SIGSEQ": "00.6+(05.4)", "VALNMR": 9.0, "SCAMIN": 999999, "SORDAT": "20070619", "SORIND": "US,US,reprt,1stCGD,LNM 25/07" }, "geometry": { "type": "Point", "coordinates": [ -71.9333158, 41.3045075 ] } },
{ "type": "Feature", "properties": { "RCID": 74, "PRIM": 1, "GRUP": 2, "OBJL": 75, "RVER": 1, "AGEN": 550, "FIDN": 36663161, "FIDS": 50, "LNAM": "0226022F6F790032", "CATLIT": [ "17" ], "COLOUR": [ "1" ], "EXCLIT": 4, "HEIGHT": 51.2, "LITCHR": 2, "SIGGRP": "(1)", "SIGPER": 5.0, "SIGSEQ": "00.5+(04.5)", "VALNMR": 18.0, "INFORM": "When main light is extinguished", "SCAMIN": 999999, "SORDAT": "201405", "SORIND": "US,US,graph,Chart 13209" }, "geometry": { "type": "Point", "coordinates": [ -71.8568767, 41.0706234 ] } },
{ "type": "Feature", "properties": { "RCID": 75, "PRIM": 1, "GRUP": 2, "OBJL": 75, "RVER": 1, "AGEN": 550, "FIDN": 34463067, "FIDS": 50, "LNAM": "0226020DDD5B0032", "CATLIT": [ ], "COLOUR": [ "4" ], "EXCLIT": 4, "HEIGHT": 8.2, "LITCHR": 4, "SIGGRP": "(1)", "SIGPER": 1.0, "SIGSEQ": "00.3+(00.7)", "VALNMR": 6.0, "SCAMIN": 999999, "SORDAT": "20170613", "SORIND": "US,US,reprt,1stCGD,LNM 24/17" }, "geometry": { "type": "Point", "coordinates": [ -71.5540383, 41.1773589 ] } },
{ "type": "Feature", "properties": { "RCID": 76, "PRIM": 1, "GRUP": 2, "OBJL": 75, "RVER": 1, "AGEN": 550, "FIDN": 34413450, "FIDS": 50, "LNAM": "0226020D1B8A0032", "CATLIT": [ ], "COLOUR": [ "1" ], "EXCLIT": 4, "HEIGHT": 19.8, "LITCHR": 8, "SIGGRP": "(3)", "SIGPER": 15.0, "SIGSEQ": "(02.0)+05.0+(02.0)+02.0+(02.0)+02.0", "VALNMR": 16.0, "SCAMIN": 999999, "SORDAT": "20190115", "SORIND": "US,US,reprt,1stCGD,LNM 03/19" }, "geometry": { "type": "Point", "coordinates": [ -71.4813837, 41.361055 ] } },
{ "type": "Feature", "properties": { "RCID": 77, "PRIM": 1, "GRUP": 2, "OBJL": 75, "RVER": 1, "AGEN": 550, "FIDN": 19031493, "FIDS": 64375, "LNAM": "0226012265C5FB77", "CATLIT": [ ], "COLOUR": [ "3" ], "EXCLIT": 4, "HEIGHT": 12.2, "LITCHR": 7, "SIGGRP": "(1)", "SIGPER": 6.0, "SIGSEQ": "03.0+(03.0)", "VALNMR": 9.0, "SCAMIN": 999999, "SORDAT": "20180403", "SORIND": "US,US,reprt,1stCGD,LNM 14/18" }, "geometry": { "type": "Point", "coordinates": [ -71.3629167, 41.4621667 ] } },
{ "type": "Feature", "properties": { "RCID": 78, "PRIM": 1, "GRUP": 2, "OBJL": 75, "RVER": 1, "AGEN": 550, "FIDN": 35292416, "FIDS": 50, "LNAM": "0226021A85000032", "CATLIT": [ ], "COLOUR": [ "1" ], "EXCLIT": 4, "LITCHR": 12, "SIGGRP": "(A)", "SIGPER": 8.0, "SIGSEQ": "00.4+(00.6)+02.0+(05.0)", "SCAMIN": 999999, "SORDAT": "20151013", "SORIND": "US,US,reprt,1stCGD,LNM 41/15" }, "geometry": { "type": "Point", "coordinates": [ -71.3892972, 41.3833333 ] } },
{ "type": "Feature", "properties": { "RCID": 79, "PRIM": 1, "GRUP": 2, "OBJL": 75, "RVER": 1, "AGEN": 550, "FIDN": 35323767, "FIDS": 50, "LNAM": "0226021AFF770032", "CATLIT": [ ], "COLOUR": [ "1" ], "EXCLIT": 4, "HEIGHT": 20.4, "LITCHR": 2, "SIGGRP": "(1)", "SIGPER": 2.5, "SIGSEQ": "00.3+(02.2)", "VALNMR": 14.0, "SCAMIN": 999999, "SORDAT": "20140812", "SORIND": "US,US,reprt,1stCGD,LNM 32/14" }, "geometry": { "type": "Point", "coordinates": [ -71.0346848, 41.3969771 ] } },
{ "type": "Feature", "properties": { "RCID": 80, "PRIM": 1, "GRUP": 2, "OBJL": 75, "RVER": 1, "AGEN": 550, "FIDN": 19031468, "FIDS": 64375, "LNAM": "0226012265ACFB77", "CATLIT": [ ], "COLOUR": [ "1" ], "EXCLIT": 1, "HEIGHT": 19.5, "LITCHR": 2, "SECTR1": 215.0, "SECTR2": 175.0, "SIGGRP": "(1)", "SIGPER": 10.0, "SIGSEQ": "01.0+(09.0)", "VALNMR": 15.0, "SCAMIN": 999999, "SORDAT": "20110419", "SORIND": "US,US,reprt,1stCGD,LNM 16/11" }, "geometry": { "type": "Point", "coordinates": [ -71.3994125, 41.4493656 ] } },
{ "type": "Feature", "properties": { "RCID": 81, "PRIM": 1, "GRUP": 2, "OBJL": 75, "RVER": 1, "AGEN": 550, "FIDN": 36834520, "FIDS": 50, "LNAM": "022602320CD80032", "CATLIT": [ ], "COLOUR": [ "6" ], "EXCLIT": 4, "LITCHR": 4, "SIGGRP": "(1)", "SIGPER": 1.0, "SIGSEQ": "00.3+(00.7)", "SCAMIN": 999999, "SORDAT": "20151208", "SORIND": "US,US,reprt,1stCGD,LNM 49/15" }, "geometry": { "type": "Point", "coordinates": [ -71.5376389, 41.1063306 ] } },
{ "type": "Feature", "properties": { "RCID": 82, "PRIM": 1, "GRUP": 2, "OBJL": 75, "RVER": 1, "AGEN": 550, "FIDN": 36834507, "FIDS": 50, "LNAM": "022602320CCB0032", "CATLIT": [ "5" ], "COLOUR": [ "1", "4" ], "EXCLIT": 4, "LITCHR": 19, "LITVIS": [ "1" ], "SIGGRP": "()", "SCAMIN": 999999, "SORDAT": "20091005", "SORIND": "US,US,graph,Chart 13215" }, "geometry": { "type": "Point", "coordinates": [ -71.8063573, 41.3504808 ] } },
{ "type": "Feature", "properties": { "RCID": 83, "PRIM": 1, "GRUP": 2, "OBJL": 75, "RVER": 1, "AGEN": 550, "FIDN": 36834467, "FIDS": 50, "LNAM": "022602320CA30032", "CATLIT": [ ], "COLOUR": [ "4" ], "EXCLIT": 4, "LITCHR": 2, "SIGGRP": "(2+1)", "SIGPER": 6.0, "SIGSEQ": "00.3+(00.4)+00.3+(01.2)+00.3+(03.5)", "SCAMIN": 999999, "SORDAT": "20130226", "SORIND": "US,US,reprt,1stCGD,LNM 09/13" }, "geometry": { "type": "Point", "coordinates": [ -71.7183608, 41.1158402 ] } },
{ "type": "Feature", "properties": { "RCID": 84, "PRIM": 1, "GRUP": 2, "OBJL": 75, "RVER": 1, "AGEN": 550, "FIDN": 36834350, "FIDS": 50, "LNAM": "022602320C2E0032", "CATLIT": [ ], "COLOUR": [ "6" ], "EXCLIT": 4, "LITCHR": 4, "SIGGRP": "(1)", "SIGPER": 1.0, "SIGSEQ": "00.3+(00.7)", "SCAMIN": 999999, "SORDAT": "20151208", "SORIND": "US,US,reprt,1stCGD,LNM 49/15" }, "geometry": { "type": "Point", "coordinates": [ -71.5075111, 41.1257611 ] } },
{ "type": "Feature", "properties": { "RCID": 85, "PRIM": 1, "GRUP": 2, "OBJL": 75, "RVER": 1, "AGEN": 550, "FIDN": 34463082, "FIDS": 50, "LNAM": "0226020DDD6A0032", "CATLIT": [ ], "COLOUR": [ "3" ], "EXCLIT": 4, "LITCHR": 2, "SIGGRP": "(1)", "SIGPER": 6.0, "SIGSEQ": "00.6+(05.4)", "SCAMIN": 999999, "SORDAT": "200611", "SORIND": "US,US,graph,Chart 13217" }, "geometry": { "type": "Point", "coordinates": [ -71.6224441, 41.1454658 ] } },
{ "type": "Feature", "properties": { "RCID": 86, "PRIM": 1, "GRUP": 2, "OBJL": 75, "RVER": 1, "AGEN": 550, "FIDN": 34463096, "FIDS": 50, "LNAM": "0226020DDD780032", "CATLIT": [ ], "COLOUR": [ "3" ], "EXCLIT": 4, "HEIGHT": 14.9, "LITCHR": 1, "VALNMR": 8.0, "SCAMIN": 999999, "SORDAT": "200611", "SORIND": "US,US,graph,Chart 13217" }, "geometry": { "type": "Point", "coordinates": [ -71.5931767, 41.1993014 ] } },
{ "type": "Feature", "properties": { "RCID": 87, "PRIM": 1, "GRUP": 2, "OBJL": 75, "RVER": 1, "AGEN": 550, "FIDN": 35203948, "FIDS": 50, "LNAM": "022602192B6C0032", "CATLIT": [ ], "COLOUR": [ "4" ], "EXCLIT": 4, "LITCHR": 2, "SIGGRP": "(1)", "SIGPER": 2.5, "SIGSEQ": "00.3+(02.2)", "SCAMIN": 999999, "SORDAT": "20000321", "SORIND": "US,US,reprt,1stCGD,LNM 12/00" }, "geometry": { "type": "Point", "coordinates": [ -71.0377416, 41.430692 ] } },
{ "type": "Feature", "properties": { "RCID": 88, "PRIM": 1, "GRUP": 2, "OBJL": 75, "RVER": 1, "AGEN": 550, "FIDN": 259333544, "FIDS": 5553, "LNAM": "02260F751DA815B1", "CATLIT": [ ], "COLOUR": [ "3" ], "EXCLIT": 4, "LITCHR": 2, "SIGGRP": "(1)", "SIGPER": 4.0, "SIGSEQ": "00.4+(03.6)", "SCAMIN": 999999, "SORDAT": "20200414", "SORIND": "US,US,reprt,1stCGD,LNM 15/20" }, "geometry": { "type": "Point", "coordinates": [ -71.47245, 41.3076833 ] } },
{ "type": "Feature", "properties": { "RCID": 89, "PRIM": 1, "GRUP": 2, "OBJL": 75, "RVER": 1, "AGEN": 550, "FIDN": 396269568, "FIDS": 5553, "LNAM": "0226179E980015B1", "CATLIT": [ ], "COLOUR": [ "4" ], "EXCLIT": 4, "LITCHR": 2, "SIGGRP": "(1)", "SIGPER": 4.0, "SIGSEQ": "00.4+(03.6)", "SCAMIN": 999999, "SORDAT": "20210901", "SORIND": "US,US,reprt,1stCGD,LNM 35/21" }, "geometry": { "type": "Point", "coordinates": [ -71.5759328, 41.2573131 ] } }
]
}
