{
"type": "FeatureCollection",
"name": "LNDMRK",
"crs": { "type": "name", "properties": { "name": "urn:ogc:def:crs:OGC:1.3:CRS84" } },
"features": [
{ "type": "Feature", "properties": { "RCID": 328, "PRIM": 1, "GRUP": 2, "OBJL": 74, "RVER": 1, "AGEN": 550, "FIDN": 36852492, "FIDS": 50, "LNAM": "02260232530C0032", "LNAM_REFS": [ "02260232530D0032", "02260232530E0032" ], "FFPT_RIND": [ 2, 2 ], "CATLMK": [ "17" ], "COLOUR": [ "1", "8" ], "COLPAT": [ "1" ], "CONVIS": 1, "FUNCTN": [ "33" ], "OBJNAM": "Latimer Reef Light", "STATUS": [ "1" ], "INFORM": "Conical, Cylinder", "SCAMIN": 999999, "SORDAT": "20070619", "SORIND": "US,US,reprt,1stCGD,LNM 25/07" }, "geometry": { "type": "Point", "coordinates": [ -71.9333158, 41.3045075 ] } },
{ "type": "Feature", "properties": { "RCID": 329, "PRIM": 1, "GRUP": 2, "OBJL": 74, "RVER": 1, "AGEN": 550, "FIDN": 36834519, "FIDS": 50, "LNAM": "022602320CD70032", "LNAM_REFS": [ "022602320CD80032" ], "FFPT_RIND": [ 2 ], "CATLMK": [ "19" ], "CONVIS": 1, "FUNCTN": [ "33" ], "STATUS": [ "8" ], "INFORM": "Maintained by Orsted", "SCAMIN": 999999, "SORDAT": "20200303", "SORIND": "US,US,reprt,1stCGD,LNM 09/20" }, "geometry": { "type": "Point", "coordinates": [ -71.5376389, 41.1063306 ] } },
{ "type": "Feature", "properties": { "RCID": 330, "PRIM": 1, "GRUP": 2, "OBJL": 74, "RVER": 1, "AGEN": 550, "FIDN": 35106166, "FIDS": 50, "LNAM": "02260217AD760032", "LNAM_REFS": [ "02260217AD780032" ], "FFPT_RIND": [ 2 ], "CATLMK": [ "17" ], "COLOUR": [ "3" ], "CONVIS": 1, "FUNCTN": [ "33" ], "HEIGHT": 15.5, "NATCON": [ "1" ], "OBJNAM": "Gay Head Light", "STATUS": [ "1" ], "SCAMIN": 999999, "SORDAT": "20151117", "SORIND": "US,US,reprt,1stCGD,LNM 46/15" }, "geometry": { "type": "Point", "coordinates": [ -70.8343544, 41.34845 ] } },
{ "type": "Feature", "properties": { "RCID": 331, "PRIM": 1, "GRUP": 2, "OBJL": 74, "RVER": 1, "AGEN": 550, "FIDN": 38248822, "FIDS": 64407, "LNAM": "02260247A176FB97", "LNAM_REFS": [ "02260247A177FB97" ], "FFPT_RIND": [ 2 ], "CATLMK": [ "17" ], "CONVIS": 1, "FUNCTN": [ "31" ], "STATUS": [ "1" ], "SCAMIN": 999999, "SORDAT": "20050620", "SORIND": "US,US,graph,GC-10585" }, "geometry": { "type": "Point", "coordinates": [ -71.451866, 41.5699649 ] } },
{ "type": "Feature", "properties": { "RCID": 332, "PRIM": 1, "GRUP": 2, "OBJL": 74, "RVER": 1, "AGEN": 550, "FIDN": 36668075, "FIDS": 50, "LNAM": "0226022F82AB0032", "LNAM_REFS": [ "0226022F6F790032", "0226022F82AA0032", "0226022F82A90032" ], "FFPT_RIND": [ 2, 2, 2 ], "CATLMK": [ "17" ], "COLOUR": [ "1", "3" ], "COLPAT": [ "1" ], "CONVIS": 1, "FUNCTN": [ "33" ], "HEIGHT": 51.2, "OBJNAM": "Montauk Point Light", "STATUS": [ "1" ], "INFORM": "Conical", "SCAMIN": 999999, "SORDAT": "20050201", "SORIND": "US,US,reprt,1stCGD,LNM 05/05" }, "geometry": { "type": "Point", "coordinates": [ -71.8568767, 41.0706234 ] } },
{ "type": "Feature", "properties": { "RCID": 333, "PRIM": 1, "GRUP": 2, "OBJL": 74, "RVER": 1, "AGEN": 550, "FIDN": 35051386, "FIDS": 64369, "LNAM": "02260216D77AFB71", "LNAM_REFS": [ "02260216D779FB71" ], "FFPT_RIND": [ 2 ], "CATLMK": [ "17" ], "CONVIS": 1, "FUNCTN": [ "31" ], "STATUS": [ "1" ], "SCAMIN": 999999, "SORDAT": "20060809", "SORIND": "US,US,graph,GC-10694" }, "geometry": { "type": "Point", "coordinates": [ -70.9146385, 41.650712 ] } },
{ "type": "Feature", "properties": { "RCID": 334, "PRIM": 1, "GRUP": 2, "OBJL": 74, "RVER": 1, "AGEN": 550, "FIDN": 34463088, "FIDS": 50, "LNAM": "0226020DDD700032", "LNAM_REFS": [ "0226020DDD6F0032" ], "FFPT_RIND": [ 2 ], "CATLMK": [ ], "CONVIS": 1, "FUNCTN": [ "33" ], "STATUS": [ "1" ], "SCAMIN": 999999, "SORDAT": "200611", "SORIND": "US,US,graph,Chart 13217" }, "geometry": { "type": "Point", "coordinates": [ -71.5795057, 41.1693067 ] } },
{ "type": "Feature", "properties": { "RCID": 335, "PRIM": 1, "GRUP": 2, "OBJL": 74, "RVER": 1, "AGEN": 550, "FIDN": 36851363, "FIDS": 50, "LNAM": "022602324EA30032", "LNAM_REFS": [ "022602324EA60032", "022602324EA40032", "022602324EA50032" ], "FFPT_RIND": [ 2, 2, 2 ], "CATLMK": [ "17" ], "COLOUR": [ "7" ], "CONVIS": 1, "FUNCTN": [ "33" ], "HEIGHT": 18.6, "NATCON": [ "2" ], "OBJNAM": "Watch Hill Light", "STATUS": [ "1" ], "INFORM": "Square", "SCAMIN": 999999, "SORDAT": "200604", "SORIND": "US,US,graph,Chart 13214" }, "geometry": { "type": "Point", "coordinates": [ -71.858568, 41.3038941 ] } },
{ "type": "Feature", "properties": { "RCID": 336, "PRIM": 1, "GRUP": 2, "OBJL": 74, "RVER": 1, "AGEN": 550, "FIDN": 36834554, "FIDS": 50, "LNAM": "022602320CFA0032", "LNAM_REFS": [ "022602320C2E0032" ], "FFPT_RIND": [ 2 ], "CATLMK": [ "19" ], "CONVIS": 1, "FUNCTN": [ "33" ], "STATUS": [ "8" ], "INFORM": "Maintained by Orsted", "SCAMIN": 999999, "SORDAT": "20200303", "SORIND": "US,US,reprt,1stCGD,LNM 09/20" }, "geometry": { "type": "Point", "coordinates": [ -71.5075111, 41.1257611 ] } },
{ "type": "Feature", "properties": { "RCID": 337, "PRIM": 1, "GRUP": 2, "OBJL": 74, "RVER": 1, "AGEN": 550, "FIDN": 35324725, "FIDS": 50, "LNAM": "0226021B03350032", "LNAM_REFS": [ "0226021AFF620032", "0226021AFF770032", "0226021AFF750032" ], "FFPT_RIND": [ 2, 2, 2 ], "CATLMK": [ "17" ], "COLOUR": [ "3" ], "CONVIS": 1, "FUNCTN": [ "33" ], "HEIGHT": 20.7, "OBJNAM": "Buzzards Bay Entrance Light", "STATUS": [ "1" ], "INFORM": "Square on 3 red piles with large tube in center, worded BUZZARDS on sides", "SCAMIN": 999999, "SORDAT": "200412", "SORIND": "US,US,graph,Chart 13229" }, "geometry": { "type": "Point", "coordinates": [ -71.0346848, 41.3969771 ] } },
{ "type": "Feature", "properties": { "RCID": 338, "PRIM": 1, "GRUP": 2, "OBJL": 74, "RVER": 1, "AGEN": 550, "FIDN": 424640956, "FIDS": 8691, "LNAM": "0226194F81BC21F3", "CATLMK": [ "17" ], "COLOUR": [ "1" ], "CONVIS": 1, "FUNCTN": [ "33" ], "OBJNAM": "Block Island North Light", "STATUS": [ "8" ], "SCAMIN": 999999, "SORDAT": "20101026", "SORIND": "US,US,reprt,1stCGD,LNM-43/10" }, "geometry": { "type": "Point", "coordinates": [ -71.57585, 41.2276139 ] } },
{ "type": "Feature", "properties": { "RCID": 339, "PRIM": 1, "GRUP": 2, "OBJL": 74, "RVER": 1, "AGEN": 550, "FIDN": 19090939, "FIDS": 64375, "LNAM": "022601234DFBFB77", "LNAM_REFS": [ "0226012265C5FB77", "0226012265B6FB77" ], "FFPT_RIND": [ 2, 2 ], "CATLMK": [ "17" ], "COLOUR": [ "1" ], "CONVIS": 1, "FUNCTN": [ "33" ], "HEIGHT": 10.4, "NATCON": [ "1" ], "OBJNAM": "Castle Hill Light", "STATUS": [ "1" ], "INFORM": "Conical, upper half white", "SCAMIN": 999999, "SORDAT": "200504", "SORIND": "US,US,graph,Chart 13223" }, "geometry": { "type": "Point", "coordinates": [ -71.3629167, 41.4621667 ] } },
{ "type": "Feature", "properties": { "RCID": 340, "PRIM": 1, "GRUP": 2, "OBJL": 74, "RVER": 1, "AGEN": 550, "FIDN": 34414131, "FIDS": 50, "LNAM": "0226020D1E330032", "LNAM_REFS": [ "0226020D1B8A0032", "0226020D1B840032" ], "FFPT_RIND": [ 2, 2 ], "CATLMK": [ "17" ], "COLOUR": [ "1", "8" ], "COLPAT": [ "1" ], "CONVIS": 1, "FUNCTN": [ "33" ], "HEIGHT": 19.8, "OBJNAM": "Point Judith Light", "STATUS": [ "1" ], "INFORM": "Octagonal", "SCAMIN": 999999, "SORDAT": "20090903", "SORIND": "US,US,graph,Chart 13219" }, "geometry": { "type": "Point", "coordinates": [ -71.4813837, 41.361055 ] } },
{ "type": "Feature", "properties": { "RCID": 341, "PRIM": 1, "GRUP": 2, "OBJL": 74, "RVER": 1, "AGEN": 550, "FIDN": 34463090, "FIDS": 50, "LNAM": "0226020DDD720032", "LNAM_REFS": [ "0226020DDD740032", "0226020DDD730032", "0226020DDD750032" ], "FFPT_RIND": [ 2, 2, 2 ], "CATLMK": [ "17" ], "COLOUR": [ "3" ], "CONVIS": 1, "FUNCTN": [ "33" ], "HEIGHT": 20.4, "OBJNAM": "Block Island Southeast Light", "STATUS": [ "1" ], "INFORM": "Brick octagonal, pyramidal", "SCAMIN": 999999, "SORDAT": "20220928", "SORIND": "US,US,reprt,1stCGD,LNM 39/22" }, "geometry": { "type": "Point", "coordinates": [ -71.552065, 41.15341 ] } },
{ "type": "Feature", "properties": { "RCID": 342, "PRIM": 1, "GRUP": 2, "OBJL": 74, "RVER": 1, "AGEN": 550, "FIDN": 19090937, "FIDS": 64375, "LNAM": "022601234DF9FB77", "LNAM_REFS": [ "0226012265ACFB77", "0226012265ABFB77" ], "FFPT_RIND": [ 2, 2 ], "CATLMK": [ "17" ], "COLOUR": [ "1" ], "CONVIS": 1, "FUNCTN": [ "33" ], "HEIGHT": 21.3, "NATCON": [ "1" ], "OBJNAM": "Beavertail Light", "STATUS": [ "1" ], "INFORM": "Square", "SCAMIN": 999999, "SORDAT": "20050111", "SORIND": "US,US,reprt,1stCGD,LNM 02/05" }, "geometry": { "type": "Point", "coordinates": [ -71.3994125, 41.4493656 ] } },
{ "type": "Feature", "properties": { "RCID": 343, "PRIM": 1, "GRUP": 2, "OBJL": 74, "RVER": 1, "AGEN": 550, "FIDN": 19032096, "FIDS": 64375, "LNAM": "022601226820FB77", "LNAM_REFS": [ "02260122664DFB77" ], "FFPT_RIND": [ 2 ], "CATLMK": [ "17" ], "CONVIS": 1, "FUNCTN": [ "31" ], "STATUS": [ "1" ], "SCAMIN": 999999, "SORDAT": "20050620", "SORIND": "US,US,graph,GC-10585" }, "geometry": { "type": "Point", "coordinates": [ -71.3121556, 41.5035803 ] } },
{ "type": "Feature", "properties": { "RCID": 344, "PRIM": 1, "GRUP": 2, "OBJL": 74, "RVER": 1, "AGEN": 550, "FIDN": 36834506, "FIDS": 50, "LNAM": "022602320CCA0032", "LNAM_REFS": [ "022602320CCB0032" ], "FFPT_RIND": [ 2 ], "CATLMK": [ "17" ], "CONVIS": 1, "FUNCTN": [ "33" ], "STATUS": [ "1" ], "SCAMIN": 999999, "SORDAT": "20091005", "SORIND": "US,US,graph,Chart 13215" }, "geometry": { "type": "Point", "coordinates": [ -71.8063573, 41.3504808 ] } },
{ "type": "Feature", "properties": { "RCID": 345, "PRIM": 1, "GRUP": 2, "OBJL": 74, "RVER": 1, "AGEN": 550, "FIDN": 36834553, "FIDS": 50, "LNAM": "022602320CF90032", "LNAM_REFS": [ "022602320CA50032", "022621D7B4D007D5" ], "FFPT_RIND": [ 2, 2 ], "CATLMK": [ "19" ], "CONVIS": 1, "FUNCTN": [ "33" ], "STATUS": [ "8" ], "INFORM": "Maintained by Orsted", "SCAMIN": 999999, "SORDAT": "20200303", "SORIND": "US,US,reprt,1stCGD,LNM 09/20" }, "geometry": { "type": "Point", "coordinates": [ -71.5211611, 41.1147111 ] } },
{ "type": "Feature", "properties": { "RCID": 346, "PRIM": 1, "GRUP": 2, "OBJL": 74, "RVER": 1, "AGEN": 550, "FIDN": 36834504, "FIDS": 50, "LNAM": "022602320CC80032", "LNAM_REFS": [ "022602320CC90032" ], "FFPT_RIND": [ 2 ], "CATLMK": [ "19" ], "CONVIS": 1, "FUNCTN": [ "33" ], "STATUS": [ "8" ], "INFORM": "Maintained by Orsted", "SCAMIN": 999999, "SORDAT": "20200303", "SORIND": "US,US,reprt,1stCGD,LNM 09/20" }, "geometry": { "type": "Point", "coordinates": [ -71.5290611, 41.11015 ] } },
{ "type": "Feature", "properties": { "RCID": 347, "PRIM": 1, "GRUP": 2, "OBJL": 74, "RVER": 1, "AGEN": 550, "FIDN": 36834514, "FIDS": 50, "LNAM": "022602320CD20032", "LNAM_REFS": [ "022602320CA40032" ], "FFPT_RIND": [ 2 ], "CATLMK": [ "19" ], "CONVIS": 1, "FUNCTN": [ "33" ], "STATUS": [ "8" ], "INFORM": "Maintained by Orsted", "SCAMIN": 999999, "SORDAT": "20200303", "SORIND": "US,US,reprt,1stCGD,LNM 09/20" }, "geometry": { "type": "Point", "coordinates": [ -71.51395, 41.1198806 ] } }
]
}
