{
"type": "FeatureCollection",
"name": "LNDRGN",
"crs": { "type": "name", "properties": { "name": "urn:ogc:def:crs:OGC:1.3:CRS84" } },
"features": [
{ "type": "Feature", "properties": { "RCID": 747, "PRIM": 3, "GRUP": 2, "OBJL": 73, "RVER": 1, "AGEN": 550, "FIDN": -1483843264, "FIDS": 48294, "LNAM": "0226A78E5940BCA6", "OBJNAM": "Gay Head", "SCAMIN": 499999, "SORDAT": "200303", "SORIND": "US,US,graph,Chart 12300" }, "geometry": { "type": "Polygon", "coordinates": [ [ [ -70.8305362, 41.3385344 ], [ -70.8303271, 41.3386218 ], [ -70.8235133, 41.3418277 ], [ -70.8199006, 41.3451985 ], [ -70.8181803, 41.3510323 ], [ -70.8183138, 41.3545156 ], [ -70.8201295, 41.3535913 ], [ -70.8247512, 41.3535146 ], [ -70.8287351, 41.3536055 ], [ -70.8336333, 41.3538751 ], [ -70.8353137, 41.3512535 ], [ -70.8360091, 41.3494338 ], [ -70.8388465, 41.3477561 ], [ -70.8383861, 41.3463201 ], [ -70.8342428, 41.3418403 ], [ -70.8305362, 41.3385344 ] ] ] } },
{ "type": "Feature", "properties": { "RCID": 748, "PRIM": 3, "GRUP": 2, "OBJL": 73, "RVER": 1, "AGEN": 550, "FIDN": 1920180096, "FIDS": 48294, "LNAM": "022672739F80BCA6", "OBJNAM": "Montauk Point", "SCAMIN": 499999, "SORDAT": "200303", "SORIND": "US,US,graph,Chart 12300" }, "geometry": { "type": "Polygon", "coordinates": [ [ [ -71.8764125, 41.0772726 ], [ -71.8773973, 41.0733958 ], [ -71.8771997, 41.068861 ], [ -71.874895, 41.0631298 ], [ -71.8706643, 41.0575591 ], [ -71.8685754, 41.0590596 ], [ -71.8669085, 41.0594643 ], [ -71.8667198, 41.0600119 ], [ -71.8664996, 41.0607736 ], [ -71.8661851, 41.0616306 ], [ -71.8644239, 41.0628446 ], [ -71.8641948, 41.06301 ], [ -71.8617191, 41.0647966 ], [ -71.8587823, 41.0672792 ], [ -71.8571304, 41.0691816 ], [ -71.8568111, 41.0699818 ], [ -71.8567742, 41.070329 ], [ -71.856693, 41.0710934 ], [ -71.8566839, 41.0711794 ], [ -71.8568535, 41.0720776 ], [ -71.857122, 41.072655 ], [ -71.85731, 41.0729047 ], [ -71.8587603, 41.0736753 ], [ -71.8588149, 41.0737521 ], [ -71.8603487, 41.0747659 ], [ -71.8615207, 41.0753509 ], [ -71.8637401, 41.075917 ], [ -71.866583, 41.0762347 ], [ -71.8684117, 41.0759831 ], [ -71.8717575, 41.0755113 ], [ -71.8733368, 41.0756528 ], [ -71.8744382, 41.0765964 ], [ -71.8764125, 41.0772726 ] ] ] } },
{ "type": "Feature", "properties": { "RCID": 749, "PRIM": 3, "GRUP": 2, "OBJL": 73, "RVER": 1, "AGEN": 550, "FIDN": 442310953, "FIDS": 48294, "LNAM": "02261A5D2129BCA6", "OBJNAM": "Watch Hill Point", "SCAMIN": 499999, "SORDAT": "200303", "SORIND": "US,US,graph,Chart 12300" }, "geometry": { "type": "Polygon", "coordinates": [ [ [ -71.8579338, 41.3081656 ], [ -71.8657119, 41.3109428 ], [ -71.8762335, 41.3091294 ], [ -71.8840257, 41.3057564 ], [ -71.8863639, 41.3067128 ], [ -71.8866627, 41.3080754 ], [ -71.8843057, 41.3077558 ], [ -71.8826914, 41.3098125 ], [ -71.8785636, 41.3099173 ], [ -71.8718516, 41.3113499 ], [ -71.8620452, 41.3125126 ], [ -71.8610377, 41.3107603 ], [ -71.8582555, 41.3107166 ], [ -71.855944, 41.3109 ], [ -71.8502606, 41.3095328 ], [ -71.8502689, 41.309501 ], [ -71.8547918, 41.3077078 ], [ -71.8579338, 41.3081656 ] ] ] } },
{ "type": "Feature", "properties": { "RCID": 750, "PRIM": 3, "GRUP": 2, "OBJL": 73, "RVER": 1, "AGEN": 550, "FIDN": -908654645, "FIDS": 48294, "LNAM": "0226C9D707CBBCA6", "OBJNAM": "Sakonnet Point", "SCAMIN": 499999, "SORDAT": "200303", "SORIND": "US,US,graph,Chart 12300" }, "geometry": { "type": "Polygon", "coordinates": [ [ [ -71.1868969, 41.4599833 ], [ -71.185315, 41.4606974 ], [ -71.1823634, 41.4603786 ], [ -71.1807299, 41.459427 ], [ -71.1784941, 41.4610369 ], [ -71.1771126, 41.4591683 ], [ -71.1740977, 41.4605028 ], [ -71.1740012, 41.4616807 ], [ -71.1728968, 41.4605203 ], [ -71.1708937, 41.4606839 ], [ -71.1710311, 41.4583541 ], [ -71.1686938, 41.4614129 ], [ -71.1699529, 41.4641677 ], [ -71.1687405, 41.4679335 ], [ -71.1698357, 41.4694439 ], [ -71.1701421, 41.4694302 ], [ -71.170117, 41.4694584 ], [ -71.1900324, 41.4775303 ], [ -71.1916444, 41.474968 ], [ -71.1915198, 41.4728329 ], [ -71.1920355, 41.4710942 ], [ -71.1934873, 41.4685946 ], [ -71.1931339, 41.4665871 ], [ -71.1919491, 41.4644886 ], [ -71.1949275, 41.4637252 ], [ -71.1963996, 41.4650451 ], [ -71.1965789, 41.4620972 ], [ -71.1948041, 41.4561156 ], [ -71.1934165, 41.4567403 ], [ -71.1908334, 41.4552674 ], [ -71.1916873, 41.4582076 ], [ -71.1898079, 41.4586912 ], [ -71.1873539, 41.4580492 ], [ -71.1879762, 41.4588197 ], [ -71.1868969, 41.4599833 ] ] ] } },
{ "type": "Feature", "properties": { "RCID": 751, "PRIM": 3, "GRUP": 2, "OBJL": 73, "RVER": 1, "AGEN": 550, "FIDN": -1467510870, "FIDS": 48294, "LNAM": "0226A8878FAABCA6", "OBJNAM": "Point Judith", "SCAMIN": 499999, "SORDAT": "200303", "SORIND": "US,US,graph,Chart 12300" }, "geometry": { "type": "Polygon", "coordinates": [ [ [ -71.4992728, 41.3829939 ], [ -71.4855717, 41.3748939 ], [ -71.483675, 41.3734587 ], [ -71.4827812, 41.3730695 ], [ -71.4841265, 41.3702784 ], [ -71.4834468, 41.3668802 ], [ -71.4821325, 41.3648687 ], [ -71.4804388, 41.3622884 ], [ -71.4811076, 41.3607041 ], [ -71.4872087, 41.3619993 ], [ -71.4886406, 41.3605162 ], [ -71.4898645, 41.3647498 ], [ -71.4917314, 41.3658362 ], [ -71.4977034, 41.3711414 ], [ -71.502297, 41.3734601 ], [ -71.5116866, 41.3753304 ], [ -71.5132684, 41.3750756 ], [ -71.5121216, 41.3767417 ], [ -71.5131843, 41.3777596 ], [ -71.5132396, 41.3779677 ], [ -71.5138606, 41.380304 ], [ -71.5134741, 41.3818307 ], [ -71.5121216, 41.38343 ], [ -71.5104793, 41.3846658 ], [ -71.5095132, 41.3849566 ], [ -71.5080641, 41.3849566 ], [ -71.5060786, 41.3853123 ], [ -71.5050692, 41.3851747 ], [ -71.5047795, 41.3848839 ], [ -71.5042964, 41.3837935 ], [ -71.5042964, 41.3835027 ], [ -71.5040066, 41.3832846 ], [ -71.5033303, 41.3832846 ], [ -71.5029439, 41.3837208 ], [ -71.5019778, 41.3840843 ], [ -71.5013016, 41.3839389 ], [ -71.5009152, 41.3835027 ], [ -71.5004321, 41.3829939 ], [ -71.5000457, 41.3829211 ], [ -71.4992728, 41.3829939 ] ] ] } },
{ "type": "Feature", "properties": { "RCID": 850, "PRIM": 1, "GRUP": 2, "OBJL": 73, "RVER": 1, "AGEN": 550, "FIDN": 590160908, "FIDS": 48294, "LNAM": "0226232D240CBCA6", "OBJNAM": "Connecticut", "SCAMIN": 499999, "SORDAT": "201206", "SORIND": "US,US,graph,Chart 12300" }, "geometry": { "type": "Point", "coordinates": [ -71.808409, 41.4583519 ] } },
{ "type": "Feature", "properties": { "RCID": 851, "PRIM": 1, "GRUP": 2, "OBJL": 73, "RVER": 1, "AGEN": 550, "FIDN": 1204864826, "FIDS": 48294, "LNAM": "022647D0C73ABCA6", "OBJNAM": "Rhode Island", "SCAMIN": 499999, "SORDAT": "201206", "SORIND": "US,US,graph,Chart 12300" }, "geometry": { "type": "Point", "coordinates": [ -71.132141, 41.5406899 ] } },
{ "type": "Feature", "properties": { "RCID": 852, "PRIM": 1, "GRUP": 2, "OBJL": 73, "RVER": 1, "AGEN": 550, "FIDN": 1033337465, "FIDS": 48294, "LNAM": "02263D977A79BCA6", "OBJNAM": "Massachusetts", "SCAMIN": 499999, "SORDAT": "201206", "SORIND": "US,US,graph,Chart 12300" }, "geometry": { "type": "Point", "coordinates": [ -71.1227228, 41.5411697 ] } },
{ "type": "Feature", "properties": { "RCID": 853, "PRIM": 1, "GRUP": 2, "OBJL": 73, "RVER": 1, "AGEN": 550, "FIDN": -760937613, "FIDS": 48294, "LNAM": "0226D2A50373BCA6", "OBJNAM": "Rhode Island", "SCAMIN": 499999, "SORDAT": "201206", "SORIND": "US,US,graph,Chart 12300" }, "geometry": { "type": "Point", "coordinates": [ -71.7868885, 41.4581937 ] } },
{ "type": "Feature", "properties": { "RCID": 854, "PRIM": 1, "GRUP": 2, "OBJL": 73, "RVER": 1, "AGEN": 550, "FIDN": 1190678750, "FIDS": 48294, "LNAM": "022646F850DEBCA6", "OBJNAM": "Massachusetts", "SCAMIN": 499999, "SORDAT": "201207", "SORIND": "US,US,graph,Chart 13006" }, "geometry": { "type": "Point", "coordinates": [ -71.1178248, 41.9432675 ] } }
]
}
