{
"type": "FeatureCollection",
"name": "MAGVAR",
"crs": { "type": "name", "properties": { "name": "urn:ogc:def:crs:OGC:1.3:CRS84" } },
"features": [
{ "type": "Feature", "properties": { "RCID": 1147, "PRIM": 3, "GRUP": 2, "OBJL": 81, "RVER": 1, "AGEN": 550, "FIDN": 586880207, "FIDS": 8650, "LNAM": "022622FB14CF21CA", "RYRMGV": "2021", "VALACM": 3.0, "VALMAG": -14.0, "SCAMIN": 499999, "SORDAT": "2021", "SORIND": "US,US,reprt,L-146-2021" }, "geometry": { "type": "Polygon", "coordinates": [ [ [ -71.1281045, 40.8 ], [ -71.0842788, 40.8 ], [ -71.0897998, 40.8102002 ], [ -71.1, 40.8290463 ], [ -71.1374867, 40.8988445 ], [ -71.1381073, 40.9 ], [ -71.1923268, 41.0 ], [ -71.1950327, 41.0049673 ], [ -71.2, 41.0140855 ], [ -71.2464467, 41.1 ], [ -71.265296, 41.134704 ], [ -71.277899, 41.1579069 ], [ -71.2783925, 41.1588154 ], [ -71.3, 41.1985963 ], [ -71.3004913, 41.1995087 ], [ -71.3007567, 41.2 ], [ -71.3551635, 41.3 ], [ -71.4, 41.3820295 ], [ -71.40631, 41.39369 ], [ -71.4097248, 41.4 ], [ -71.4213681, 41.4213681 ], [ -71.4415518, 41.4584482 ], [ -71.4642491, 41.5 ], [ -71.5, 41.5650007 ], [ -71.5190595, 41.6 ], [ -71.5420773, 41.6420773 ], [ -71.5476803, 41.6523197 ], [ -71.5737625, 41.7 ], [ -71.6, 41.7475345 ], [ -71.6287462, 41.8 ], [ -71.6837828, 41.9 ], [ -71.7, 41.929335 ], [ -71.7387802, 42.0 ], [ -71.799106, 42.0 ], [ -72.0, 42.0 ], [ -72.0, 41.5833334 ], [ -72.0, 41.3169902 ], [ -72.0, 41.2673949 ], [ -72.0, 41.2535866 ], [ -72.0, 41.2491278 ], [ -72.0, 41.247081 ], [ -72.0, 41.2409518 ], [ -72.0, 41.2147877 ], [ -72.0, 41.2008619 ], [ -72.0, 41.1635396 ], [ -72.0, 41.1623146 ], [ -72.0, 41.1553136 ], [ -72.0, 41.1413773 ], [ -72.0, 41.1223042 ], [ -72.0, 41.1209819 ], [ -72.0, 41.1203578 ], [ -72.0, 41.1112283 ], [ -72.0, 41.1018728 ], [ -72.0, 41.0868021 ], [ -72.0, 41.0400775 ], [ -72.0, 41.011299 ], [ -72.0, 40.9853981 ], [ -72.0, 40.9558938 ], [ -72.0, 40.9554974 ], [ -72.0, 40.9276744 ], [ -72.0, 40.9222165 ], [ -72.0, 40.8744382 ], [ -72.0, 40.8708543 ], [ -72.0, 40.8 ], [ -71.974212, 40.8 ], [ -71.9730725, 40.8 ], [ -71.9730557, 40.8 ], [ -71.8221249, 40.8 ], [ -71.767163, 40.8 ], [ -71.7326083, 40.8 ], [ -71.5993927, 40.8 ], [ -71.587095, 40.8 ], [ -71.5809726, 40.8 ], [ -71.5720675, 40.8 ], [ -71.5501019, 40.8 ], [ -71.4758291, 40.8 ], [ -71.466183, 40.8 ], [ -71.3963173, 40.8 ], [ -71.3555565, 40.8 ], [ -71.2979139, 40.8 ], [ -71.2664324, 40.8 ], [ -71.1281045, 40.8 ] ] ] } },
{ "type": "Feature", "properties": { "RCID": 1148, "PRIM": 3, "GRUP": 2, "OBJL": 81, "RVER": 1, "AGEN": 550, "FIDN": 860337574, "FIDS": 8650, "LNAM": "02263347B5A621CA", "RYRMGV": "2021", "VALACM": 3.0, "VALMAG": -15.0, "SCAMIN": 499999, "SORDAT": "2021", "SORIND": "US,US,reprt,L-146-2021" }, "geometry": { "type": "Polygon", "coordinates": [ [ [ -70.8495205, 40.8 ], [ -70.8, 40.8 ], [ -70.8, 40.816397 ], [ -70.8, 40.8208336 ], [ -70.8, 40.8336402 ], [ -70.8, 40.8487154 ], [ -70.8, 41.041225 ], [ -70.8, 41.0488713 ], [ -70.8, 41.0492312 ], [ -70.8, 41.0544132 ], [ -70.8, 41.0803211 ], [ -70.8, 41.198721 ], [ -70.8, 41.199065 ], [ -70.8, 41.1994269 ], [ -70.8, 41.2085354 ], [ -70.8, 41.2362382 ], [ -70.8, 41.2408172 ], [ -70.8, 41.2466105 ], [ -70.8, 41.2540488 ], [ -70.8250274, 41.2749726 ], [ -70.8549635, 41.3 ], [ -70.9, 41.3375757 ], [ -70.9340121, 41.3659879 ], [ -70.9748183, 41.4 ], [ -70.9885714, 41.4114286 ], [ -71.0, 41.4209257 ], [ -71.0949276, 41.5 ], [ -71.0976986, 41.5023014 ], [ -71.1, 41.5042084 ], [ -71.1248519, 41.5248519 ], [ -71.1523288, 41.5476712 ], [ -71.2, 41.5873494 ], [ -71.2068965, 41.5931035 ], [ -71.2151806, 41.6 ], [ -71.261572, 41.638428 ], [ -71.3, 41.6702593 ], [ -71.3162577, 41.6837423 ], [ -71.3358176, 41.7 ], [ -71.4, 41.7531873 ], [ -71.4564903, 41.8 ], [ -71.4803261, 41.8196739 ], [ -71.5, 41.8359127 ], [ -71.5350896, 41.8649104 ], [ -71.5776442, 41.9 ], [ -71.5899078, 41.9100922 ], [ -71.6, 41.9184158 ], [ -71.6446613, 41.9553387 ], [ -71.6988011, 42.0 ], [ -71.7387802, 42.0 ], [ -71.7, 41.929335 ], [ -71.6837828, 41.9 ], [ -71.6287462, 41.8 ], [ -71.6, 41.7475345 ], [ -71.5737625, 41.7 ], [ -71.5476803, 41.6523197 ], [ -71.5420773, 41.6420773 ], [ -71.5190595, 41.6 ], [ -71.5, 41.5650007 ], [ -71.4642491, 41.5 ], [ -71.4415518, 41.4584482 ], [ -71.4213681, 41.4213681 ], [ -71.4097248, 41.4 ], [ -71.40631, 41.39369 ], [ -71.4, 41.3820295 ], [ -71.3551635, 41.3 ], [ -71.3007567, 41.2 ], [ -71.3004913, 41.1995087 ], [ -71.3, 41.1985963 ], [ -71.2783925, 41.1588154 ], [ -71.277899, 41.1579069 ], [ -71.265296, 41.134704 ], [ -71.2464467, 41.1 ], [ -71.2, 41.0140855 ], [ -71.1950327, 41.0049673 ], [ -71.1923268, 41.0 ], [ -71.1381073, 40.9 ], [ -71.1374867, 40.8988445 ], [ -71.1, 40.8290463 ], [ -71.0897998, 40.8102002 ], [ -71.0842788, 40.8 ], [ -70.9970323, 40.8 ], [ -70.9246177, 40.8 ], [ -70.904912, 40.8 ], [ -70.8633834, 40.8 ], [ -70.8580041, 40.8 ], [ -70.8495205, 40.8 ] ] ] } },
{ "type": "Feature", "properties": { "RCID": 1149, "PRIM": 3, "GRUP": 2, "OBJL": 81, "RVER": 1, "AGEN": 550, "FIDN": 955615829, "FIDS": 8650, "LNAM": "022638F58A5521CA", "RYRMGV": "2021", "VALACM": 4.0, "VALMAG": -15.0, "SCAMIN": 499999, "SORDAT": "2021", "SORIND": "US,US,reprt,L-146-2021" }, "geometry": { "type": "Polygon", "coordinates": [ [ [ -70.8, 41.5833334 ], [ -70.8, 41.6535957 ], [ -70.8, 42.0 ], [ -71.381505, 42.0 ], [ -71.6988011, 42.0 ], [ -71.6446613, 41.9553387 ], [ -71.6, 41.9184158 ], [ -71.5899078, 41.9100922 ], [ -71.5776442, 41.9 ], [ -71.5350896, 41.8649104 ], [ -71.5, 41.8359127 ], [ -71.4803261, 41.8196739 ], [ -71.4564903, 41.8 ], [ -71.4, 41.7531873 ], [ -71.3358176, 41.7 ], [ -71.3162577, 41.6837423 ], [ -71.3, 41.6702593 ], [ -71.261572, 41.638428 ], [ -71.2151806, 41.6 ], [ -71.2068965, 41.5931035 ], [ -71.2, 41.5873494 ], [ -71.1523288, 41.5476712 ], [ -71.1248519, 41.5248519 ], [ -71.1, 41.5042084 ], [ -71.0976986, 41.5023014 ], [ -71.0949276, 41.5 ], [ -71.0, 41.4209257 ], [ -70.9885714, 41.4114286 ], [ -70.9748183, 41.4 ], [ -70.9340121, 41.3659879 ], [ -70.9, 41.3375757 ], [ -70.8549635, 41.3 ], [ -70.8250274, 41.2749726 ], [ -70.8, 41.2540488 ], [ -70.8, 41.2649852 ], [ -70.8, 41.2667367 ], [ -70.8, 41.2709419 ], [ -70.8, 41.2744904 ], [ -70.8, 41.2768138 ], [ -70.8, 41.2965773 ], [ -70.8, 41.3019811 ], [ -70.8, 41.3092413 ], [ -70.8, 41.3144456 ], [ -70.8, 41.3541151 ], [ -70.8, 41.4466234 ], [ -70.8, 41.4681269 ], [ -70.8, 41.5833334 ] ] ] } }
]
}
