{
"type": "FeatureCollection",
"name": "M_QUAL",
"crs": { "type": "name", "properties": { "name": "urn:ogc:def:crs:OGC:1.3:CRS84" } },
"features": [
{ "type": "Feature", "properties": { "RCID": 205, "PRIM": 3, "GRUP": 2, "OBJL": 308, "RVER": 1, "AGEN": 550, "FIDN": 872079899, "FIDS": 8691, "LNAM": "022633FAE21B21F3", "CATZOC": 3, "SUREND": "19910101", "SURSTA": "19910101", "SORDAT": "20220711", "SORIND": "US,US,graph,DD36634" }, "geometry": { "type": "Polygon", "coordinates": [ [ [ -71.55, 41.1165252 ], [ -71.5461431, 41.1144061 ], [ -71.5419352, 41.1145582 ], [ -71.535598, 41.1116177 ], [ -71.5301733, 41.1085251 ], [ -71.5278919, 41.1007683 ], [ -71.5323469, 41.1013728 ], [ -71.5365585, 41.1018725 ], [ -71.5405203, 41.1024078 ], [ -71.544268, 41.1023364 ], [ -71.5464452, 41.1041567 ], [ -71.55, 41.1063532 ], [ -71.55, 41.1069771 ], [ -71.55, 41.1070073 ], [ -71.55, 41.1110362 ], [ -71.55, 41.1110737 ], [ -71.55, 41.1112266 ], [ -71.55, 41.1117244 ], [ -71.55, 41.1117395 ], [ -71.55, 41.1117562 ], [ -71.55, 41.111987 ], [ -71.55, 41.112001 ], [ -71.55, 41.112014 ], [ -71.55, 41.1130123 ], [ -71.55, 41.1130684 ], [ -71.55, 41.1130811 ], [ -71.55, 41.1130829 ], [ -71.55, 41.1131089 ], [ -71.55, 41.1131396 ], [ -71.55, 41.1134116 ], [ -71.55, 41.1134144 ], [ -71.55, 41.113522 ], [ -71.55, 41.1135624 ], [ -71.55, 41.1136285 ], [ -71.55, 41.1146018 ], [ -71.55, 41.1147003 ], [ -71.55, 41.1148172 ], [ -71.55, 41.1165252 ] ] ] } },
{ "type": "Feature", "properties": { "RCID": 206, "PRIM": 3, "GRUP": 2, "OBJL": 308, "RVER": 1, "AGEN": 550, "FIDN": 563339092, "FIDS": 8691, "LNAM": "02262193DF5421F3", "CATZOC": 5, "SUREND": "19380101", "SURSTA": "19380101", "SORDAT": "20220711", "SORIND": "US,US,graph,DD36634" }, "geometry": { "type": "Polygon", "coordinates": [ [ [ -71.5278919, 41.1007683 ], [ -71.5232276, 41.1020864 ], [ -71.5218588, 41.1113135 ], [ -71.5239374, 41.116434 ], [ -71.5272328, 41.1171945 ], [ -71.5303254, 41.1182591 ], [ -71.5292607, 41.1198814 ], [ -71.5249514, 41.1192224 ], [ -71.5227207, 41.121301 ], [ -71.520642, 41.1248499 ], [ -71.521656, 41.1265736 ], [ -71.5309844, 41.1237345 ], [ -71.5322012, 41.1275368 ], [ -71.5233797, 41.1317955 ], [ -71.5249007, 41.1400086 ], [ -71.5307309, 41.1416309 ], [ -71.5342291, 41.1384369 ], [ -71.5393496, 41.1383355 ], [ -71.5423408, 41.1343304 ], [ -71.5445715, 41.133215 ], [ -71.5458897, 41.1350909 ], [ -71.5446222, 41.1367639 ], [ -71.545332, 41.1379299 ], [ -71.548526, 41.1367132 ], [ -71.5489822, 41.1353443 ], [ -71.55, 41.1337287 ], [ -71.55, 41.1335912 ], [ -71.55, 41.1332632 ], [ -71.55, 41.1329507 ], [ -71.55, 41.1329342 ], [ -71.55, 41.1320383 ], [ -71.55, 41.1317695 ], [ -71.55, 41.1306403 ], [ -71.55, 41.1306385 ], [ -71.55, 41.1306114 ], [ -71.55, 41.1306104 ], [ -71.55, 41.1305753 ], [ -71.55, 41.1305441 ], [ -71.55, 41.1305414 ], [ -71.55, 41.1293443 ], [ -71.55, 41.1293434 ], [ -71.55, 41.129162 ], [ -71.55, 41.1291605 ], [ -71.55, 41.1291276 ], [ -71.55, 41.1290906 ], [ -71.55, 41.1290849 ], [ -71.55, 41.1289674 ], [ -71.55, 41.1289265 ], [ -71.55, 41.1165252 ], [ -71.5461431, 41.1144061 ], [ -71.5419352, 41.1145582 ], [ -71.535598, 41.1116177 ], [ -71.5301733, 41.1085251 ], [ -71.5278919, 41.1007683 ] ] ] } },
{ "type": "Feature", "properties": { "RCID": 207, "PRIM": 3, "GRUP": 2, "OBJL": 308, "RVER": 1, "AGEN": 550, "FIDN": 928088083, "FIDS": 8691, "LNAM": "02263751801321F3", "CATZOC": 1, "SUREND": "20120829", "SURSTA": "20120829", "SORDAT": "20220711", "SORIND": "US,US,graph,DD36634" }, "geometry": { "type": "Polygon", "coordinates": [ [ [ -71.5278919, 41.1007683 ], [ -71.5232276, 41.1020864 ], [ -71.5192305, 41.1020162 ], [ -71.519209, 41.1 ], [ -71.5198122, 41.1 ], [ -71.5314679, 41.1 ], [ -71.5351658, 41.1 ], [ -71.5376955, 41.1 ], [ -71.537716, 41.1 ], [ -71.5379089, 41.1 ], [ -71.538093, 41.1 ], [ -71.542367, 41.1 ], [ -71.5428235, 41.1 ], [ -71.5428753, 41.1 ], [ -71.5491649, 41.1 ], [ -71.5496163, 41.1 ], [ -71.55, 41.1 ], [ -71.55, 41.100039 ], [ -71.55, 41.100046 ], [ -71.55, 41.1002237 ], [ -71.55, 41.1027766 ], [ -71.55, 41.103346 ], [ -71.55, 41.1034519 ], [ -71.55, 41.1035592 ], [ -71.55, 41.1035639 ], [ -71.55, 41.1035954 ], [ -71.55, 41.103598 ], [ -71.55, 41.1045351 ], [ -71.55, 41.1050933 ], [ -71.55, 41.1052777 ], [ -71.55, 41.1054681 ], [ -71.55, 41.1061374 ], [ -71.55, 41.1063532 ], [ -71.5464452, 41.1041567 ], [ -71.544268, 41.1023364 ], [ -71.5405203, 41.1024078 ], [ -71.5365585, 41.1018725 ], [ -71.5323469, 41.1013728 ], [ -71.5278919, 41.1007683 ] ] ] } },
{ "type": "Feature", "properties": { "RCID": 208, "PRIM": 3, "GRUP": 2, "OBJL": 308, "RVER": 1, "AGEN": 550, "FIDN": 213207497, "FIDS": 8691, "LNAM": "02260CB549C921F3", "CATZOC": 5, "SUREND": "19390101", "SURSTA": "19390101", "SORDAT": "20220711", "SORIND": "US,US,graph,DD36634" }, "geometry": { "type": "Polygon", "coordinates": [ [ [ -71.5232276, 41.1020864 ], [ -71.5192305, 41.1020162 ], [ -71.5192566, 41.1044657 ], [ -71.5203036, 41.11208 ], [ -71.5196849, 41.1144595 ], [ -71.5207795, 41.1216454 ], [ -71.5175434, 41.1234062 ], [ -71.519209, 41.1266899 ], [ -71.5197325, 41.1299735 ], [ -71.5185904, 41.1332572 ], [ -71.520256, 41.1414425 ], [ -71.519447, 41.1444883 ], [ -71.5196135, 41.1488427 ], [ -71.5201846, 41.1604782 ], [ -71.5199704, 41.1665459 ], [ -71.5213316, 41.1683289 ], [ -71.5239014, 41.1683289 ], [ -71.532907, 41.1669188 ], [ -71.5322288, 41.1627429 ], [ -71.5321218, 41.1578888 ], [ -71.5330497, 41.1516427 ], [ -71.5336922, 41.1453609 ], [ -71.5359051, 41.1432551 ], [ -71.5371543, 41.1405782 ], [ -71.5417586, 41.1389721 ], [ -71.545332, 41.1379299 ], [ -71.5446222, 41.1367639 ], [ -71.5458897, 41.1350909 ], [ -71.5445715, 41.133215 ], [ -71.5423408, 41.1343304 ], [ -71.5393496, 41.1383355 ], [ -71.5342291, 41.1384369 ], [ -71.5307309, 41.1416309 ], [ -71.5249007, 41.1400086 ], [ -71.5233797, 41.1317955 ], [ -71.5322012, 41.1275368 ], [ -71.5309844, 41.1237345 ], [ -71.521656, 41.1265736 ], [ -71.520642, 41.1248499 ], [ -71.5227207, 41.121301 ], [ -71.5249514, 41.1192224 ], [ -71.5292607, 41.1198814 ], [ -71.5303254, 41.1182591 ], [ -71.5272328, 41.1171945 ], [ -71.5239374, 41.116434 ], [ -71.5218588, 41.1113135 ], [ -71.5232276, 41.1020864 ] ] ] } },
{ "type": "Feature", "properties": { "RCID": 209, "PRIM": 3, "GRUP": 2, "OBJL": 308, "RVER": 1, "AGEN": 550, "FIDN": 556312425, "FIDS": 8691, "LNAM": "02262128A76921F3", "CATZOC": 1, "SUREND": "20140623", "SURSTA": "20090519", "SORDAT": "20220711", "SORIND": "US,US,graph,DD36634" }, "geometry": { "type": "Polygon", "coordinates": [ [ [ -71.4838746, 41.1 ], [ -71.475, 41.1 ], [ -71.475, 41.1342911 ], [ -71.475, 41.1576204 ], [ -71.475, 41.1617909 ], [ -71.475, 41.1690266 ], [ -71.475, 41.1699344 ], [ -71.475, 41.1738084 ], [ -71.475, 41.175 ], [ -71.4776287, 41.175 ], [ -71.4778421, 41.175 ], [ -71.4778532, 41.175 ], [ -71.4779355, 41.175 ], [ -71.4794544, 41.175 ], [ -71.4797237, 41.175 ], [ -71.4799334, 41.175 ], [ -71.5042679, 41.175 ], [ -71.504938, 41.175 ], [ -71.5049447, 41.175 ], [ -71.5051322, 41.175 ], [ -71.5051348, 41.175 ], [ -71.5058081, 41.175 ], [ -71.5080923, 41.175 ], [ -71.5120553, 41.175 ], [ -71.5165982, 41.175 ], [ -71.5199704, 41.1665459 ], [ -71.5201846, 41.1604782 ], [ -71.5196135, 41.1488427 ], [ -71.519447, 41.1444883 ], [ -71.520256, 41.1414425 ], [ -71.5185904, 41.1332572 ], [ -71.5197325, 41.1299735 ], [ -71.519209, 41.1266899 ], [ -71.5175434, 41.1234062 ], [ -71.5207795, 41.1216454 ], [ -71.5196849, 41.1144595 ], [ -71.5203036, 41.11208 ], [ -71.5192566, 41.1044657 ], [ -71.5192305, 41.1020162 ], [ -71.519209, 41.1 ], [ -71.5074607, 41.1 ], [ -71.4838746, 41.1 ] ] ] } },
{ "type": "Feature", "properties": { "RCID": 210, "PRIM": 3, "GRUP": 2, "OBJL": 308, "RVER": 1, "AGEN": 550, "FIDN": 736625583, "FIDS": 8691, "LNAM": "02262BE803AF21F3", "CATZOC": 3, "SUREND": "20180827", "SURSTA": "19390101", "SORDAT": "20220711", "SORIND": "US,US,graph,DD36634" }, "geometry": { "type": "Polygon", "coordinates": [ [ [ -71.545332, 41.1379299 ], [ -71.5417586, 41.1389721 ], [ -71.5371543, 41.1405782 ], [ -71.5359051, 41.1432551 ], [ -71.5336922, 41.1453609 ], [ -71.5330497, 41.1516427 ], [ -71.5321218, 41.1578888 ], [ -71.5322288, 41.1627429 ], [ -71.532907, 41.1669188 ], [ -71.5350842, 41.1683108 ], [ -71.535798, 41.1699883 ], [ -71.5349414, 41.1712732 ], [ -71.5364762, 41.1729865 ], [ -71.5366255, 41.175 ], [ -71.5397767, 41.175 ], [ -71.539778, 41.175 ], [ -71.5400691, 41.175 ], [ -71.5402466, 41.175 ], [ -71.540247, 41.175 ], [ -71.5402633, 41.175 ], [ -71.5423773, 41.175 ], [ -71.5428482, 41.175 ], [ -71.5430484, 41.175 ], [ -71.5465579, 41.175 ], [ -71.5465583, 41.175 ], [ -71.5465909, 41.175 ], [ -71.5466347, 41.175 ], [ -71.546673, 41.175 ], [ -71.5476557, 41.175 ], [ -71.5487088, 41.175 ], [ -71.549437, 41.175 ], [ -71.5494826, 41.175 ], [ -71.54951, 41.175 ], [ -71.5498316, 41.175 ], [ -71.55, 41.175 ], [ -71.55, 41.1749563 ], [ -71.55, 41.1744368 ], [ -71.55, 41.174434 ], [ -71.55, 41.1739966 ], [ -71.55, 41.1738298 ], [ -71.55, 41.1726049 ], [ -71.55, 41.1718611 ], [ -71.55, 41.1718608 ], [ -71.55, 41.171841 ], [ -71.55, 41.1716527 ], [ -71.55, 41.1716024 ], [ -71.55, 41.171602 ], [ -71.55, 41.1713799 ], [ -71.55, 41.171011 ], [ -71.55, 41.1710105 ], [ -71.55, 41.1708878 ], [ -71.55, 41.1695497 ], [ -71.55, 41.1694702 ], [ -71.55, 41.1693278 ], [ -71.55, 41.1693274 ], [ -71.55, 41.1692582 ], [ -71.55, 41.1691589 ], [ -71.55, 41.1690082 ], [ -71.55, 41.1686956 ], [ -71.55, 41.1685652 ], [ -71.55, 41.1685632 ], [ -71.55, 41.1683516 ], [ -71.55, 41.1682349 ], [ -71.55, 41.1682181 ], [ -71.55, 41.1679475 ], [ -71.55, 41.1679474 ], [ -71.55, 41.1679365 ], [ -71.55, 41.167804 ], [ -71.55, 41.1678032 ], [ -71.55, 41.1677564 ], [ -71.55, 41.1676692 ], [ -71.55, 41.1675584 ], [ -71.55, 41.1675128 ], [ -71.55, 41.1672207 ], [ -71.55, 41.1666343 ], [ -71.55, 41.1666101 ], [ -71.55, 41.1666091 ], [ -71.55, 41.166481 ], [ -71.5499537, 41.1664884 ], [ -71.5497413, 41.1665225 ], [ -71.5496974, 41.1665151 ], [ -71.5495611, 41.1664921 ], [ -71.5491375, 41.1660203 ], [ -71.5486174, 41.1657353 ], [ -71.5480652, 41.1656041 ], [ -71.5473818, 41.1657743 ], [ -71.5470566, 41.1657984 ], [ -71.5467631, 41.1657764 ], [ -71.5466312, 41.1657242 ], [ -71.5460561, 41.165347 ], [ -71.5454778, 41.1651281 ], [ -71.5454335, 41.1651114 ], [ -71.5454327, 41.1651111 ], [ -71.5454214, 41.1651068 ], [ -71.545356, 41.1650821 ], [ -71.5451813, 41.1649807 ], [ -71.5450272, 41.1648033 ], [ -71.5450216, 41.1647709 ], [ -71.5449875, 41.1645758 ], [ -71.545218, 41.1641754 ], [ -71.5453429, 41.1639584 ], [ -71.5454009, 41.1638577 ], [ -71.5454793, 41.1633086 ], [ -71.5454606, 41.1630229 ], [ -71.545417, 41.1629298 ], [ -71.545381, 41.1628529 ], [ -71.5450608, 41.1625617 ], [ -71.5447898, 41.1621471 ], [ -71.5443929, 41.1618115 ], [ -71.5443048, 41.1616148 ], [ -71.5443234, 41.1614151 ], [ -71.5443921, 41.1612524 ], [ -71.5446981, 41.1609063 ], [ -71.5452332, 41.1603011 ], [ -71.5455286, 41.1596487 ], [ -71.5455365, 41.1596124 ], [ -71.5455591, 41.159509 ], [ -71.5455714, 41.1594523 ], [ -71.5455685, 41.1592312 ], [ -71.5454377, 41.1587254 ], [ -71.5454004, 41.1581916 ], [ -71.5452855, 41.1578127 ], [ -71.5452891, 41.1574521 ], [ -71.5453807, 41.157218 ], [ -71.5455249, 41.1569926 ], [ -71.5457573, 41.1568255 ], [ -71.5463009, 41.1564346 ], [ -71.5465809, 41.1560394 ], [ -71.5465993, 41.1559613 ], [ -71.5466191, 41.1558769 ], [ -71.5466357, 41.1553592 ], [ -71.5465083, 41.1546965 ], [ -71.5465385, 41.1545994 ], [ -71.5466136, 41.1543573 ], [ -71.5469477, 41.1540346 ], [ -71.5473489, 41.1537528 ], [ -71.5477705, 41.1535951 ], [ -71.5481047, 41.1535025 ], [ -71.548389, 41.1534238 ], [ -71.5487524, 41.1532391 ], [ -71.5491074, 41.1529751 ], [ -71.5492022, 41.1528781 ], [ -71.5495258, 41.1525469 ], [ -71.5498099, 41.1523596 ], [ -71.5499736, 41.1522517 ], [ -71.55, 41.1522343 ], [ -71.55, 41.151905 ], [ -71.55, 41.1518894 ], [ -71.55, 41.1517535 ], [ -71.55, 41.1517091 ], [ -71.55, 41.1513246 ], [ -71.55, 41.1512221 ], [ -71.55, 41.1505131 ], [ -71.55, 41.1504879 ], [ -71.55, 41.1504877 ], [ -71.55, 41.1504842 ], [ -71.55, 41.1504636 ], [ -71.55, 41.1503555 ], [ -71.55, 41.1503052 ], [ -71.55, 41.1502148 ], [ -71.55, 41.1496849 ], [ -71.55, 41.1496302 ], [ -71.55, 41.1495373 ], [ -71.55, 41.1494301 ], [ -71.55, 41.1479958 ], [ -71.55, 41.1479044 ], [ -71.55, 41.1478652 ], [ -71.55, 41.1475653 ], [ -71.55, 41.1469693 ], [ -71.55, 41.1468022 ], [ -71.55, 41.1467734 ], [ -71.55, 41.146766 ], [ -71.55, 41.1467219 ], [ -71.55, 41.1467181 ], [ -71.55, 41.1464571 ], [ -71.55, 41.1462186 ], [ -71.55, 41.1455485 ], [ -71.55, 41.1453872 ], [ -71.55, 41.14534 ], [ -71.55, 41.1444549 ], [ -71.55, 41.1443236 ], [ -71.55, 41.1441398 ], [ -71.55, 41.1441162 ], [ -71.55, 41.1430986 ], [ -71.55, 41.1426458 ], [ -71.55, 41.142518 ], [ -71.55, 41.1424976 ], [ -71.55, 41.1423716 ], [ -71.55, 41.1423702 ], [ -71.55, 41.1419498 ], [ -71.55, 41.1418737 ], [ -71.55, 41.141484 ], [ -71.55, 41.1406488 ], [ -71.55, 41.1394851 ], [ -71.55, 41.1375874 ], [ -71.55, 41.1373804 ], [ -71.55, 41.1370654 ], [ -71.55, 41.1370472 ], [ -71.55, 41.1355492 ], [ -71.55, 41.1353297 ], [ -71.55, 41.1353097 ], [ -71.55, 41.1352842 ], [ -71.55, 41.1352838 ], [ -71.55, 41.1350397 ], [ -71.55, 41.1350391 ], [ -71.55, 41.1349919 ], [ -71.55, 41.1349419 ], [ -71.55, 41.1337287 ], [ -71.5489822, 41.1353443 ], [ -71.548526, 41.1367132 ], [ -71.545332, 41.1379299 ] ] ] } },
{ "type": "Feature", "properties": { "RCID": 211, "PRIM": 3, "GRUP": 2, "OBJL": 308, "RVER": 1, "AGEN": 550, "FIDN": 737566011, "FIDS": 8691, "LNAM": "02262BF65D3B21F3", "CATZOC": 1, "SUREND": "20090819", "SURSTA": "20090819", "SORDAT": "20220711", "SORIND": "US,US,graph,DD36634" }, "geometry": { "type": "Polygon", "coordinates": [ [ [ -71.5199704, 41.1665459 ], [ -71.5165982, 41.175 ], [ -71.5179167, 41.175 ], [ -71.519183, 41.175 ], [ -71.5229144, 41.175 ], [ -71.5247596, 41.175 ], [ -71.5285987, 41.175 ], [ -71.5324645, 41.175 ], [ -71.5325499, 41.175 ], [ -71.5325732, 41.175 ], [ -71.5325841, 41.175 ], [ -71.532608, 41.175 ], [ -71.5339082, 41.175 ], [ -71.5361206, 41.175 ], [ -71.5361702, 41.175 ], [ -71.53651, 41.175 ], [ -71.5366255, 41.175 ], [ -71.5364762, 41.1729865 ], [ -71.5349414, 41.1712732 ], [ -71.535798, 41.1699883 ], [ -71.5350842, 41.1683108 ], [ -71.532907, 41.1669188 ], [ -71.5239014, 41.1683289 ], [ -71.5213316, 41.1683289 ], [ -71.5199704, 41.1665459 ] ] ] } }
]
}
