{
"type": "FeatureCollection",
"name": "SBDARE",
"crs": { "type": "name", "properties": { "name": "urn:ogc:def:crs:OGC:1.3:CRS84" } },
"features": [
{ "type": "Feature", "properties": { "RCID": 1357, "PRIM": 3, "GRUP": 2, "OBJL": 121, "RVER": 1, "AGEN": 550, "FIDN": 47721331, "FIDS": 8691, "LNAM": "022602D82B7321F3", "NATSUR": [ "9" ], "WATLEV": 4, "SCAMIN": 17999, "SORDAT": "20140818", "SORIND": "US,US,graph,GC11187" }, "geometry": { "type": "Polygon", "coordinates": [ [ [ -71.5464072, 41.1660911 ], [ -71.5463988, 41.1661161 ], [ -71.546389, 41.1661299 ], [ -71.5463887, 41.1661303 ], [ -71.5463806, 41.1661418 ], [ -71.5463644, 41.1661213 ], [ -71.5463554, 41.1661098 ], [ -71.5463355, 41.1660475 ], [ -71.5463336, 41.1660414 ], [ -71.5462744, 41.1659993 ], [ -71.5461876, 41.1659867 ], [ -71.546157, 41.1660134 ], [ -71.5461366, 41.1660313 ], [ -71.5461167, 41.1660705 ], [ -71.5461143, 41.1660753 ], [ -71.5460967, 41.1661155 ], [ -71.5460641, 41.1661416 ], [ -71.5460116, 41.1661464 ], [ -71.5459131, 41.1660797 ], [ -71.5458993, 41.1659713 ], [ -71.5459055, 41.1658842 ], [ -71.545942, 41.1658363 ], [ -71.5459929, 41.1657881 ], [ -71.5460093, 41.1657153 ], [ -71.5459574, 41.1656149 ], [ -71.5458498, 41.1655594 ], [ -71.5457272, 41.1654896 ], [ -71.5455707, 41.1654097 ], [ -71.5454147, 41.1653443 ], [ -71.5452741, 41.165304 ], [ -71.5451327, 41.1652419 ], [ -71.5450353, 41.1652042 ], [ -71.5447194, 41.1650952 ], [ -71.5445919, 41.1650219 ], [ -71.5444822, 41.164912 ], [ -71.5444299, 41.1648009 ], [ -71.5444166, 41.1647033 ], [ -71.5444074, 41.1645912 ], [ -71.5444231, 41.1645003 ], [ -71.5444534, 41.1644163 ], [ -71.5444794, 41.1643432 ], [ -71.5444909, 41.1642705 ], [ -71.544508, 41.1642158 ], [ -71.5445601, 41.1642001 ], [ -71.544628, 41.1642204 ], [ -71.5446775, 41.1642591 ], [ -71.5447119, 41.1642801 ], [ -71.5447981, 41.1642782 ], [ -71.5448494, 41.1642408 ], [ -71.5448616, 41.1641862 ], [ -71.5448797, 41.1641568 ], [ -71.5449275, 41.1641522 ], [ -71.5449997, 41.1641614 ], [ -71.5450714, 41.1641562 ], [ -71.545214, 41.1641749 ], [ -71.545218, 41.1641754 ], [ -71.5449875, 41.1645758 ], [ -71.5450216, 41.1647709 ], [ -71.5450272, 41.1648033 ], [ -71.5451813, 41.1649807 ], [ -71.545356, 41.1650821 ], [ -71.5454214, 41.1651068 ], [ -71.5454327, 41.1651111 ], [ -71.5454335, 41.1651114 ], [ -71.5454778, 41.1651281 ], [ -71.5460561, 41.165347 ], [ -71.5466312, 41.1657242 ], [ -71.5467631, 41.1657764 ], [ -71.5470566, 41.1657984 ], [ -71.5473818, 41.1657743 ], [ -71.5480652, 41.1656041 ], [ -71.5486174, 41.1657353 ], [ -71.5491375, 41.1660203 ], [ -71.5495611, 41.1664921 ], [ -71.5496974, 41.1665151 ], [ -71.5496889, 41.1665234 ], [ -71.5495739, 41.1666364 ], [ -71.5494925, 41.1666382 ], [ -71.5494405, 41.1666575 ], [ -71.5494274, 41.1666904 ], [ -71.5494336, 41.1667265 ], [ -71.5494685, 41.1667619 ], [ -71.5494791, 41.1667871 ], [ -71.549461, 41.1668164 ], [ -71.5494327, 41.1668279 ], [ -71.5493602, 41.1668114 ], [ -71.5492914, 41.1667695 ], [ -71.5492513, 41.1667233 ], [ -71.5492114, 41.1666843 ], [ -71.549124, 41.1666572 ], [ -71.5490415, 41.1666301 ], [ -71.5489964, 41.1665803 ], [ -71.5489892, 41.1665189 ], [ -71.5490165, 41.1664821 ], [ -71.549044, 41.1664489 ], [ -71.5490693, 41.1664217 ], [ -71.5490855, 41.1664045 ], [ -71.549157, 41.1663956 ], [ -71.5491684, 41.1663925 ], [ -71.549214, 41.1663799 ], [ -71.5492607, 41.1663498 ], [ -71.5492641, 41.1663135 ], [ -71.5492475, 41.1662559 ], [ -71.5491917, 41.1661775 ], [ -71.5491171, 41.1661066 ], [ -71.5490039, 41.1660331 ], [ -71.5488766, 41.1659634 ], [ -71.548755, 41.165919 ], [ -71.5487007, 41.1658803 ], [ -71.5486369, 41.1658419 ], [ -71.5485686, 41.1658108 ], [ -71.5484955, 41.1657798 ], [ -71.5483989, 41.1657638 ], [ -71.548352, 41.1657902 ], [ -71.5483588, 41.1658408 ], [ -71.5483836, 41.165862 ], [ -71.5484275, 41.1658828 ], [ -71.5484812, 41.1659069 ], [ -71.5484875, 41.1659467 ], [ -71.548465, 41.1659834 ], [ -71.5484316, 41.1659878 ], [ -71.5483433, 41.1659354 ], [ -71.5482459, 41.1658977 ], [ -71.5481201, 41.1658678 ], [ -71.5479902, 41.1658562 ], [ -71.5478803, 41.1658659 ], [ -71.5477567, 41.165894 ], [ -71.5476575, 41.1659324 ], [ -71.5475681, 41.1659779 ], [ -71.5474272, 41.1660535 ], [ -71.5473132, 41.1660814 ], [ -71.5472097, 41.1661307 ], [ -71.5471715, 41.1661352 ], [ -71.5471009, 41.1661694 ], [ -71.5470537, 41.1661885 ], [ -71.5469855, 41.1661611 ], [ -71.5469224, 41.1661407 ], [ -71.5468361, 41.1661426 ], [ -71.5467603, 41.1661661 ], [ -71.5467623, 41.1662167 ], [ -71.5467451, 41.1662678 ], [ -71.5467114, 41.166265 ], [ -71.5466804, 41.1662077 ], [ -71.546688, 41.1661568 ], [ -71.5466531, 41.1661213 ], [ -71.5465998, 41.166108 ], [ -71.5465411, 41.1660767 ], [ -71.5464867, 41.1660344 ], [ -71.5464344, 41.1660464 ], [ -71.5464074, 41.1660905 ], [ -71.5464072, 41.1660911 ] ] ] } },
{ "type": "Feature", "properties": { "RCID": 1358, "PRIM": 3, "GRUP": 2, "OBJL": 121, "RVER": 1, "AGEN": 550, "FIDN": 844146096, "FIDS": 8691, "LNAM": "02263250A5B021F3", "NATSUR": [ "9" ], "WATLEV": 4, "SCAMIN": 17999, "SORDAT": "20140818", "SORIND": "US,US,graph,GC11187" }, "geometry": { "type": "Polygon", "coordinates": [ [ [ -71.5446981, 41.1609063 ], [ -71.5446912, 41.1609054 ], [ -71.5445421, 41.1608852 ], [ -71.5444467, 41.1608982 ], [ -71.5443646, 41.1608819 ], [ -71.5442579, 41.1608516 ], [ -71.5441863, 41.1608604 ], [ -71.5441003, 41.160866 ], [ -71.5440087, 41.1608535 ], [ -71.5439406, 41.1608296 ], [ -71.5438812, 41.1607802 ], [ -71.5438306, 41.1607125 ], [ -71.5437622, 41.1606778 ], [ -71.5436906, 41.1606866 ], [ -71.5437061, 41.1607152 ], [ -71.5437555, 41.160754 ], [ -71.5437955, 41.1607966 ], [ -71.5438217, 41.160854 ], [ -71.5438389, 41.1609261 ], [ -71.5438516, 41.1610055 ], [ -71.5438596, 41.1610887 ], [ -71.5438681, 41.1611863 ], [ -71.5439012, 41.1612979 ], [ -71.543904, 41.1613703 ], [ -71.543907, 41.1614466 ], [ -71.5439079, 41.1614717 ], [ -71.5439088, 41.1614932 ], [ -71.5439114, 41.1615622 ], [ -71.5439238, 41.1616344 ], [ -71.5439658, 41.1617277 ], [ -71.5440013, 41.1617776 ], [ -71.5440614, 41.1618451 ], [ -71.5441547, 41.161901 ], [ -71.5442381, 41.1619499 ], [ -71.5443456, 41.1620019 ], [ -71.5444881, 41.1620929 ], [ -71.5446764, 41.1622482 ], [ -71.5447572, 41.1623551 ], [ -71.5447514, 41.1624531 ], [ -71.5447004, 41.1624977 ], [ -71.5446395, 41.1625353 ], [ -71.5446557, 41.162582 ], [ -71.544714, 41.1626025 ], [ -71.5448059, 41.1626222 ], [ -71.5448945, 41.1626818 ], [ -71.544954, 41.1627312 ], [ -71.5449996, 41.1627954 ], [ -71.5450258, 41.1628528 ], [ -71.5450749, 41.1628844 ], [ -71.545177, 41.1629183 ], [ -71.5452546, 41.162942 ], [ -71.5453125, 41.1629516 ], [ -71.545417, 41.1629298 ], [ -71.545381, 41.1628529 ], [ -71.5450608, 41.1625617 ], [ -71.5447898, 41.1621471 ], [ -71.5443929, 41.1618115 ], [ -71.5443048, 41.1616148 ], [ -71.5443234, 41.1614151 ], [ -71.5443921, 41.1612524 ], [ -71.5446981, 41.1609063 ] ] ] } },
{ "type": "Feature", "properties": { "RCID": 1359, "PRIM": 3, "GRUP": 2, "OBJL": 121, "RVER": 1, "AGEN": 550, "FIDN": 394987366, "FIDS": 8691, "LNAM": "0226178B076621F3", "NATSUR": [ "9" ], "WATLEV": 4, "SCAMIN": 17999, "SORDAT": "20140818", "SORIND": "US,US,graph,GC11187" }, "geometry": { "type": "Polygon", "coordinates": [ [ [ -71.55, 41.1518894 ], [ -71.5499993, 41.1518909 ], [ -71.5498707, 41.152035 ], [ -71.5498159, 41.1521051 ], [ -71.5496941, 41.1521802 ], [ -71.549581, 41.1522298 ], [ -71.5494766, 41.1522575 ], [ -71.5493818, 41.152285 ], [ -71.5493359, 41.1523367 ], [ -71.5493384, 41.1524019 ], [ -71.5493315, 41.1524709 ], [ -71.5492672, 41.1525448 ], [ -71.5491358, 41.1526165 ], [ -71.5490659, 41.1526688 ], [ -71.5490301, 41.1527348 ], [ -71.5490077, 41.1527752 ], [ -71.5490055, 41.1528404 ], [ -71.5489947, 41.1529349 ], [ -71.5488279, 41.1530835 ], [ -71.5487111, 41.1531622 ], [ -71.5486038, 41.153237 ], [ -71.5484679, 41.1533198 ], [ -71.5483359, 41.153377 ], [ -71.548197, 41.1533801 ], [ -71.5480755, 41.1533357 ], [ -71.5480022, 41.1533011 ], [ -71.5478975, 41.1533215 ], [ -71.5478236, 41.153392 ], [ -71.5477302, 41.1534557 ], [ -71.5475774, 41.1534735 ], [ -71.5474907, 41.153461 ], [ -71.5473801, 41.1534525 ], [ -71.547261, 41.1534733 ], [ -71.5471623, 41.1535226 ], [ -71.5470925, 41.1535785 ], [ -71.5470174, 41.15362 ], [ -71.5469233, 41.1536655 ], [ -71.5468234, 41.1536859 ], [ -71.5467134, 41.1536919 ], [ -71.5466769, 41.1537398 ], [ -71.546603, 41.1538103 ], [ -71.5465317, 41.1538264 ], [ -71.5464418, 41.1538574 ], [ -71.5463861, 41.1539057 ], [ -71.5463365, 41.1539865 ], [ -71.5463017, 41.1540779 ], [ -71.5462906, 41.1541615 ], [ -71.5462663, 41.1542779 ], [ -71.5462394, 41.1543256 ], [ -71.546213, 41.1543878 ], [ -71.5461967, 41.1544606 ], [ -71.5461767, 41.1545625 ], [ -71.5461858, 41.1546747 ], [ -71.5462378, 41.1547786 ], [ -71.5462692, 41.1548467 ], [ -71.5463008, 41.1549221 ], [ -71.5463429, 41.155019 ], [ -71.54637, 41.1550981 ], [ -71.5463838, 41.1552065 ], [ -71.5463894, 41.1553513 ], [ -71.5463937, 41.1554636 ], [ -71.546384, 41.1555834 ], [ -71.5463862, 41.1556413 ], [ -71.5463934, 41.1557027 ], [ -71.5464207, 41.1557891 ], [ -71.5464431, 41.1558719 ], [ -71.5465993, 41.1559613 ], [ -71.5466191, 41.1558769 ], [ -71.5466357, 41.1553592 ], [ -71.5465083, 41.1546965 ], [ -71.5465385, 41.1545994 ], [ -71.5466136, 41.1543573 ], [ -71.5469477, 41.1540346 ], [ -71.5473489, 41.1537528 ], [ -71.5477705, 41.1535951 ], [ -71.5481047, 41.1535025 ], [ -71.548389, 41.1534238 ], [ -71.5487524, 41.1532391 ], [ -71.5491074, 41.1529751 ], [ -71.5492022, 41.1528781 ], [ -71.5495258, 41.1525469 ], [ -71.5498099, 41.1523596 ], [ -71.5499736, 41.1522517 ], [ -71.55, 41.1522343 ], [ -71.55, 41.151905 ], [ -71.55, 41.1518894 ] ] ] } },
{ "type": "Feature", "properties": { "RCID": 1360, "PRIM": 3, "GRUP": 2, "OBJL": 121, "RVER": 1, "AGEN": 550, "FIDN": 856039708, "FIDS": 8691, "LNAM": "02263306211C21F3", "NATSUR": [ "9" ], "WATLEV": 4, "SCAMIN": 17999, "SORDAT": "20140818", "SORIND": "US,US,graph,GC11187" }, "geometry": { "type": "Polygon", "coordinates": [ [ [ -71.5452262, 41.1592128 ], [ -71.5451967, 41.1592185 ], [ -71.5451377, 41.1591799 ], [ -71.5451205, 41.1591078 ], [ -71.5451318, 41.1590519 ], [ -71.5451525, 41.1590037 ], [ -71.5451526, 41.1590036 ], [ -71.5451546, 41.1589984 ], [ -71.5451859, 41.1589397 ], [ -71.5451938, 41.158896 ], [ -71.5451675, 41.158835 ], [ -71.5451622, 41.1588207 ], [ -71.5450695, 41.1587792 ], [ -71.5450291, 41.1587433 ], [ -71.5450099, 41.1587262 ], [ -71.5449993, 41.1586712 ], [ -71.5449919, 41.1586324 ], [ -71.5449834, 41.1585641 ], [ -71.5449779, 41.1585204 ], [ -71.5449692, 41.1584191 ], [ -71.5449735, 41.1583838 ], [ -71.5449801, 41.1583283 ], [ -71.5449914, 41.1582483 ], [ -71.5450084, 41.1581936 ], [ -71.5450115, 41.15815 ], [ -71.5450068, 41.158027 ], [ -71.5450038, 41.1579509 ], [ -71.5449724, 41.1578828 ], [ -71.5449464, 41.157829 ], [ -71.544901, 41.157772 ], [ -71.5448744, 41.1577038 ], [ -71.544895, 41.1576164 ], [ -71.5448771, 41.1575262 ], [ -71.5448519, 41.1574628 ], [ -71.54484, 41.1574328 ], [ -71.5447849, 41.1573724 ], [ -71.5447301, 41.1573193 ], [ -71.5446612, 41.1572737 ], [ -71.5446116, 41.1572313 ], [ -71.5445959, 41.1571954 ], [ -71.5446238, 41.1571731 ], [ -71.5446956, 41.1571715 ], [ -71.5447129, 41.1571711 ], [ -71.544801, 41.1571692 ], [ -71.544882, 41.1571565 ], [ -71.5450249, 41.1571316 ], [ -71.5451132, 41.1570608 ], [ -71.5452072, 41.1570116 ], [ -71.5452488, 41.1569708 ], [ -71.5453047, 41.1569297 ], [ -71.545389, 41.1568772 ], [ -71.5454786, 41.1568389 ], [ -71.5455779, 41.1568041 ], [ -71.5457573, 41.1568255 ], [ -71.5455249, 41.1569926 ], [ -71.5453807, 41.157218 ], [ -71.5452891, 41.1574521 ], [ -71.5452855, 41.1578127 ], [ -71.5454004, 41.1581916 ], [ -71.5454377, 41.1587254 ], [ -71.5455685, 41.1592312 ], [ -71.5455714, 41.1594523 ], [ -71.5455591, 41.159509 ], [ -71.5454176, 41.1594274 ], [ -71.5454014, 41.1593283 ], [ -71.5454021, 41.159218 ], [ -71.5453991, 41.1591852 ], [ -71.5453561, 41.1591244 ], [ -71.5453085, 41.1591327 ], [ -71.5452669, 41.1591734 ], [ -71.5452396, 41.1592103 ], [ -71.5452262, 41.1592128 ] ] ] } },
{ "type": "Feature", "properties": { "RCID": 1361, "PRIM": 1, "GRUP": 2, "OBJL": 121, "RVER": 1, "AGEN": 550, "FIDN": 558654311, "FIDS": 7311, "LNAM": "0226214C63671C8F", "NATSUR": [ "9" ], "SCAMIN": 17999, "SORDAT": "200611", "SORIND": "US,US,graph,Chart 13217" }, "geometry": { "type": "Point", "coordinates": [ -71.5482033, 41.1690602 ] } },
{ "type": "Feature", "properties": { "RCID": 1362, "PRIM": 1, "GRUP": 2, "OBJL": 121, "RVER": 1, "AGEN": 550, "FIDN": 218386147, "FIDS": 7311, "LNAM": "02260D044EE31C8F", "NATSUR": [ "9" ], "SCAMIN": 17999, "SORDAT": "20091005", "SORIND": "US,US,graph,Chart 13215" }, "geometry": { "type": "Point", "coordinates": [ -71.547923, 41.126099 ] } },
{ "type": "Feature", "properties": { "RCID": 1363, "PRIM": 1, "GRUP": 2, "OBJL": 121, "RVER": 1, "AGEN": 550, "FIDN": 529011399, "FIDS": 7311, "LNAM": "02261F8812C71C8F", "NATSUR": [ "9" ], "SCAMIN": 17999, "SORDAT": "200611", "SORIND": "US,US,graph,Chart 13217" }, "geometry": { "type": "Point", "coordinates": [ -71.5472769, 41.1432145 ] } },
{ "type": "Feature", "properties": { "RCID": 1364, "PRIM": 1, "GRUP": 2, "OBJL": 121, "RVER": 1, "AGEN": 550, "FIDN": 932609990, "FIDS": 7311, "LNAM": "022637967FC61C8F", "NATSUR": [ "9" ], "SCAMIN": 17999, "SORDAT": "200611", "SORIND": "US,US,graph,Chart 13217" }, "geometry": { "type": "Point", "coordinates": [ -71.5376538, 41.1632078 ] } },
{ "type": "Feature", "properties": { "RCID": 1365, "PRIM": 1, "GRUP": 2, "OBJL": 121, "RVER": 1, "AGEN": 550, "FIDN": 295694536, "FIDS": 7311, "LNAM": "0226119FF0C81C8F", "NATSUR": [ "9" ], "SCAMIN": 17999, "SORDAT": "200611", "SORIND": "US,US,graph,Chart 13217" }, "geometry": { "type": "Point", "coordinates": [ -71.5471795, 41.1364101 ] } },
{ "type": "Feature", "properties": { "RCID": 1366, "PRIM": 1, "GRUP": 2, "OBJL": 121, "RVER": 1, "AGEN": 550, "FIDN": 518827076, "FIDS": 7311, "LNAM": "02261EECAC441C8F", "NATSUR": [ "4" ], "SCAMIN": 17999, "SORDAT": "200611", "SORIND": "US,US,graph,Chart 13217" }, "geometry": { "type": "Point", "coordinates": [ -71.5254159, 41.1642286 ] } },
{ "type": "Feature", "properties": { "RCID": 1367, "PRIM": 1, "GRUP": 2, "OBJL": 121, "RVER": 1, "AGEN": 550, "FIDN": 529000273, "FIDS": 7311, "LNAM": "02261F87E7511C8F", "NATSUR": [ "4" ], "SCAMIN": 17999, "SORDAT": "20091005", "SORIND": "US,US,graph,Chart 13215" }, "geometry": { "type": "Point", "coordinates": [ -71.495463, 41.152467 ] } },
{ "type": "Feature", "properties": { "RCID": 1368, "PRIM": 1, "GRUP": 2, "OBJL": 121, "RVER": 1, "AGEN": 550, "FIDN": 116050768, "FIDS": 7311, "LNAM": "022606EACB501C8F", "NATSUR": [ "4", "6" ], "SCAMIN": 17999, "SORDAT": "201409", "SORIND": "US,US,graph,Chart 13215" }, "geometry": { "type": "Point", "coordinates": [ -71.4910256, 41.1194543 ] } },
{ "type": "Feature", "properties": { "RCID": 1369, "PRIM": 1, "GRUP": 2, "OBJL": 121, "RVER": 1, "AGEN": 550, "FIDN": 182045646, "FIDS": 7311, "LNAM": "02260AD9CBCE1C8F", "NATSUR": [ "4", "17", "6" ], "SCAMIN": 17999, "SORDAT": "201409", "SORIND": "US,US,graph,Chart 13215" }, "geometry": { "type": "Point", "coordinates": [ -71.4884409, 41.1422489 ] } },
{ "type": "Feature", "properties": { "RCID": 1370, "PRIM": 1, "GRUP": 2, "OBJL": 121, "RVER": 1, "AGEN": 550, "FIDN": 326393396, "FIDS": 7311, "LNAM": "022613745E341C8F", "NATQUA": [ "10" ], "SCAMIN": 17999, "SORDAT": "200611", "SORIND": "US,US,graph,Chart 13217" }, "geometry": { "type": "Point", "coordinates": [ -71.5343298, 41.1597867 ] } },
{ "type": "Feature", "properties": { "RCID": 1371, "PRIM": 1, "GRUP": 2, "OBJL": 121, "RVER": 1, "AGEN": 550, "FIDN": 58830798, "FIDS": 7311, "LNAM": "02260381AFCE1C8F", "NATSUR": [ "4" ], "SCAMIN": 17999, "SORDAT": "20091005", "SORIND": "US,US,graph,Chart 13215" }, "geometry": { "type": "Point", "coordinates": [ -71.505601, 41.173069 ] } },
{ "type": "Feature", "properties": { "RCID": 1372, "PRIM": 1, "GRUP": 2, "OBJL": 121, "RVER": 1, "AGEN": 550, "FIDN": 674049146, "FIDS": 7311, "LNAM": "0226282D2C7A1C8F", "NATSUR": [ "9" ], "SCAMIN": 17999, "SORDAT": "200611", "SORIND": "US,US,graph,Chart 13217" }, "geometry": { "type": "Point", "coordinates": [ -71.5496893, 41.1396741 ] } },
{ "type": "Feature", "properties": { "RCID": 1373, "PRIM": 1, "GRUP": 2, "OBJL": 121, "RVER": 1, "AGEN": 550, "FIDN": 584517865, "FIDS": 7311, "LNAM": "022622D708E91C8F", "NATQUA": [ "5" ], "SCAMIN": 17999, "SORDAT": "200611", "SORIND": "US,US,graph,Chart 13217" }, "geometry": { "type": "Point", "coordinates": [ -71.5395119, 41.1495955 ] } },
{ "type": "Feature", "properties": { "RCID": 1374, "PRIM": 1, "GRUP": 2, "OBJL": 121, "RVER": 1, "AGEN": 550, "FIDN": 888264252, "FIDS": 7311, "LNAM": "022634F1D63C1C8F", "NATSUR": [ "9" ], "SCAMIN": 17999, "SORDAT": "200611", "SORIND": "US,US,graph,Chart 13217" }, "geometry": { "type": "Point", "coordinates": [ -71.5392162, 41.1537993 ] } },
{ "type": "Feature", "properties": { "RCID": 1375, "PRIM": 1, "GRUP": 2, "OBJL": 121, "RVER": 1, "AGEN": 550, "FIDN": 965781877, "FIDS": 7311, "LNAM": "02263990A9751C8F", "NATSUR": [ "7" ], "SCAMIN": 17999, "SORDAT": "201409", "SORIND": "US,US,graph,Chart 13215" }, "geometry": { "type": "Point", "coordinates": [ -71.4876479, 41.1646493 ] } },
{ "type": "Feature", "properties": { "RCID": 1376, "PRIM": 1, "GRUP": 2, "OBJL": 121, "RVER": 1, "AGEN": 550, "FIDN": 281808668, "FIDS": 7311, "LNAM": "022610CC0F1C1C8F", "NATSUR": [ "9" ], "SCAMIN": 17999, "SORDAT": "200611", "SORIND": "US,US,graph,Chart 13217" }, "geometry": { "type": "Point", "coordinates": [ -71.5405789, 41.1601055 ] } },
{ "type": "Feature", "properties": { "RCID": 1377, "PRIM": 1, "GRUP": 2, "OBJL": 121, "RVER": 1, "AGEN": 550, "FIDN": 739758169, "FIDS": 7311, "LNAM": "02262C17D0591C8F", "NATSUR": [ "9" ], "SCAMIN": 17999, "SORDAT": "20091005", "SORIND": "US,US,graph,Chart 13215" }, "geometry": { "type": "Point", "coordinates": [ -71.539012, 41.103348 ] } },
{ "type": "Feature", "properties": { "RCID": 1378, "PRIM": 1, "GRUP": 2, "OBJL": 121, "RVER": 1, "AGEN": 550, "FIDN": 575046284, "FIDS": 7311, "LNAM": "02262246828C1C8F", "NATSUR": [ "18" ], "SCAMIN": 17999, "SORDAT": "200611", "SORIND": "US,US,graph,Chart 13217" }, "geometry": { "type": "Point", "coordinates": [ -71.5347379, 41.1641623 ] } },
{ "type": "Feature", "properties": { "RCID": 1379, "PRIM": 1, "GRUP": 2, "OBJL": 121, "RVER": 1, "AGEN": 550, "FIDN": 8709923, "FIDS": 7311, "LNAM": "02260084E7231C8F", "NATSUR": [ "9" ], "SCAMIN": 17999, "SORDAT": "200611", "SORIND": "US,US,graph,Chart 13217" }, "geometry": { "type": "Point", "coordinates": [ -71.5433519, 41.1405395 ] } },
{ "type": "Feature", "properties": { "RCID": 1380, "PRIM": 1, "GRUP": 2, "OBJL": 121, "RVER": 1, "AGEN": 550, "FIDN": 196038784, "FIDS": 7311, "LNAM": "02260BAF50801C8F", "NATSUR": [ "9" ], "SCAMIN": 17999, "SORDAT": "200611", "SORIND": "US,US,graph,Chart 13217" }, "geometry": { "type": "Point", "coordinates": [ -71.53933, 41.1696074 ] } }
]
}
