{
"type": "FeatureCollection",
"name": "UWTROC",
"crs": { "type": "name", "properties": { "name": "urn:ogc:def:crs:OGC:1.3:CRS84" } },
"features": [
{ "type": "Feature", "properties": { "RCID": 17, "PRIM": 1, "GRUP": 2, "OBJL": 153, "RVER": 1, "AGEN": 550, "FIDN": 812841900, "FIDS": 7311, "LNAM": "02263072FBAC1C8F", "QUASOU": [ "2" ], "WATLEV": 4, "SORDAT": "20140818", "SORIND": "US,US,graph,GC11187" }, "geometry": { "type": "Point", "coordinates": [ -71.5495749, 41.1511825 ] } },
{ "type": "Feature", "properties": { "RCID": 18, "PRIM": 1, "GRUP": 2, "OBJL": 153, "RVER": 1, "AGEN": 550, "FIDN": 620025819, "FIDS": 7311, "LNAM": "022624F4D7DB1C8F", "QUASOU": [ "2" ], "WATLEV": 4, "SCAMIN": 21999, "SORDAT": "20140818", "SORIND": "US,US,graph,GC11187" }, "geometry": { "type": "Point", "coordinates": [ -71.5432532, 41.1605998 ] } },
{ "type": "Feature", "properties": { "RCID": 19, "PRIM": 1, "GRUP": 2, "OBJL": 153, "RVER": 1, "AGEN": 550, "FIDN": 13647722, "FIDS": 7311, "LNAM": "022600D03F6A1C8F", "QUASOU": [ "2" ], "WATLEV": 4, "SCAMIN": 21999, "SORDAT": "20140818", "SORIND": "US,US,graph,GC11187" }, "geometry": { "type": "Point", "coordinates": [ -71.5435741, 41.1615649 ] } },
{ "type": "Feature", "properties": { "RCID": 20, "PRIM": 1, "GRUP": 2, "OBJL": 153, "RVER": 1, "AGEN": 550, "FIDN": 235975696, "FIDS": 7311, "LNAM": "02260E10B4101C8F", "QUASOU": [ "2" ], "WATLEV": 4, "SCAMIN": 21999, "SORDAT": "20140818", "SORIND": "US,US,graph,GC11187" }, "geometry": { "type": "Point", "coordinates": [ -71.5436004, 41.1621219 ] } },
{ "type": "Feature", "properties": { "RCID": 21, "PRIM": 1, "GRUP": 2, "OBJL": 153, "RVER": 1, "AGEN": 550, "FIDN": 334927987, "FIDS": 7311, "LNAM": "022613F698731C8F", "QUASOU": [ "2" ], "WATLEV": 4, "SORDAT": "200611", "SORIND": "US,US,graph,Chart 13217" }, "geometry": { "type": "Point", "coordinates": [ -71.5444533, 41.1649914 ] } },
{ "type": "Feature", "properties": { "RCID": 22, "PRIM": 1, "GRUP": 2, "OBJL": 153, "RVER": 1, "AGEN": 550, "FIDN": 308159634, "FIDS": 7311, "LNAM": "0226125E24921C8F", "QUASOU": [ "2" ], "WATLEV": 3, "SCAMIN": 21999, "SORDAT": "20140818", "SORIND": "US,US,graph,GC11187" }, "geometry": { "type": "Point", "coordinates": [ -71.544465, 41.1599984 ] } },
{ "type": "Feature", "properties": { "RCID": 23, "PRIM": 1, "GRUP": 2, "OBJL": 153, "RVER": 1, "AGEN": 550, "FIDN": 157632506, "FIDS": 7311, "LNAM": "0226096547FA1C8F", "QUASOU": [ "2" ], "WATLEV": 3, "SCAMIN": 21999, "SORDAT": "20140818", "SORIND": "US,US,graph,GC11187" }, "geometry": { "type": "Point", "coordinates": [ -71.5444836, 41.1655029 ] } },
{ "type": "Feature", "properties": { "RCID": 24, "PRIM": 1, "GRUP": 2, "OBJL": 153, "RVER": 1, "AGEN": 550, "FIDN": 261727048, "FIDS": 7311, "LNAM": "02260F99A3481C8F", "QUASOU": [ "2" ], "WATLEV": 4, "SCAMIN": 21999, "SORDAT": "200611", "SORIND": "US,US,graph,Chart 13217" }, "geometry": { "type": "Point", "coordinates": [ -71.54485, 41.1583812 ] } },
{ "type": "Feature", "properties": { "RCID": 25, "PRIM": 1, "GRUP": 2, "OBJL": 153, "RVER": 1, "AGEN": 550, "FIDN": 447941389, "FIDS": 7311, "LNAM": "02261AB30B0D1C8F", "QUASOU": [ "2" ], "WATLEV": 4, "SORDAT": "20140818", "SORIND": "US,US,graph,GC11187" }, "geometry": { "type": "Point", "coordinates": [ -71.5450851, 41.1596277 ] } },
{ "type": "Feature", "properties": { "RCID": 26, "PRIM": 1, "GRUP": 2, "OBJL": 153, "RVER": 1, "AGEN": 550, "FIDN": 231174821, "FIDS": 7311, "LNAM": "02260DC772A51C8F", "QUASOU": [ "2" ], "WATLEV": 4, "SCAMIN": 21999, "SORDAT": "200611", "SORIND": "US,US,graph,Chart 13217" }, "geometry": { "type": "Point", "coordinates": [ -71.5455286, 41.1550579 ] } },
{ "type": "Feature", "properties": { "RCID": 27, "PRIM": 1, "GRUP": 2, "OBJL": 153, "RVER": 1, "AGEN": 550, "FIDN": 367161944, "FIDS": 7311, "LNAM": "022615E272581C8F", "QUASOU": [ "2" ], "WATLEV": 4, "SCAMIN": 21999, "SORDAT": "20140818", "SORIND": "US,US,graph,GC11187" }, "geometry": { "type": "Point", "coordinates": [ -71.5458165, 41.1530966 ] } },
{ "type": "Feature", "properties": { "RCID": 28, "PRIM": 1, "GRUP": 2, "OBJL": 153, "RVER": 1, "AGEN": 550, "FIDN": 332554866, "FIDS": 7311, "LNAM": "022613D262721C8F", "QUASOU": [ "2" ], "WATLEV": 4, "SORDAT": "200611", "SORIND": "US,US,graph,Chart 13217" }, "geometry": { "type": "Point", "coordinates": [ -71.5462313, 41.1551389 ] } },
{ "type": "Feature", "properties": { "RCID": 29, "PRIM": 1, "GRUP": 2, "OBJL": 153, "RVER": 1, "AGEN": 550, "FIDN": 258378560, "FIDS": 7311, "LNAM": "02260F668B401C8F", "QUASOU": [ "2" ], "WATLEV": 4, "SCAMIN": 21999, "SORDAT": "200611", "SORIND": "US,US,graph,Chart 13217" }, "geometry": { "type": "Point", "coordinates": [ -71.5462706, 41.1560338 ] } },
{ "type": "Feature", "properties": { "RCID": 30, "PRIM": 1, "GRUP": 2, "OBJL": 153, "RVER": 1, "AGEN": 550, "FIDN": 372018246, "FIDS": 7311, "LNAM": "0226162C8C461C8F", "QUASOU": [ "2" ], "WATLEV": 4, "SORDAT": "200611", "SORIND": "US,US,graph,Chart 13217" }, "geometry": { "type": "Point", "coordinates": [ -71.5464977, 41.1662848 ] } },
{ "type": "Feature", "properties": { "RCID": 31, "PRIM": 1, "GRUP": 2, "OBJL": 153, "RVER": 1, "AGEN": 550, "FIDN": 886560203, "FIDS": 7311, "LNAM": "022634D7D5CB1C8F", "QUASOU": [ "2" ], "WATLEV": 3, "SCAMIN": 21999, "SORDAT": "20140818", "SORIND": "US,US,graph,GC11187" }, "geometry": { "type": "Point", "coordinates": [ -71.5469229, 41.1522049 ] } },
{ "type": "Feature", "properties": { "RCID": 32, "PRIM": 1, "GRUP": 2, "OBJL": 153, "RVER": 1, "AGEN": 550, "FIDN": 845463788, "FIDS": 7311, "LNAM": "02263264C0EC1C8F", "QUASOU": [ "2" ], "WATLEV": 4, "SORDAT": "20140818", "SORIND": "US,US,graph,GC11187" }, "geometry": { "type": "Point", "coordinates": [ -71.5484416, 41.16594 ] } },
{ "type": "Feature", "properties": { "RCID": 33, "PRIM": 1, "GRUP": 2, "OBJL": 153, "RVER": 1, "AGEN": 550, "FIDN": 994305104, "FIDS": 7311, "LNAM": "02263B43E4501C8F", "QUASOU": [ "2" ], "WATLEV": 3, "SCAMIN": 21999, "SORDAT": "20140818", "SORIND": "US,US,graph,GC11187" }, "geometry": { "type": "Point", "coordinates": [ -71.5485301, 41.1520935 ] } },
{ "type": "Feature", "properties": { "RCID": 34, "PRIM": 1, "GRUP": 2, "OBJL": 153, "RVER": 1, "AGEN": 550, "FIDN": 171506693, "FIDS": 7311, "LNAM": "02260A38FC051C8F", "QUASOU": [ "2" ], "WATLEV": 3, "SCAMIN": 21999, "SORDAT": "200611", "SORIND": "US,US,graph,Chart 13217" }, "geometry": { "type": "Point", "coordinates": [ -71.5488779, 41.1509035 ] } },
{ "type": "Feature", "properties": { "RCID": 35, "PRIM": 1, "GRUP": 2, "OBJL": 153, "RVER": 1, "AGEN": 550, "FIDN": 997344851, "FIDS": 7311, "LNAM": "02263B7246531C8F", "QUASOU": [ "2" ], "WATLEV": 4, "SCAMIN": 21999, "SORDAT": "200611", "SORIND": "US,US,graph,Chart 13217" }, "geometry": { "type": "Point", "coordinates": [ -71.5499629, 41.1512856 ] } },
{ "type": "Feature", "properties": { "RCID": 36, "PRIM": 1, "GRUP": 2, "OBJL": 153, "RVER": 1, "AGEN": 550, "FIDN": 872196322, "FIDS": 7311, "LNAM": "022633FCA8E21C8F", "QUASOU": [ "2" ], "WATLEV": 4, "SCAMIN": 21999, "SORDAT": "200611", "SORIND": "US,US,graph,Chart 13217" }, "geometry": { "type": "Point", "coordinates": [ -71.5426174, 41.1613897 ] } },
{ "type": "Feature", "properties": { "RCID": 37, "PRIM": 1, "GRUP": 2, "OBJL": 153, "RVER": 1, "AGEN": 550, "FIDN": 359710555, "FIDS": 7311, "LNAM": "02261570BF5B1C8F", "QUASOU": [ "2" ], "WATLEV": 4, "SCAMIN": 21999, "SORDAT": "200611", "SORIND": "US,US,graph,Chart 13217" }, "geometry": { "type": "Point", "coordinates": [ -71.5428581, 41.1618115 ] } },
{ "type": "Feature", "properties": { "RCID": 38, "PRIM": 1, "GRUP": 2, "OBJL": 153, "RVER": 1, "AGEN": 550, "FIDN": 658726557, "FIDS": 7311, "LNAM": "022627435E9D1C8F", "QUASOU": [ "2" ], "WATLEV": 4, "SCAMIN": 21999, "SORDAT": "20140818", "SORIND": "US,US,graph,GC11187" }, "geometry": { "type": "Point", "coordinates": [ -71.5435381, 41.1612662 ] } },
{ "type": "Feature", "properties": { "RCID": 39, "PRIM": 1, "GRUP": 2, "OBJL": 153, "RVER": 1, "AGEN": 550, "FIDN": 239149142, "FIDS": 7311, "LNAM": "02260E4120561C8F", "QUASOU": [ "2" ], "WATLEV": 4, "SORDAT": "200611", "SORIND": "US,US,graph,Chart 13217" }, "geometry": { "type": "Point", "coordinates": [ -71.5436442, 41.1606709 ] } },
{ "type": "Feature", "properties": { "RCID": 40, "PRIM": 1, "GRUP": 2, "OBJL": 153, "RVER": 1, "AGEN": 550, "FIDN": 932320315, "FIDS": 7311, "LNAM": "02263792143B1C8F", "QUASOU": [ "2" ], "WATLEV": 4, "SCAMIN": 21999, "SORDAT": "20140818", "SORIND": "US,US,graph,GC11187" }, "geometry": { "type": "Point", "coordinates": [ -71.5442997, 41.1621091 ] } },
{ "type": "Feature", "properties": { "RCID": 41, "PRIM": 1, "GRUP": 2, "OBJL": 153, "RVER": 1, "AGEN": 550, "FIDN": 277971530, "FIDS": 7311, "LNAM": "02261091824A1C8F", "QUASOU": [ "2" ], "WATLEV": 4, "SCAMIN": 21999, "SORDAT": "20140818", "SORIND": "US,US,graph,GC11187" }, "geometry": { "type": "Point", "coordinates": [ -71.5443495, 41.1582145 ] } },
{ "type": "Feature", "properties": { "RCID": 42, "PRIM": 1, "GRUP": 2, "OBJL": 153, "RVER": 1, "AGEN": 550, "FIDN": 964472394, "FIDS": 7311, "LNAM": "0226397CAE4A1C8F", "QUASOU": [ "2" ], "WATLEV": 3, "SCAMIN": 21999, "SORDAT": "20140818", "SORIND": "US,US,graph,GC11187" }, "geometry": { "type": "Point", "coordinates": [ -71.5445374, 41.1597925 ] } },
{ "type": "Feature", "properties": { "RCID": 43, "PRIM": 1, "GRUP": 2, "OBJL": 153, "RVER": 1, "AGEN": 550, "FIDN": 220995482, "FIDS": 7311, "LNAM": "02260D2C1F9A1C8F", "EXPSOU": 1, "QUASOU": [ "6" ], "VALSOU": 0.9, "WATLEV": 3, "SCAMIN": 21999, "SORDAT": "200611", "SORIND": "US,US,graph,Chart 13217" }, "geometry": { "type": "Point", "coordinates": [ -71.5449249, 41.1534835 ] } },
{ "type": "Feature", "properties": { "RCID": 44, "PRIM": 1, "GRUP": 2, "OBJL": 153, "RVER": 1, "AGEN": 550, "FIDN": 189098581, "FIDS": 7311, "LNAM": "02260B456A551C8F", "QUASOU": [ "2" ], "WATLEV": 4, "SCAMIN": 21999, "SORDAT": "20140818", "SORIND": "US,US,graph,GC11187" }, "geometry": { "type": "Point", "coordinates": [ -71.5450053, 41.1563791 ] } },
{ "type": "Feature", "properties": { "RCID": 45, "PRIM": 1, "GRUP": 2, "OBJL": 153, "RVER": 1, "AGEN": 550, "FIDN": 140531140, "FIDS": 7311, "LNAM": "0226086055C41C8F", "QUASOU": [ "2" ], "WATLEV": 4, "SCAMIN": 21999, "SORDAT": "200611", "SORIND": "US,US,graph,Chart 13217" }, "geometry": { "type": "Point", "coordinates": [ -71.5451013, 41.1592002 ] } },
{ "type": "Feature", "properties": { "RCID": 46, "PRIM": 1, "GRUP": 2, "OBJL": 153, "RVER": 1, "AGEN": 550, "FIDN": 170807764, "FIDS": 7311, "LNAM": "02260A2E51D41C8F", "QUASOU": [ "2" ], "WATLEV": 4, "SORDAT": "20140818", "SORIND": "US,US,graph,GC11187" }, "geometry": { "type": "Point", "coordinates": [ -71.5457169, 41.1659087 ] } },
{ "type": "Feature", "properties": { "RCID": 47, "PRIM": 1, "GRUP": 2, "OBJL": 153, "RVER": 1, "AGEN": 550, "FIDN": 492979526, "FIDS": 7311, "LNAM": "02261D6245461C8F", "QUASOU": [ "2" ], "WATLEV": 4, "SORDAT": "20140818", "SORIND": "US,US,graph,GC11187" }, "geometry": { "type": "Point", "coordinates": [ -71.5457614, 41.1547365 ] } },
{ "type": "Feature", "properties": { "RCID": 48, "PRIM": 1, "GRUP": 2, "OBJL": 153, "RVER": 1, "AGEN": 550, "FIDN": 448868053, "FIDS": 7311, "LNAM": "02261AC12ED51C8F", "QUASOU": [ "2" ], "WATLEV": 4, "SCAMIN": 21999, "SORDAT": "200611", "SORIND": "US,US,graph,Chart 13217" }, "geometry": { "type": "Point", "coordinates": [ -71.5478279, 41.1526386 ] } },
{ "type": "Feature", "properties": { "RCID": 49, "PRIM": 1, "GRUP": 2, "OBJL": 153, "RVER": 1, "AGEN": 550, "FIDN": 644692265, "FIDS": 7311, "LNAM": "0226266D39291C8F", "QUASOU": [ "2" ], "WATLEV": 4, "SORDAT": "20140818", "SORIND": "US,US,graph,GC11187" }, "geometry": { "type": "Point", "coordinates": [ -71.5488747, 41.1515841 ] } },
{ "type": "Feature", "properties": { "RCID": 50, "PRIM": 1, "GRUP": 2, "OBJL": 153, "RVER": 1, "AGEN": 550, "FIDN": 899855604, "FIDS": 7311, "LNAM": "022635A2B4F41C8F", "QUASOU": [ "2" ], "WATLEV": 3, "SCAMIN": 21999, "SORDAT": "20140818", "SORIND": "US,US,graph,GC11187" }, "geometry": { "type": "Point", "coordinates": [ -71.549967, 41.1504849 ] } },
{ "type": "Feature", "properties": { "RCID": 51, "PRIM": 1, "GRUP": 2, "OBJL": 153, "RVER": 1, "AGEN": 550, "FIDN": 428680052, "FIDS": 7311, "LNAM": "0226198D23741C8F", "QUASOU": [ "2" ], "WATLEV": 3, "SORDAT": "20140818", "SORIND": "US,US,graph,GC11187" }, "geometry": { "type": "Point", "coordinates": [ -71.5426287, 41.1558228 ] } },
{ "type": "Feature", "properties": { "RCID": 52, "PRIM": 1, "GRUP": 2, "OBJL": 153, "RVER": 1, "AGEN": 550, "FIDN": 142049118, "FIDS": 7311, "LNAM": "022608777F5E1C8F", "QUASOU": [ "2" ], "WATLEV": 3, "SCAMIN": 21999, "SORDAT": "20140818", "SORIND": "US,US,graph,GC11187" }, "geometry": { "type": "Point", "coordinates": [ -71.5426774, 41.161943 ] } },
{ "type": "Feature", "properties": { "RCID": 53, "PRIM": 1, "GRUP": 2, "OBJL": 153, "RVER": 1, "AGEN": 550, "FIDN": 308464949, "FIDS": 7311, "LNAM": "02261262CD351C8F", "QUASOU": [ "2" ], "WATLEV": 3, "SCAMIN": 21999, "SORDAT": "20140818", "SORIND": "US,US,graph,GC11187" }, "geometry": { "type": "Point", "coordinates": [ -71.5431427, 41.1608027 ] } },
{ "type": "Feature", "properties": { "RCID": 54, "PRIM": 1, "GRUP": 2, "OBJL": 153, "RVER": 1, "AGEN": 550, "FIDN": 455174395, "FIDS": 7311, "LNAM": "02261B2168FB1C8F", "QUASOU": [ "2" ], "WATLEV": 4, "SORDAT": "200611", "SORIND": "US,US,graph,Chart 13217" }, "geometry": { "type": "Point", "coordinates": [ -71.5439819, 41.1653715 ] } },
{ "type": "Feature", "properties": { "RCID": 55, "PRIM": 1, "GRUP": 2, "OBJL": 153, "RVER": 1, "AGEN": 550, "FIDN": 111150467, "FIDS": 7311, "LNAM": "022606A005831C8F", "QUASOU": [ "2" ], "WATLEV": 3, "SCAMIN": 21999, "SORDAT": "20140818", "SORIND": "US,US,graph,GC11187" }, "geometry": { "type": "Point", "coordinates": [ -71.544313, 41.1595375 ] } },
{ "type": "Feature", "properties": { "RCID": 56, "PRIM": 1, "GRUP": 2, "OBJL": 153, "RVER": 1, "AGEN": 550, "FIDN": 291780986, "FIDS": 7311, "LNAM": "02261164397A1C8F", "QUASOU": [ "2" ], "WATLEV": 4, "SCAMIN": 21999, "SORDAT": "200611", "SORIND": "US,US,graph,Chart 13217" }, "geometry": { "type": "Point", "coordinates": [ -71.5444914, 41.1605436 ] } },
{ "type": "Feature", "properties": { "RCID": 57, "PRIM": 1, "GRUP": 2, "OBJL": 153, "RVER": 1, "AGEN": 550, "FIDN": 129222434, "FIDS": 7311, "LNAM": "022607B3C7221C8F", "QUASOU": [ "2" ], "WATLEV": 3, "SCAMIN": 21999, "SORDAT": "20140818", "SORIND": "US,US,graph,GC11187" }, "geometry": { "type": "Point", "coordinates": [ -71.5445692, 41.163154 ] } },
{ "type": "Feature", "properties": { "RCID": 58, "PRIM": 1, "GRUP": 2, "OBJL": 153, "RVER": 1, "AGEN": 550, "FIDN": 927921519, "FIDS": 7311, "LNAM": "0226374EF56F1C8F", "QUASOU": [ "2" ], "WATLEV": 4, "SORDAT": "200611", "SORIND": "US,US,graph,Chart 13217" }, "geometry": { "type": "Point", "coordinates": [ -71.5446609, 41.1651122 ] } },
{ "type": "Feature", "properties": { "RCID": 59, "PRIM": 1, "GRUP": 2, "OBJL": 153, "RVER": 1, "AGEN": 550, "FIDN": 273437627, "FIDS": 7311, "LNAM": "0226104C53BB1C8F", "QUASOU": [ "2" ], "WATLEV": 4, "SORDAT": "20140818", "SORIND": "US,US,graph,GC11187" }, "geometry": { "type": "Point", "coordinates": [ -71.5449523, 41.1586398 ] } },
{ "type": "Feature", "properties": { "RCID": 60, "PRIM": 1, "GRUP": 2, "OBJL": 153, "RVER": 1, "AGEN": 550, "FIDN": 36049443, "FIDS": 7311, "LNAM": "0226022612231C8F", "QUASOU": [ "2" ], "WATLEV": 4, "SCAMIN": 21999, "SORDAT": "20140818", "SORIND": "US,US,graph,GC11187" }, "geometry": { "type": "Point", "coordinates": [ -71.5455937, 41.1565779 ] } },
{ "type": "Feature", "properties": { "RCID": 61, "PRIM": 1, "GRUP": 2, "OBJL": 153, "RVER": 1, "AGEN": 550, "FIDN": 831013914, "FIDS": 7311, "LNAM": "02263188441A1C8F", "QUASOU": [ "2" ], "WATLEV": 4, "SCAMIN": 21999, "SORDAT": "20140818", "SORIND": "US,US,graph,GC11187" }, "geometry": { "type": "Point", "coordinates": [ -71.547658, 41.1662388 ] } },
{ "type": "Feature", "properties": { "RCID": 62, "PRIM": 1, "GRUP": 2, "OBJL": 153, "RVER": 1, "AGEN": 550, "FIDN": 206379473, "FIDS": 7311, "LNAM": "02260C4D19D11C8F", "QUASOU": [ "2" ], "WATLEV": 3, "SCAMIN": 21999, "SORDAT": "20140818", "SORIND": "US,US,graph,GC11187" }, "geometry": { "type": "Point", "coordinates": [ -71.5481105, 41.152711 ] } },
{ "type": "Feature", "properties": { "RCID": 63, "PRIM": 1, "GRUP": 2, "OBJL": 153, "RVER": 1, "AGEN": 550, "FIDN": 914880754, "FIDS": 7311, "LNAM": "02263687F8F21C8F", "QUASOU": [ "2" ], "WATLEV": 4, "SCAMIN": 21999, "SORDAT": "200611", "SORIND": "US,US,graph,Chart 13217" }, "geometry": { "type": "Point", "coordinates": [ -71.5421522, 41.1614758 ] } },
{ "type": "Feature", "properties": { "RCID": 64, "PRIM": 1, "GRUP": 2, "OBJL": 153, "RVER": 1, "AGEN": 550, "FIDN": 279741072, "FIDS": 7311, "LNAM": "022610AC82901C8F", "EXPSOU": 2, "QUASOU": [ "6" ], "VALSOU": 4.5, "WATLEV": 3, "SORDAT": "20090811", "SORIND": "US,US,reprt,L-1381-2009,NW18046" }, "geometry": { "type": "Point", "coordinates": [ -71.5428889, 41.1685 ] } },
{ "type": "Feature", "properties": { "RCID": 65, "PRIM": 1, "GRUP": 2, "OBJL": 153, "RVER": 1, "AGEN": 550, "FIDN": 708462006, "FIDS": 7311, "LNAM": "02262A3A45B61C8F", "QUASOU": [ "2" ], "WATLEV": 3, "SCAMIN": 21999, "SORDAT": "20140818", "SORIND": "US,US,graph,GC11187" }, "geometry": { "type": "Point", "coordinates": [ -71.5445765, 41.1594385 ] } },
{ "type": "Feature", "properties": { "RCID": 66, "PRIM": 1, "GRUP": 2, "OBJL": 153, "RVER": 1, "AGEN": 550, "FIDN": 14069955, "FIDS": 7311, "LNAM": "022600D6B0C31C8F", "QUASOU": [ "2" ], "WATLEV": 4, "SCAMIN": 21999, "SORDAT": "200611", "SORIND": "US,US,graph,Chart 13217" }, "geometry": { "type": "Point", "coordinates": [ -71.5446169, 41.1579804 ] } },
{ "type": "Feature", "properties": { "RCID": 67, "PRIM": 1, "GRUP": 2, "OBJL": 153, "RVER": 1, "AGEN": 550, "FIDN": 252504811, "FIDS": 7311, "LNAM": "02260F0CEAEB1C8F", "QUASOU": [ "2" ], "WATLEV": 4, "SORDAT": "20140818", "SORIND": "US,US,graph,GC11187" }, "geometry": { "type": "Point", "coordinates": [ -71.5449041, 41.1628633 ] } },
{ "type": "Feature", "properties": { "RCID": 68, "PRIM": 1, "GRUP": 2, "OBJL": 153, "RVER": 1, "AGEN": 550, "FIDN": 716325344, "FIDS": 7311, "LNAM": "02262AB241E01C8F", "QUASOU": [ "2" ], "WATLEV": 4, "SORDAT": "200611", "SORIND": "US,US,graph,Chart 13217" }, "geometry": { "type": "Point", "coordinates": [ -71.5458539, 41.1550725 ] } },
{ "type": "Feature", "properties": { "RCID": 69, "PRIM": 1, "GRUP": 2, "OBJL": 153, "RVER": 1, "AGEN": 550, "FIDN": 418170399, "FIDS": 7311, "LNAM": "022618ECC61F1C8F", "QUASOU": [ "2" ], "WATLEV": 4, "SORDAT": "20140818", "SORIND": "US,US,graph,GC11187" }, "geometry": { "type": "Point", "coordinates": [ -71.5459475, 41.1539081 ] } },
{ "type": "Feature", "properties": { "RCID": 70, "PRIM": 1, "GRUP": 2, "OBJL": 153, "RVER": 1, "AGEN": 550, "FIDN": 876847923, "FIDS": 7311, "LNAM": "02263443A3331C8F", "QUASOU": [ "2" ], "WATLEV": 3, "SCAMIN": 21999, "SORDAT": "200611", "SORIND": "US,US,graph,Chart 13217" }, "geometry": { "type": "Point", "coordinates": [ -71.5466768, 41.1664718 ] } },
{ "type": "Feature", "properties": { "RCID": 71, "PRIM": 1, "GRUP": 2, "OBJL": 153, "RVER": 1, "AGEN": 550, "FIDN": 359949996, "FIDS": 7311, "LNAM": "0226157466AC1C8F", "QUASOU": [ "2" ], "WATLEV": 4, "SORDAT": "200611", "SORIND": "US,US,graph,Chart 13217" }, "geometry": { "type": "Point", "coordinates": [ -71.546738, 41.1663159 ] } },
{ "type": "Feature", "properties": { "RCID": 72, "PRIM": 1, "GRUP": 2, "OBJL": 153, "RVER": 1, "AGEN": 550, "FIDN": 644825656, "FIDS": 7311, "LNAM": "0226266F42381C8F", "EXPSOU": 2, "QUASOU": [ "6" ], "VALSOU": 3.0, "WATLEV": 3, "SORDAT": "20090811", "SORIND": "US,US,reprt,L-1381-2009,NW18046" }, "geometry": { "type": "Point", "coordinates": [ -71.5469167, 41.1694167 ] } },
{ "type": "Feature", "properties": { "RCID": 73, "PRIM": 1, "GRUP": 2, "OBJL": 153, "RVER": 1, "AGEN": 550, "FIDN": 27613148, "FIDS": 7311, "LNAM": "022601A557DC1C8F", "QUASOU": [ "2" ], "WATLEV": 4, "SCAMIN": 21999, "SORDAT": "200611", "SORIND": "US,US,graph,Chart 13217" }, "geometry": { "type": "Point", "coordinates": [ -71.5474109, 41.1533416 ] } },
{ "type": "Feature", "properties": { "RCID": 74, "PRIM": 1, "GRUP": 2, "OBJL": 153, "RVER": 1, "AGEN": 550, "FIDN": 218881735, "FIDS": 7311, "LNAM": "02260D0BDEC71C8F", "QUASOU": [ "2" ], "WATLEV": 4, "SCAMIN": 21999, "SORDAT": "20140818", "SORIND": "US,US,graph,GC11187" }, "geometry": { "type": "Point", "coordinates": [ -71.5488843, 41.1518177 ] } },
{ "type": "Feature", "properties": { "RCID": 75, "PRIM": 1, "GRUP": 2, "OBJL": 153, "RVER": 1, "AGEN": 550, "FIDN": 394751401, "FIDS": 7311, "LNAM": "022617876DA91C8F", "QUASOU": [ "2" ], "WATLEV": 4, "SORDAT": "20140818", "SORIND": "US,US,graph,GC11187" }, "geometry": { "type": "Point", "coordinates": [ -71.5491453, 41.1518212 ] } },
{ "type": "Feature", "properties": { "RCID": 76, "PRIM": 1, "GRUP": 2, "OBJL": 153, "RVER": 1, "AGEN": 550, "FIDN": 305152752, "FIDS": 7311, "LNAM": "0226123042F01C8F", "QUASOU": [ "2" ], "WATLEV": 3, "SCAMIN": 21999, "SORDAT": "20140818", "SORIND": "US,US,graph,GC11187" }, "geometry": { "type": "Point", "coordinates": [ -71.5438684, 41.164016 ] } },
{ "type": "Feature", "properties": { "RCID": 77, "PRIM": 1, "GRUP": 2, "OBJL": 153, "RVER": 1, "AGEN": 550, "FIDN": 327826900, "FIDS": 7311, "LNAM": "0226138A3DD41C8F", "QUASOU": [ "2" ], "WATLEV": 4, "SORDAT": "20140818", "SORIND": "US,US,graph,GC11187" }, "geometry": { "type": "Point", "coordinates": [ -71.5441049, 41.1648678 ] } },
{ "type": "Feature", "properties": { "RCID": 78, "PRIM": 1, "GRUP": 2, "OBJL": 153, "RVER": 1, "AGEN": 550, "FIDN": 882694874, "FIDS": 7311, "LNAM": "0226349CDADA1C8F", "QUASOU": [ "2" ], "WATLEV": 4, "SORDAT": "200611", "SORIND": "US,US,graph,Chart 13217" }, "geometry": { "type": "Point", "coordinates": [ -71.5441682, 41.1647909 ] } },
{ "type": "Feature", "properties": { "RCID": 79, "PRIM": 1, "GRUP": 2, "OBJL": 153, "RVER": 1, "AGEN": 550, "FIDN": 105719309, "FIDS": 7311, "LNAM": "0226064D260D1C8F", "QUASOU": [ "2" ], "WATLEV": 4, "SORDAT": "200611", "SORIND": "US,US,graph,Chart 13217" }, "geometry": { "type": "Point", "coordinates": [ -71.5458279, 41.1553635 ] } },
{ "type": "Feature", "properties": { "RCID": 80, "PRIM": 1, "GRUP": 2, "OBJL": 153, "RVER": 1, "AGEN": 550, "FIDN": 431226111, "FIDS": 7311, "LNAM": "022619B3FCFF1C8F", "QUASOU": [ "2" ], "WATLEV": 4, "SORDAT": "200611", "SORIND": "US,US,graph,Chart 13217" }, "geometry": { "type": "Point", "coordinates": [ -71.5462942, 41.1555005 ] } },
{ "type": "Feature", "properties": { "RCID": 81, "PRIM": 1, "GRUP": 2, "OBJL": 153, "RVER": 1, "AGEN": 550, "FIDN": 252682680, "FIDS": 7311, "LNAM": "02260F0FA1B81C8F", "QUASOU": [ "2" ], "WATLEV": 3, "SCAMIN": 21999, "SORDAT": "200611", "SORIND": "US,US,graph,Chart 13217" }, "geometry": { "type": "Point", "coordinates": [ -71.5464955, 41.16662 ] } },
{ "type": "Feature", "properties": { "RCID": 82, "PRIM": 1, "GRUP": 2, "OBJL": 153, "RVER": 1, "AGEN": 550, "FIDN": 820895823, "FIDS": 7311, "LNAM": "022630EDE04F1C8F", "QUASOU": [ "2" ], "WATLEV": 4, "SORDAT": "20140818", "SORIND": "US,US,graph,GC11187" }, "geometry": { "type": "Point", "coordinates": [ -71.5482407, 41.1662188 ] } },
{ "type": "Feature", "properties": { "RCID": 83, "PRIM": 1, "GRUP": 2, "OBJL": 153, "RVER": 1, "AGEN": 550, "FIDN": 33648862, "FIDS": 7311, "LNAM": "0226020170DE1C8F", "QUASOU": [ "2" ], "WATLEV": 3, "SCAMIN": 21999, "SORDAT": "20140818", "SORIND": "US,US,graph,GC11187" }, "geometry": { "type": "Point", "coordinates": [ -71.5483693, 41.1528711 ] } },
{ "type": "Feature", "properties": { "RCID": 84, "PRIM": 1, "GRUP": 2, "OBJL": 153, "RVER": 1, "AGEN": 550, "FIDN": 910507997, "FIDS": 7311, "LNAM": "022636453FDD1C8F", "QUASOU": [ "2" ], "WATLEV": 4, "SCAMIN": 21999, "SORDAT": "200611", "SORIND": "US,US,graph,Chart 13217" }, "geometry": { "type": "Point", "coordinates": [ -71.5430445, 41.1612451 ] } },
{ "type": "Feature", "properties": { "RCID": 85, "PRIM": 1, "GRUP": 2, "OBJL": 153, "RVER": 1, "AGEN": 550, "FIDN": 898605257, "FIDS": 7311, "LNAM": "0226358FA0C91C8F", "QUASOU": [ "2" ], "WATLEV": 4, "SORDAT": "20140818", "SORIND": "US,US,graph,GC11187" }, "geometry": { "type": "Point", "coordinates": [ -71.544206, 41.1605774 ] } },
{ "type": "Feature", "properties": { "RCID": 86, "PRIM": 1, "GRUP": 2, "OBJL": 153, "RVER": 1, "AGEN": 550, "FIDN": 117159052, "FIDS": 7311, "LNAM": "022606FBB48C1C8F", "QUASOU": [ "2" ], "WATLEV": 4, "SORDAT": "20140818", "SORIND": "US,US,graph,GC11187" }, "geometry": { "type": "Point", "coordinates": [ -71.544317, 41.1640224 ] } },
{ "type": "Feature", "properties": { "RCID": 87, "PRIM": 1, "GRUP": 2, "OBJL": 153, "RVER": 1, "AGEN": 550, "FIDN": 809527499, "FIDS": 7311, "LNAM": "0226304068CB1C8F", "QUASOU": [ "2" ], "WATLEV": 4, "SCAMIN": 21999, "SORDAT": "200611", "SORIND": "US,US,graph,Chart 13217" }, "geometry": { "type": "Point", "coordinates": [ -71.5447988, 41.1569626 ] } },
{ "type": "Feature", "properties": { "RCID": 88, "PRIM": 1, "GRUP": 2, "OBJL": 153, "RVER": 1, "AGEN": 550, "FIDN": 675469175, "FIDS": 7311, "LNAM": "02262842D7771C8F", "QUASOU": [ "2" ], "WATLEV": 4, "SORDAT": "200611", "SORIND": "US,US,graph,Chart 13217" }, "geometry": { "type": "Point", "coordinates": [ -71.5449906, 41.1652853 ] } },
{ "type": "Feature", "properties": { "RCID": 89, "PRIM": 1, "GRUP": 2, "OBJL": 153, "RVER": 1, "AGEN": 550, "FIDN": 575936646, "FIDS": 7311, "LNAM": "0226225418861C8F", "QUASOU": [ "2" ], "WATLEV": 3, "SCAMIN": 21999, "SORDAT": "20140818", "SORIND": "US,US,graph,GC11187" }, "geometry": { "type": "Point", "coordinates": [ -71.5455761, 41.1559317 ] } },
{ "type": "Feature", "properties": { "RCID": 90, "PRIM": 1, "GRUP": 2, "OBJL": 153, "RVER": 1, "AGEN": 550, "FIDN": 779824628, "FIDS": 7311, "LNAM": "02262E7B2DF41C8F", "QUASOU": [ "2" ], "WATLEV": 4, "SORDAT": "20140818", "SORIND": "US,US,graph,GC11187" }, "geometry": { "type": "Point", "coordinates": [ -71.5495464, 41.1515764 ] } },
{ "type": "Feature", "properties": { "RCID": 91, "PRIM": 1, "GRUP": 2, "OBJL": 153, "RVER": 1, "AGEN": 550, "FIDN": 671362980, "FIDS": 7311, "LNAM": "022628042FA41C8F", "QUASOU": [ "2" ], "WATLEV": 4, "SORDAT": "20140818", "SORIND": "US,US,graph,GC11187" }, "geometry": { "type": "Point", "coordinates": [ -71.5496162, 41.1667889 ] } },
{ "type": "Feature", "properties": { "RCID": 92, "PRIM": 1, "GRUP": 2, "OBJL": 153, "RVER": 1, "AGEN": 550, "FIDN": 733944889, "FIDS": 7311, "LNAM": "02262BBF1C391C8F", "QUASOU": [ "2" ], "WATLEV": 3, "SCAMIN": 21999, "SORDAT": "20140818", "SORIND": "US,US,graph,GC11187" }, "geometry": { "type": "Point", "coordinates": [ -71.5432744, 41.1618121 ] } },
{ "type": "Feature", "properties": { "RCID": 93, "PRIM": 1, "GRUP": 2, "OBJL": 153, "RVER": 1, "AGEN": 550, "FIDN": 99970591, "FIDS": 7311, "LNAM": "022605F56E1F1C8F", "QUASOU": [ "2" ], "WATLEV": 4, "SCAMIN": 21999, "SORDAT": "200611", "SORIND": "US,US,graph,Chart 13217" }, "geometry": { "type": "Point", "coordinates": [ -71.5436576, 41.1611555 ] } },
{ "type": "Feature", "properties": { "RCID": 94, "PRIM": 1, "GRUP": 2, "OBJL": 153, "RVER": 1, "AGEN": 550, "FIDN": 167866456, "FIDS": 7311, "LNAM": "02260A0170581C8F", "QUASOU": [ "2" ], "WATLEV": 3, "SCAMIN": 21999, "SORDAT": "20140818", "SORIND": "US,US,graph,GC11187" }, "geometry": { "type": "Point", "coordinates": [ -71.5441229, 41.1623334 ] } },
{ "type": "Feature", "properties": { "RCID": 95, "PRIM": 1, "GRUP": 2, "OBJL": 153, "RVER": 1, "AGEN": 550, "FIDN": 539681707, "FIDS": 7311, "LNAM": "0226202AE3AB1C8F", "QUASOU": [ "2" ], "WATLEV": 4, "SCAMIN": 21999, "SORDAT": "20140818", "SORIND": "US,US,graph,GC11187" }, "geometry": { "type": "Point", "coordinates": [ -71.5442293, 41.1568149 ] } },
{ "type": "Feature", "properties": { "RCID": 96, "PRIM": 1, "GRUP": 2, "OBJL": 153, "RVER": 1, "AGEN": 550, "FIDN": 946895478, "FIDS": 7311, "LNAM": "022638707A761C8F", "QUASOU": [ "2" ], "WATLEV": 4, "SORDAT": "20140818", "SORIND": "US,US,graph,GC11187" }, "geometry": { "type": "Point", "coordinates": [ -71.5442706, 41.165066 ] } },
{ "type": "Feature", "properties": { "RCID": 97, "PRIM": 1, "GRUP": 2, "OBJL": 153, "RVER": 1, "AGEN": 550, "FIDN": 235920984, "FIDS": 7311, "LNAM": "02260E0FDE581C8F", "QUASOU": [ "2" ], "WATLEV": 4, "SORDAT": "200611", "SORIND": "US,US,graph,Chart 13217" }, "geometry": { "type": "Point", "coordinates": [ -71.5448285, 41.1581568 ] } },
{ "type": "Feature", "properties": { "RCID": 98, "PRIM": 1, "GRUP": 2, "OBJL": 153, "RVER": 1, "AGEN": 550, "FIDN": 632605703, "FIDS": 7311, "LNAM": "022625B4CC071C8F", "QUASOU": [ "2" ], "WATLEV": 4, "SCAMIN": 21999, "SORDAT": "200611", "SORIND": "US,US,graph,Chart 13217" }, "geometry": { "type": "Point", "coordinates": [ -71.5450313, 41.1590435 ] } },
{ "type": "Feature", "properties": { "RCID": 99, "PRIM": 1, "GRUP": 2, "OBJL": 153, "RVER": 1, "AGEN": 550, "FIDN": 802213803, "FIDS": 7311, "LNAM": "02262FD0CFAB1C8F", "QUASOU": [ "2" ], "WATLEV": 3, "SCAMIN": 21999, "SORDAT": "20140818", "SORIND": "US,US,graph,GC11187" }, "geometry": { "type": "Point", "coordinates": [ -71.545822, 41.1663906 ] } },
{ "type": "Feature", "properties": { "RCID": 100, "PRIM": 1, "GRUP": 2, "OBJL": 153, "RVER": 1, "AGEN": 550, "FIDN": 372519851, "FIDS": 7311, "LNAM": "0226163433AB1C8F", "QUASOU": [ "2" ], "WATLEV": 4, "SORDAT": "200611", "SORIND": "US,US,graph,Chart 13217" }, "geometry": { "type": "Point", "coordinates": [ -71.5464887, 41.1515039 ] } },
{ "type": "Feature", "properties": { "RCID": 101, "PRIM": 1, "GRUP": 2, "OBJL": 153, "RVER": 1, "AGEN": 550, "FIDN": 657725939, "FIDS": 7311, "LNAM": "0226273419F31C8F", "QUASOU": [ "2" ], "WATLEV": 4, "SCAMIN": 21999, "SORDAT": "20140818", "SORIND": "US,US,graph,GC11187" }, "geometry": { "type": "Point", "coordinates": [ -71.5465648, 41.153426 ] } },
{ "type": "Feature", "properties": { "RCID": 102, "PRIM": 1, "GRUP": 2, "OBJL": 153, "RVER": 1, "AGEN": 550, "FIDN": 143795208, "FIDS": 7311, "LNAM": "0226089224081C8F", "QUASOU": [ "2" ], "WATLEV": 3, "SCAMIN": 21999, "SORDAT": "20140818", "SORIND": "US,US,graph,GC11187" }, "geometry": { "type": "Point", "coordinates": [ -71.5468771, 41.1518961 ] } },
{ "type": "Feature", "properties": { "RCID": 103, "PRIM": 1, "GRUP": 2, "OBJL": 153, "RVER": 1, "AGEN": 550, "FIDN": 196283549, "FIDS": 7311, "LNAM": "02260BB30C9D1C8F", "QUASOU": [ "2" ], "WATLEV": 3, "SCAMIN": 21999, "SORDAT": "200611", "SORIND": "US,US,graph,Chart 13217" }, "geometry": { "type": "Point", "coordinates": [ -71.5471926, 41.16628 ] } },
{ "type": "Feature", "properties": { "RCID": 104, "PRIM": 1, "GRUP": 2, "OBJL": 153, "RVER": 1, "AGEN": 550, "FIDN": 188601713, "FIDS": 7311, "LNAM": "02260B3DD5711C8F", "QUASOU": [ "2" ], "WATLEV": 4, "SCAMIN": 21999, "SORDAT": "200611", "SORIND": "US,US,graph,Chart 13217" }, "geometry": { "type": "Point", "coordinates": [ -71.5491759, 41.1668176 ] } },
{ "type": "Feature", "properties": { "RCID": 105, "PRIM": 1, "GRUP": 2, "OBJL": 153, "RVER": 1, "AGEN": 550, "FIDN": 684369153, "FIDS": 7311, "LNAM": "022628CAA5011C8F", "QUASOU": [ "2" ], "WATLEV": 3, "SCAMIN": 21999, "SORDAT": "20140818", "SORIND": "US,US,graph,GC11187" }, "geometry": { "type": "Point", "coordinates": [ -71.5423602, 41.1611752 ] } },
{ "type": "Feature", "properties": { "RCID": 106, "PRIM": 1, "GRUP": 2, "OBJL": 153, "RVER": 1, "AGEN": 550, "FIDN": 447820834, "FIDS": 7311, "LNAM": "02261AB134221C8F", "QUASOU": [ "2" ], "WATLEV": 4, "SCAMIN": 21999, "SORDAT": "20140818", "SORIND": "US,US,graph,GC11187" }, "geometry": { "type": "Point", "coordinates": [ -71.543881, 41.1602569 ] } },
{ "type": "Feature", "properties": { "RCID": 107, "PRIM": 1, "GRUP": 2, "OBJL": 153, "RVER": 1, "AGEN": 550, "FIDN": 500189255, "FIDS": 7311, "LNAM": "02261DD048471C8F", "QUASOU": [ "2" ], "WATLEV": 3, "SCAMIN": 21999, "SORDAT": "20140818", "SORIND": "US,US,graph,GC11187" }, "geometry": { "type": "Point", "coordinates": [ -71.5440269, 41.1561147 ] } },
{ "type": "Feature", "properties": { "RCID": 108, "PRIM": 1, "GRUP": 2, "OBJL": 153, "RVER": 1, "AGEN": 550, "FIDN": 437040538, "FIDS": 7311, "LNAM": "02261A0CB59A1C8F", "QUASOU": [ "2" ], "WATLEV": 4, "SORDAT": "20140818", "SORIND": "US,US,graph,GC11187" }, "geometry": { "type": "Point", "coordinates": [ -71.5442079, 41.1643752 ] } },
{ "type": "Feature", "properties": { "RCID": 109, "PRIM": 1, "GRUP": 2, "OBJL": 153, "RVER": 1, "AGEN": 550, "FIDN": 520992522, "FIDS": 7311, "LNAM": "02261F0DB70A1C8F", "QUASOU": [ "2" ], "WATLEV": 4, "SORDAT": "200611", "SORIND": "US,US,graph,Chart 13217" }, "geometry": { "type": "Point", "coordinates": [ -71.5450258, 41.1588442 ] } },
{ "type": "Feature", "properties": { "RCID": 110, "PRIM": 1, "GRUP": 2, "OBJL": 153, "RVER": 1, "AGEN": 550, "FIDN": 285130006, "FIDS": 7311, "LNAM": "022610FEBD161C8F", "QUASOU": [ "2" ], "WATLEV": 4, "SORDAT": "20140818", "SORIND": "US,US,graph,GC11187" }, "geometry": { "type": "Point", "coordinates": [ -71.5450646, 41.1656018 ] } },
{ "type": "Feature", "properties": { "RCID": 111, "PRIM": 1, "GRUP": 2, "OBJL": 153, "RVER": 1, "AGEN": 550, "FIDN": 727930656, "FIDS": 7311, "LNAM": "02262B6357201C8F", "QUASOU": [ "2" ], "WATLEV": 3, "SCAMIN": 21999, "SORDAT": "20140818", "SORIND": "US,US,graph,GC11187" }, "geometry": { "type": "Point", "coordinates": [ -71.5490968, 41.1512957 ] } },
{ "type": "Feature", "properties": { "RCID": 112, "PRIM": 1, "GRUP": 2, "OBJL": 153, "RVER": 1, "AGEN": 550, "FIDN": 114270885, "FIDS": 7311, "LNAM": "022606CFA2A51C8F", "QUASOU": [ "2" ], "WATLEV": 4, "SCAMIN": 21999, "SORDAT": "20140818", "SORIND": "US,US,graph,GC11187" }, "geometry": { "type": "Point", "coordinates": [ -71.5486431, 41.1661803 ] } },
{ "type": "Feature", "properties": { "RCID": 113, "PRIM": 1, "GRUP": 2, "OBJL": 153, "RVER": 1, "AGEN": 550, "FIDN": 421132043, "FIDS": 7311, "LNAM": "02261919F70B1C8F", "QUASOU": [ "2" ], "WATLEV": 3, "SCAMIN": 21999, "SORDAT": "20140818", "SORIND": "US,US,graph,GC11187" }, "geometry": { "type": "Point", "coordinates": [ -71.5484396, 41.1511181 ] } },
{ "type": "Feature", "properties": { "RCID": 114, "PRIM": 1, "GRUP": 2, "OBJL": 153, "RVER": 1, "AGEN": 550, "FIDN": 117939233, "FIDS": 7311, "LNAM": "022607079C211C8F", "QUASOU": [ "2" ], "WATLEV": 4, "SCAMIN": 21999, "SORDAT": "20140818", "SORIND": "US,US,graph,GC11187" }, "geometry": { "type": "Point", "coordinates": [ -71.546395, 41.1535983 ] } },
{ "type": "Feature", "properties": { "RCID": 115, "PRIM": 1, "GRUP": 2, "OBJL": 153, "RVER": 1, "AGEN": 550, "FIDN": 463408180, "FIDS": 7311, "LNAM": "02261B9F0C341C8F", "QUASOU": [ "2" ], "WATLEV": 4, "SCAMIN": 21999, "SORDAT": "200611", "SORIND": "US,US,graph,Chart 13217" }, "geometry": { "type": "Point", "coordinates": [ -71.5459907, 41.1543331 ] } },
{ "type": "Feature", "properties": { "RCID": 116, "PRIM": 1, "GRUP": 2, "OBJL": 153, "RVER": 1, "AGEN": 550, "FIDN": 475803240, "FIDS": 7311, "LNAM": "02261C5C2E681C8F", "QUASOU": [ "2" ], "WATLEV": 4, "SCAMIN": 21999, "SORDAT": "200611", "SORIND": "US,US,graph,Chart 13217" }, "geometry": { "type": "Point", "coordinates": [ -71.5458568, 41.153283 ] } }
]
}
